{"type":"Feature","properties":{"GID_2":"SYR.14.1_1","GID_0":"SYR","country":"Syria","GID_1":"SYR.14_1","province":"Tartus","NL_NAME_1":"NA","county":"Ash-ShaykhBadr","VARNAME_2":"NA","NL_NAME_2":"NA","TYPE_2":"Mantika","ENGTYPE_2":"District","CC_2":"NA","HASC_2":"NA","name":"Ash-Shaykh_Badr.county"},
"geometry":{"type": "MultiPolygon","coordinates": [[[[36.1751,35.0492,508.1985],[36.1618,35.0492,794.7252],[36.13,35.044,552.793],[36.0777,35.0481,395.6316],[36.0644,35.0512,241.6262],[36.049,35.0584,342.5502],[36.0295,35.0799,442.081],[36.0121,35.0881,350.1177],[36.0008,35.0881,130.835],[35.9906,35.084,423.6954],[35.9793,35.083,329.5636],[35.9691,35.0754,223.3517],[35.9731,35.0717,181.8187],[35.9854,35.0451,384.4503],[35.9926,35.0358,462.5923],[36.0008,35.0297,506.2093],[36.0203,34.9928,468.2507],[36.0285,34.9825,380.4683],[36.0449,34.9774,517.1102],[36.1044,34.9764,506.9907],[36.1249,34.9856,515.7027],[36.1464,34.9907,535.9534],[36.1639,34.9907,448.666],[36.1782,35.0,568.4936],[36.1907,35.0036,591.9313],[36.1751,35.0317,785.1131],[36.1751,35.0492,508.1985]]]]}}