{"type":"Feature","properties":{"GID_2":"SYR.13.5_1","GID_0":"SYR","country":"Syria","GID_1":"SYR.13_1","province":"RifDimashq","NL_NAME_1":"NA","county":"Duma","VARNAME_2":"NA","NL_NAME_2":"NA","TYPE_2":"Mantika","ENGTYPE_2":"District","CC_2":"NA","HASC_2":"NA","name":"Duma.county"},
"geometry":{"type": "MultiPolygon","coordinates": [[[[38.3283,33.1239,752.5559],[38.2835,33.1612,744.7031],[38.0913,33.2849,691.6758],[38.0161,33.3358,685.4815],[37.9277,33.391,679.7714],[37.8615,33.4264,677.693],[37.7974,33.4507,693.0251],[37.762,33.4595,699.5621],[37.7399,33.4728,684.7249],[37.7156,33.5015,686.111],[37.6869,33.528,688.4296],[37.6626,33.5391,695.4495],[37.636,33.57,700.052],[37.6184,33.5965,702.5394],[37.6117,33.6208,739.2245],[37.6095,33.6385,744.6169],[37.5896,33.6474,736.9316],[37.5189,33.7026,767.3881],[37.4151,33.7799,794.4805],[37.3532,33.844,875.8737],[37.3267,33.8882,874.9548],[37.3024,33.9147,937.8963],[37.2913,33.9236,886.1721],[37.267,33.9391,915.7323],[37.2162,33.9523,994.061],[37.183,33.9656,933.0087],[37.1538,33.9656,919.86],[37.1546,33.9643,921.0015],[37.1518,33.9512,943.621],[37.1043,33.9065,914.1945],[37.0698,33.9037,891.6387],[37.0465,33.8925,881.3522],[37.0157,33.8841,885.3992],[36.9579,33.8589,861.9089],[36.929,33.8347,870.9894],[36.9001,33.8207,886.4772],[36.8647,33.7899,887.3439],[36.8442,33.776,858.1652],[36.8162,33.762,814.8071],[36.7873,33.7536,822.4795],[36.764,33.7443,840.9678],[36.7146,33.7051,781.7667],[36.6913,33.6893,797.5595],[36.626,33.6846,929.7273],[36.599,33.6715,811.8946],[36.5841,33.6613,718.9767],[36.5719,33.6557,666.2566],[36.5235,33.6557,765.3757],[36.4964,33.6585,1155.995],[36.489,33.666,1242.1941],[36.4638,33.6836,1102.1785],[36.4606,33.6766,997.5812],[36.4205,33.6729,1274.1949],[36.4075,33.6701,1256.2952],[36.3935,33.6589,1305.887],[36.3776,33.6393,1235.2781],[36.3776,33.6281,1052.1516],[36.3823,33.6188,1033.6379],[36.3823,33.6048,783.4639],[36.3776,33.5955,834.9232],[36.3733,33.5912,715.3557],[36.4018,33.5905,657.389],[36.4015,33.562,658.4215],[36.4121,33.5647,649.244],[36.428,33.5657,636.2019],[36.4447,33.5638,626.0157],[36.4662,33.5582,618.2245],[36.4858,33.548,614.3913],[36.4914,33.5377,614.3818],[36.4914,33.5284,617.462],[36.4858,33.5172,619.2136],[36.4746,33.5107,622.1405],[36.4643,33.4976,621.3599],[36.4625,33.431399999999996,620.9943],[36.469,33.4007,615.9205],[36.4671,33.3867,617.8625],[36.4848,33.3457,614.2352],[36.4858,33.3326,618.4399],[36.4988,33.313,620.963],[36.5111,33.2777,625.4987],[36.5193,33.286,613.5544],[36.5473,33.2869,602.8229],[36.565,33.2841,603.8618],[36.5725,33.2673,603.7429],[36.5864,33.2459,612.8378],[36.5986,33.2347,615.4562],[36.6088,33.2207,628.1613],[36.6093,33.1848,677.7429],[36.6932,33.1976,656.7],[36.7578,33.205,651.0876],[36.8772,33.2274,616.9926],[36.9033,33.22,628.9319],[36.9219,33.1976,628.3696],[36.953,33.1653,639.4032],[36.9828,33.1292,625.7622],[37.004,33.1106,621.1214],[37.0127,33.0919,606.9756],[37.0176,33.0671,612.1273],[37.0189,33.0385,637.248],[37.0276,33.0347,646.6664],[37.04,33.0335,630.569],[37.0848,33.0347,598.4524],[37.1059,33.0323,599.9364],[37.1165,33.0209,600.7518],[37.1407,33.0248,612.761],[37.1606,33.0161,619.3741],[37.1767,33.0024,627.7131],[37.1805,32.9912,620.9569],[37.1842,32.9589,606.4304],[37.1917,32.9502,604.188],[37.2103,32.9378,597.7192],[37.2277,32.9303,615.9702],[37.2774,32.9303,611.9471],[37.3097,32.9278,605.9095],[37.3259,32.9142,608.7596],[37.3358,32.898,631.4503],[37.3358,32.8669,648.1745],[37.3421,32.847,642.417],[37.3607,32.8272,689.14],[37.4067,32.7849,757.344],[37.4465,32.7551,775.3224],[37.4813,32.7314,727.149],[37.4999,32.7103,762.6561],[37.5103,32.6888,800.8246],[38.3283,33.1239,752.5559]]]]}}