{"type":"Feature","properties":{"GID_2":"SYR.2.8_1","GID_0":"SYR","country":"Syria","GID_1":"SYR.2_1","province":"Aleppo","NL_NAME_1":"NA","county":"Manbij","VARNAME_2":"NA","NL_NAME_2":"NA","TYPE_2":"Mantika","ENGTYPE_2":"District","CC_2":"NA","HASC_2":"NA","name":"Manbij.county"},
"geometry":{"type": "MultiPolygon","coordinates": [[[[38.0885,36.6544,379.2549],[38.0619,36.6433,368.3223],[38.0246,36.6433,376.8214],[38.0017,36.6361,384.5045],[37.9787,36.6361,368.9798],[37.9644,36.6246,408.3019],[37.9487,36.6074,412.9029],[37.9229,36.6031,441.9806],[37.9143,36.6089,431.6395],[37.8569,36.6275,450.2606],[37.8297,36.6318,444.6252],[37.8111,36.6318,461.8561],[37.7939,36.6447,477.6129],[37.7824,36.6504,478.9095],[37.7709,36.6504,461.4988],[37.7437,36.6089,493.7786],[37.7294,36.5931,494.6078],[37.7179,36.5745,501.6382],[37.7021,36.5558,514.9639],[37.6813,36.5365,518.3297],[37.6878,36.5243,517.982],[37.7021,36.5071,531.1078],[37.715,36.4985,544.7777],[37.7222,36.477,521.1069],[37.7208,36.4369,497.5491],[37.7179,36.4197,486.1359],[37.7208,36.3996,476.2036],[37.7322,36.3896,470.191],[37.7437,36.3695,495.3701],[37.7408,36.3523,476.0591],[37.7351,36.3366,474.9963],[37.7222,36.3194,453.1862],[37.7036,36.2993,439.567],[37.6907,36.2807,412.3585],[37.695,36.2678,398.8679],[37.7122,36.2563,389.824],[37.7322,36.2549,404.8317],[37.7494,36.2506,401.4103],[37.7623,36.2248,380.3297],[37.7595,36.2119,374.0007],[37.7365,36.209,368.6255],[37.7079,36.1832,352.9904],[37.705,36.1646,343.3934],[37.695,36.146,335.7633],[37.6835,36.1302,331.6903],[37.6821,36.1144,325.667],[37.685,36.0457,312.47],[37.6921,36.0227,311.6697],[37.6921,35.9984,312.138],[37.6893,35.9582,322.093],[37.6893,35.9124,312.0],[37.6807,35.8995,312.0],[37.6663,35.8866,312.0],[37.6506,35.8803,312.0],[37.6658,35.8613,321.0337],[37.6904,35.8167,366.8752],[37.7127,35.7827,357.4509],[37.7303,35.751,348.7079],[37.7467,35.7264,359.8014],[37.7597,35.7111,364.0795],[37.7632,35.6923,368.1536],[37.7726,35.6618,365.7152],[37.7749,35.5703,357.2704],[37.7808,35.5421,367.9323],[37.7808,35.5222,367.3844],[37.7843,35.4858,386.2386],[37.7796,35.4553,408.9605],[37.7702,35.4424,406.5118],[37.7702,35.4307,407.5289],[37.7749,35.4213,414.6866],[37.789,35.4119,423.4269],[37.8277,35.4084,443.5352],[37.8477,35.4095,442.4808],[37.8629,35.4154,438.0425],[37.8782,35.4248,433.7559],[37.8958,35.4283,428.0003],[37.9075,35.433,423.2218],[37.9357,35.4295,418.0369],[38.0084,35.426,422.6361],[38.1105,35.426,441.2644],[38.1727,35.4354,403.5984],[38.2114,35.4318,414.557],[38.2312,35.4395,409.9972],[38.2257,35.4442,414.2674],[38.2038,35.4801,406.4232],[38.1756,35.4989,395.7559],[38.1428,35.5083,399.5522],[38.1084,35.5255,390.1887],[38.088,35.5302,390.1432],[38.0708,35.538,391.5159],[38.0708,35.5521,397.3961],[38.0661,35.5615,399.5165],[38.0411,35.5756,413.2097],[38.0317,35.5771,402.0629],[38.0129,35.585,398.7085],[38.0098,35.6006,398.7222],[38.0067,35.6335,386.1569],[38.0098,35.7023,369.2822],[38.0145,35.7305,360.6904],[38.0239,35.7571,358.1342],[38.0786,35.8478,346.9512],[38.099,35.8713,354.0607],[38.124,35.8901,356.1695],[38.149,35.9026,359.921],[38.171,35.9073,358.0786],[38.1882,35.9167,348.3405],[38.1913,35.9323,348.8218],[38.1882,35.9542,299.5],[38.1788,35.9667,299.5],[38.1647,35.973,299.5],[38.1428,35.9886,299.5],[38.1224,36.0059,299.5],[38.0927,36.0356,299.5],[38.063,36.0575,299.5],[38.0473,36.0669,299.5],[38.038,36.081,299.5],[38.1146,36.2093,299.5],[38.1386,36.2358,299.5],[38.1364,36.2363,299.5],[38.1364,36.2492,299.5],[38.1421,36.2592,299.5],[38.1536,36.2664,319.2592],[38.1593,36.2778,315.0381],[38.1593,36.3007,317.9614],[38.1722,36.3581,376.7295],[38.1794,36.3824,326.4161],[38.1837,36.4111,339.7464],[38.1966,36.4283,320.0],[38.2281,36.4369,320.0],[38.2396,36.4455,320.0],[38.241,36.4598,335.939],[38.2496,36.4727,320.0],[38.2568,36.4914,348.119],[38.2668,36.5071,351.5042],[38.2668,36.5401,347.7233],[38.2496,36.5501,356.4767],[38.2381,36.5687,344.4828],[38.2338,36.5802,397.455],[38.2224,36.5917,379.4268],[38.2023,36.6046,420.6901],[38.1722,36.6275,495.3012],[38.135,36.6461,343.115],[38.1006,36.6476,375.3901],[38.0885,36.6544,379.2549]]]]}}