{"type":"Feature","properties":{"GID_1":"SYR.9_1","GID_0":"SYR","country":"Syria","province":"Hims","VARNAME_1":"Hims|Homs","NL_NAME_1":"NA","TYPE_1":"Muḥāfaẓah","ENGTYPE_1":"Governorate","CC_1":"NA","HASC_1":"SY.HI","ISO_1":"SY-HI","name":"Hims.province"},
"geometry":{"type": "MultiPolygon","coordinates": [[[[39.7694,33.843,612.8829],[39.9609,33.9342,535.4909],[39.8385,34.0932,518.7582],[39.7568,34.183,510.481],[39.6343,34.3219,470.08],[39.5444,34.4465,435.8084],[39.5193,34.4873,400.5284],[39.4874,34.5162,388.8953],[39.4507,34.5576,364.5587],[39.4159,34.6069,350.1619],[39.3579,34.6706,338.7524],[39.3257,34.6994,332.1453],[39.3154,34.7189,344.4573],[39.3154,34.7396,329.9942],[39.3223,34.7614,310.782],[39.328,34.7901,321.5773],[39.3292,34.8096,316.3569],[39.328,34.8303,308.975],[39.3234,34.8579,309.7123],[39.3039,34.8889,308.7659],[39.289,34.9188,313.7663],[39.2464,34.9728,318.8871],[39.2177,34.9958,323.8868],[39.1902,35.0107,333.5782],[39.1557,35.0337,350.747],[39.1568,35.0934,416.2153],[39.1729,35.1141,458.7517],[39.2085,35.1463,527.5442],[39.2499,35.1888,648.8771],[39.293,35.2383,686.5901],[39.2299,35.2477,718.0453],[39.1181,35.2763,589.0046],[38.9504,35.3079,521.2952],[38.873,35.3265,519.4969],[38.7211,35.3594,431.6498],[38.6681,35.3666,375.8656],[38.605,35.3652,363.9947],[38.5663,35.3752,365.678],[38.5534,35.3803,364.3375],[38.498,35.3753,375.3541],[38.3994,35.3753,375.108],[38.3509,35.3737,382.2318],[38.3227,35.3597,394.0014],[38.3205,35.3611,392.8041],[38.3114,35.3313,420.1601],[38.3069,35.2509,507.2441],[38.263,35.154,556.4841],[38.243,35.1255,581.6952],[38.1846,35.0694,691.4996],[38.1508,35.0532,726.6468],[38.0962,35.0317,787.9602],[38.0785,35.0163,821.6962],[38.0569,34.9925,888.006],[38.0477,34.9725,941.9354],[38.0385,34.9486,1005.2828],[38.0339,34.931,1038.9681],[38.0269,34.9163,1080.9548],[38.0139,34.9033,1115.401],[37.993899999999996,34.9002,1117.1687],[37.9785,34.9056,1153.46],[37.9654,34.914,1206.3893],[37.9454,34.9386,1184.3374],[37.93,34.9517,1131.5886],[37.8739,35.0117,869.3442],[37.8639,35.0279,861.8403],[37.8585,35.0432,876.1815],[37.8447,35.0663,755.8071],[37.8254,35.0832,683.3652],[37.7916,35.1032,627.1317],[37.7516,35.114,611.6313],[37.7262,35.1148,611.84],[37.6432,35.0971,617.4944],[37.5693,35.0732,636.8847],[37.5293,35.0548,676.3011],[37.4824,35.0217,704.0174],[37.4432,34.9886,709.3462],[37.4386,34.9648,752.2567],[37.4324,34.9571,742.7382],[37.4201,34.9509,738.1024],[37.4017,34.9463,698.1628],[37.3871,34.9333,715.3477],[37.3755,34.9179,737.4156],[37.3663,34.9094,733.4153],[37.3394,34.9071,703.1246],[37.3255,34.9102,697.2781],[37.314,34.9194,677.6765],[37.2971,34.9363,647.2581],[37.2732,34.9379,635.0797],[37.264,34.9317,636.8281],[37.2525,34.9133,659.0602],[37.2294,34.9133,636.4064],[37.2086,34.9171,621.5756],[37.2017,34.9163,616.8214],[37.1948,34.9125,607.0629],[37.1786,34.9086,613.2679],[37.1625,34.9071,601.837],[37.1448,34.8979,588.4547],[37.1148,34.8863,584.2033],[37.0994,34.8825,576.9033],[37.0871,34.8748,559.3444],[37.081,34.8679,571.5022],[37.071,34.8625,567.9014],[37.0579,34.861,557.0844],[37.041,34.8617,536.6244],[37.0241,34.8663,529.7733],[37.0018,34.8833,516.5194],[36.9881,34.8996,505.3369],[36.9904,34.9138,497.6199],[36.9904,34.9312,490.8636],[36.9811,34.9518,479.5066],[36.9452,34.9876,484.4364],[36.9297,34.9969,419.6996],[36.9288,34.9866,432.6755],[36.9155,34.9764,408.4033],[36.8981,34.9702,375.7517],[36.8365,34.961,360.7662],[36.8099,34.961,328.8882],[36.7976,34.9518,428.7606],[36.7945,34.9446,498.2881],[36.7945,34.9343,481.1583],[36.7863,34.9261,462.3307],[36.7791,34.9251,448.2954],[36.7514,34.9436,408.6132],[36.736,34.9487,419.4914],[36.7104,34.9518,406.7185],[36.6909,34.9518,402.4686],[36.6755,34.9425,396.5454],[36.6663,34.9271,397.3372],[36.6571,34.9241,397.6655],[36.6212,34.9292,362.85],[36.6089,34.9292,365.0993],[36.5925,34.9251,372.4318],[36.5771,34.9128,375.9185],[36.5627,34.9118,377.7248],[36.5484,34.9138,375.6124],[36.531,34.9292,381.28],[36.5269,34.9333,377.7469],[36.5238,34.9425,389.6842],[36.5238,34.96,370.0919],[36.5166,34.9682,370.5032],[36.4992,34.9743,385.1207],[36.4899,34.9712,381.303],[36.4848,34.963,371.8062],[36.4684,34.9487,374.8566],[36.453,34.9169,395.1165],[36.4438,34.9087,458.8408],[36.4305,34.9046,471.4484],[36.37,34.8933,707.8948],[36.3587,34.8943,840.4927],[36.3577,34.9138,584.2555],[36.3049,34.9147,911.6838],[36.3033,34.9077,930.4401],[36.3033,34.8882,830.8657],[36.2972,34.8779,802.6039],[36.2955,34.8779,806.2747],[36.2951,34.8749,755.6067],[36.2777,34.8533,749.6064],[36.2705,34.841,608.4138],[36.1977,34.7621,244.9686],[36.1721,34.7487,218.4405],[36.1608,34.7405,148.1845],[36.1587,34.7149,100.3917],[36.1464,34.6933,81.338],[36.1372,34.6841,67.4076],[36.1273,34.6707,29.8711],[36.1331,34.6636,36.7296],[36.1331,34.6467,35.303],[36.1364,34.6357,39.6305],[36.1391,34.6347,42.0509],[36.1434,34.6356,41.943],[36.1509,34.6332,47.7421],[36.1609,34.6337,56.0106],[36.1711,34.6285,103.427],[36.1747,34.6294,73.4726],[36.1756,34.6329,115.0269],[36.1787,34.6343,113.6894],[36.1884,34.6373,162.6839],[36.1959,34.636,96.9972],[36.1999,34.6376,107.7031],[36.2082,34.6321,113.7088],[36.2182,34.6306,157.0842],[36.2251,34.6259,162.4555],[36.2267,34.6299,173.5827],[36.2363,34.6275,163.8409],[36.2358,34.6326,264.5351],[36.241,34.6334,196.8295],[36.2428,34.6363,216.1407],[36.2465,34.6334,209.4333],[36.261,34.6304,203.8042],[36.2653,34.6272,211.6668],[36.2709,34.6299,219.1149],[36.2769,34.6283,272.6491],[36.2824,34.6325,279.9438],[36.2875,34.6304,269.7802],[36.2912,34.6338,301.5707],[36.2964,34.635,245.5571],[36.3026,34.6408,249.988],[36.2999,34.6406,260.935],[36.3038,34.6483,250.9856],[36.3041,34.6525,251.3799],[36.3076,34.6553,250.9901],[36.3019,34.668,258.7331],[36.3048,34.6714,255.6056],[36.3098,34.6829,257.7848],[36.3154,34.6836,258.4595],[36.3155,34.6857,259.2272],[36.3201,34.6897,260.0147],[36.3279,34.6893,260.6719],[36.3315,34.6914,261.2164],[36.3404,34.6909,261.8985],[36.3458,34.6892,263.3596],[36.3542,34.6818,267.1302],[36.3527,34.6798,268.4068],[36.3536,34.6746,271.797],[36.3491,34.6711,274.5208],[36.3502,34.6663,277.5942],[36.3483,34.6643,279.6359],[36.3497,34.6603,287.7903],[36.354,34.6573,287.6973],[36.3539,34.655,296.1344],[36.3586,34.6475,304.5023],[36.3605,34.6475,302.0939],[36.3647,34.6425,312.4747],[36.3698,34.642,317.7631],[36.3805,34.6334,335.9789],[36.3899,34.6304,351.5306],[36.3996,34.6376,399.1357],[36.4203,34.6264,520.8159],[36.4498,34.6373,509.7377],[36.4573,34.6377,506.9401],[36.4638,34.6362,505.9212],[36.4604,34.6339,508.6659],[36.4584,34.6298,516.8952],[36.4602,34.6261,523.1432],[36.4559,34.6236,520.1733],[36.4562,34.6193,519.2238],[36.4596,34.6158,520.0476],[36.458,34.6138,517.7546],[36.4596,34.6105,515.5039],[36.4567,34.606,522.2012],[36.4576,34.6043,524.3538],[36.4562,34.599,524.1013],[36.455,34.5995,525.9659],[36.451,34.5923,533.9729],[36.431399999999996,34.5926,555.0931],[36.4297,34.6001,557.5356],[36.4251,34.6048,538.8993],[36.4192,34.6065,557.9368],[36.4134,34.6061,562.1296],[36.4138,34.6123,547.577],[36.4095,34.6105,551.0301],[36.4063,34.611,546.8785],[36.4026,34.6075,452.4247],[36.4026,34.6038,463.7712],[36.4061,34.6006,498.5277],[36.4011,34.593,522.631],[36.4015,34.5823,550.446],[36.395,34.5761,588.2618],[36.398,34.5723,635.2125],[36.4027,34.5715,627.8139],[36.414,34.5637,635.6981],[36.4109,34.5537,652.1787],[36.408,34.5511,658.7922],[36.387,34.5475,755.6571],[36.3833,34.5437,829.7506],[36.3827,34.5376,857.6995],[36.3723,34.5354,986.5679],[36.3597,34.5221,1160.7507],[36.3533,34.5201,1300.822],[36.349,34.5168,1328.108],[36.347,34.5102,1321.4222],[36.3616,34.5034,1291.4755],[36.3748,34.5035,1208.7551],[36.3754,34.4983,1223.9943],[36.3784,34.5019,1213.563],[36.3827,34.5031,1169.4241],[36.3863,34.4963,978.8575],[36.3957,34.4995,1040.0475],[36.4074,34.4975,994.5987],[36.4166,34.4935,836.4875],[36.4283,34.5007,645.3282],[36.4381,34.502,572.2814],[36.444,34.4938,562.054],[36.4453,34.4885,566.2036],[36.4548,34.4724,559.1581],[36.4639,34.4628,556.4282],[36.4671,34.4629,555.0416],[36.4702,34.4602,557.4451],[36.4792,34.4603,556.2432],[36.4825,34.4581,556.9777],[36.4878,34.4579,555.2103],[36.4964,34.4548,546.809],[36.492,34.4526,550.0569],[36.4949,34.4496,558.2119],[36.5076,34.4483,556.4698],[36.5125,34.4441,556.0312],[36.5076,34.4393,557.7975],[36.5117,34.4409,552.7874],[36.5132,34.4376,555.7904],[36.5119,34.4361,555.8125],[36.514,34.4339,554.383],[36.5161,34.4368,553.4327],[36.5205,34.4349,553.0693],[36.5229,34.4268,559.9086],[36.5262,34.4284,552.7512],[36.5266,34.4317,550.8644],[36.5324,34.4295,550.0969],[36.5308,34.4251,555.7328],[36.5352,34.426,552.0613],[36.5407,34.422,552.0647],[36.549,34.4244,552.0969],[36.5544,34.4177,555.3622],[36.5537,34.4157,556.1929],[36.5605,34.3967,594.7267],[36.549,34.3853,617.76],[36.5375,34.3783,623.4883],[36.5362,34.3754,631.1497],[36.528,34.3698,641.3022],[36.5417,34.3492,777.1812],[36.545,34.3398,847.6973],[36.5505,34.3333,900.9338],[36.5621,34.3259,1000.885],[36.555,34.3095,1129.597],[36.5655,34.3033,1214.4],[36.5694,34.3027,1229.644],[36.5738,34.2966,1290.8218],[36.5979,34.2895,1437.0754],[36.5924,34.2838,1556.3854],[36.5735,34.2746,1612.3464],[36.5756,34.2743,1607.1626],[36.5773,34.2718,1584.7272],[36.5778,34.2654,1522.9976],[36.5837,34.2499,1565.2781],[36.5815,34.232,1640.2821],[36.587,34.224,1719.1829],[36.602,34.2197,1917.231],[36.6171,34.2078,2402.0408],[36.6218,34.1986,2190.3157],[36.6392,34.2057,2003.2975],[36.6531,34.2076,1889.5522],[36.6997,34.2123,1451.0748],[36.7267,34.2123,1333.1918],[36.7342,34.2085,1308.2024],[36.7435,34.1983,1289.5847],[36.7463,34.1862,1273.2422],[36.7463,34.1722,1283.483],[36.7547,34.1619,1251.2867],[36.7677,34.1573,1220.9412],[36.7826,34.1582,1189.168],[36.8013,34.1666,1152.5398],[36.8404,34.188,1102.568],[36.8656,34.1992,1041.9135],[36.901,34.2039,1054.7932],[36.9141,34.202,1085.3036],[36.9542,34.1666,1348.7557],[36.9691,34.147,1619.0135],[36.9933,34.12,1282.3793],[37.0045,34.1097,1049.47],[37.005,34.1015,1014.7903],[37.0362,34.0827,915.5792],[37.0614,34.0584,866.1058],[37.0782,34.0379,1142.1472],[37.1108,34.0044,922.637],[37.1313,33.9876,918.756],[37.1453,33.9783,924.2499],[37.1538,33.9656,919.86],[37.183,33.9656,933.0087],[37.2162,33.9523,994.061],[37.267,33.9391,915.7323],[37.2913,33.9236,886.1721],[37.3024,33.9147,937.8963],[37.3267,33.8882,874.9548],[37.3532,33.844,875.8737],[37.4151,33.7799,794.4805],[37.5189,33.7026,767.3881],[37.5896,33.6474,736.9316],[37.6095,33.6385,744.6169],[37.6117,33.6208,739.2245],[37.6184,33.5965,702.5394],[37.636,33.57,700.052],[37.6626,33.5391,695.4495],[37.6869,33.528,688.4296],[37.7156,33.5015,686.111],[37.7399,33.4728,684.7249],[37.762,33.4595,699.5621],[37.7974,33.4507,693.0251],[37.8615,33.4264,677.693],[37.9277,33.391,679.7714],[38.0161,33.3358,685.4815],[38.0913,33.2849,691.6758],[38.2835,33.1612,744.7031],[38.3283,33.1239,752.5559],[38.8041,33.3719,713.5413],[39.3771,33.654,682.5958],[39.7694,33.843,612.8829]]]]}}