{"type":"Feature","properties":{"ISO3166-1-Alpha-3":"SYR","country":"Syria","fill":"#00F","id":"139","name":"Homs (Hims)"},
"geometry":{"type": "Polygon","coordinates": [[[39.24203,35.24927,728.3226],[38.68418,35.37231,375.7632],[38.3903,35.39092,366.4934],[38.30167,35.38234,383.2239],[38.30307,35.36497,392.7428],[38.29997,35.25364,518.9208],[38.29532,35.23718,535.8216],[38.28462,35.21635,538.7827],[38.27501,35.20178,554.4908],[38.25062,35.17212,549.2107],[38.24674,35.16542,553.5665],[38.24209,35.15455,563.5155],[38.23961,35.14649,570.5865],[38.23806,35.1377,578.0714],[38.2379,35.12943,584.8647],[38.24318,35.09605,711.9114],[38.23976,35.0914,714.3342],[38.23263,35.08613,649.5],[38.10075,35.03791,779.4697],[38.08427,35.02758,805.8664],[38.05698,35.00665,849.6273],[38.0528,35.00239,864.2939],[38.05233,35.00019,872.2009],[38.05233,34.99993,872.2009],[38.0514,34.99177,895.3392],[38.05063,34.98993,906.5773],[38.0497,34.9883,904.5204],[38.04861,34.98691,920.0911],[38.04267,34.98055,946.6678],[38.04164,34.9789,936.3674],[38.03662,34.96874,981.0571],[38.03166,34.96133,1018.8985],[38.03089,34.95968,1016.981],[38.03027,34.95776,1015.1819],[38.03027,34.9557,1029.9264],[38.03089,34.94743,1045.8177],[38.03073,34.94298,1064.7415],[38.02996,34.93888,1055.3904],[38.02934,34.93709,1058.1145],[38.02856,34.93544,1039.2673],[38.02779,34.93384,1055.5266],[38.02655,34.93249,1085.5327],[38.02469,34.92944,1082.9746],[38.02376,34.92779,1070.7782],[38.02267,34.92412,1064.5519],[38.02112,34.92076,1082.3855],[38.02004,34.91932,1091.5997],[38.00159,34.90242,1122.2966],[37.99942,34.90133,1115.3035],[37.99198,34.89875,1119.2267],[37.98872,34.89828,1125.0132],[37.98603,34.89854,1126.5393],[37.98045,34.90324,1149.8021],[37.94169,34.94422,1164.0394],[37.93281,34.95528,1121.1144],[37.92614,34.96117,1078.1245],[37.86966,34.99931,887.9154],[37.8678,35.00029,887.9154],[37.86764,35.00032,887.9154],[37.86439,35.00218,877.1617],[37.85571,35.00877,884.1758],[37.85198,35.01249,885.1857],[37.85105,35.01409,882.6464],[37.85043,35.01587,883.4897],[37.84733,35.02902,888.7933],[37.8464,35.03946,910.4885],[37.84501,35.0451,850.5235],[37.84036,35.05936,785.7071],[37.83943,35.06086,762.9796],[37.83834,35.0622,742.7861],[37.83292,35.0668,734.7814],[37.83168,35.06817,747.2926],[37.83075,35.06964,728.2925],[37.8292,35.0729,729.5919],[37.82858,35.07466,722.5544],[37.82687,35.07781,697.9065],[37.82377,35.08202,683.8152],[37.81891,35.08721,667.4822],[37.81757,35.0883,666.4085],[37.81411,35.09029,661.9109],[37.8124,35.09106,659.8878],[37.8079,35.09215,655.8826],[37.78806,35.09243,635.7294],[37.78294,35.09295,637.8262],[37.7786,35.09403,634.116],[37.77488,35.09553,652.7002],[37.77163,35.09742,643.7495],[37.77008,35.09853,641.7129],[37.75871,35.10969,623.8661],[37.75266,35.11406,608.4879],[37.74584,35.11755,611.9398],[37.74383,35.11827,610.1616],[37.74073,35.11863,612.4143],[37.73685,35.11863,611.181],[37.65386,35.10259,622.9189],[37.60745,35.08907,641.5759],[37.59381,35.08659,620.0146],[37.58942,35.08636,616.7845],[37.58042,35.08675,624.8631],[37.575,35.08527,626.5037],[37.56833,35.08256,634.8322],[37.53728,35.06432,683.4556],[37.51774,35.05572,678.5852],[37.51092,35.05171,678.1962],[37.50658,35.0483,678.8815],[37.50534,35.04701,679.6775],[37.50441,35.04561,679.6775],[37.501,35.03921,683.4785],[37.4996,35.03564,685.9924],[37.49728,35.02179,704.3467],[37.49743,34.9959,761.0157],[37.49805,34.99187,755.739],[37.5027,34.97993,762.7557],[37.50379,34.97616,756.4083],[37.50394,34.97417,756.0105],[37.50379,34.97213,756.3947],[37.50332,34.97027,756.4748],[37.50255,34.96856,757.4318],[37.50084,34.96593,757.1787],[37.49991,34.96515,755.2096],[37.49883,34.96438,754.2922],[37.49728,34.96347,753.5392],[37.49433,34.96293,748.1154],[37.4903,34.96285,746.9461],[37.48219,34.96417,759.3885],[37.47847,34.96546,757.5981],[37.47583,34.96681,757.7384],[37.47242,34.97073,757.4525],[37.46327,34.98355,731.5829],[37.46188,34.98474,724.7836],[37.46017,34.98572,728.1008],[37.45614,34.98693,727.1006],[37.45118,34.98743,713.6667],[37.43955,34.98691,712.8214],[37.43211,34.98817,711.6585],[37.42617,34.98815,701.5666],[37.41315,34.98655,691.2027],[37.40741,34.98662,694.1349],[37.40369,34.98577,686.7289],[37.39889,34.98401,694.9507],[37.39005,34.9789,680.8444],[37.384,34.97657,689.6025],[37.37672,34.97502,678.0521],[37.36798,34.97585,661.9268],[37.36039,34.97766,657.2509],[37.35031,34.98334,651.6658],[37.34845,34.98412,649.0734],[37.34628,34.98463,641.7904],[37.34318,34.98396,639.4698],[37.33961,34.98205,632.127],[37.33465,34.97657,627.772],[37.33295,34.97316,636.9819],[37.33233,34.97029,640.9172],[37.33233,34.9682,642.8329],[37.33217,34.96624,643.4214],[37.33031,34.96502,643.8773],[37.32721,34.96443,641.375],[37.31155,34.96766,627.2836],[37.3008,34.96766,612.918],[37.29832,34.96727,613.295],[37.29553,34.96626,608.899],[37.29243,34.96438,615.0238],[37.2898,34.96066,612.7335],[37.2884,34.958,616.2806],[37.28608,34.95006,625.131],[37.28515,34.94856,628.5271],[37.28391,34.94732,628.5271],[37.27662,34.94169,624.1588],[37.27522,34.94043,624.1588],[37.27429,34.93895,629.6196],[37.27352,34.93745,635.0797],[37.26964,34.92443,651.7856],[37.26809,34.92118,646.8027],[37.26716,34.91963,648.8188],[37.26608,34.91823,647.1895],[37.2606,34.91348,659.8566],[37.2544,34.90955,666.0944],[37.25145,34.90908,664.9518],[37.24742,34.90908,653.5453],[37.23548,34.91164,649.1957],[37.2268,34.9149,634.3363],[37.22339,34.9166,630.4393],[37.22184,34.91771,633.6648],[37.21952,34.92035,627.5083],[37.2158,34.92624,615.1851],[37.21192,34.93469,597.5219],[37.21083,34.93608,600.2936],[37.20944,34.9373,602.0007],[37.2068,34.93947,591.477],[37.20355,34.94138,584.8163],[37.19983,34.94306,582.9144],[37.19575,34.94433,587.514],[37.19327,34.94464,584.5023],[37.18799,34.94469,582.6107],[37.18257,34.94275,581.3417],[37.15916,34.92975,569.9551],[37.15296,34.92521,581.2778],[37.14939,34.92174,577.0438],[37.14784,34.91596,582.0243],[37.1466,34.91467,583.8464],[37.14474,34.91425,576.2957],[37.13647,34.91802,567.8903],[37.12841,34.92066,561.5605],[37.12655,34.92154,561.6838],[37.12361,34.92361,557.7028],[37.11833,34.92619,540.9139],[37.11632,34.92689,536.5468],[37.11415,34.92738,532.061],[37.11167,34.92764,531.9304],[37.10686,34.92766,532.1769],[37.10376,34.92624,531.4467],[37.1002,34.92386,531.5974],[37.08934,34.91211,524.0765],[37.08635,34.91084,525.0322],[37.08154,34.9095,525.0056],[37.06449,34.90831,507.7248],[37.05581,34.90624,508.1867],[37.04914,34.9026,513.4396],[36.99948,34.86955,524.156],[36.99343,34.86686,535.3637],[36.97276,34.8609,538.4537],[36.94811,34.90645,498.0897],[36.91736,34.95668,451.3547],[36.91659,34.95833,433.8558],[36.91163,34.96371,425.9014],[36.89675,34.97399,372.4944],[36.88403,34.97717,331.2971],[36.87365,34.97833,322.5265],[36.86745,34.97735,312.8159],[36.86104,34.97546,306.9616],[36.84631,34.96737,315.3766],[36.84181,34.96588,336.3006],[36.83747,34.96546,313.9594],[36.82802,34.96541,313.3827],[36.82197,34.96425,327.5169],[36.81608,34.96205,340.4205],[36.80269,34.95179,493.7018],[36.79866,34.95068,428.7606],[36.76719,34.94877,322.4032],[36.76394,34.949,356.2802],[36.76223,34.94949,394.7216],[36.75427,34.94929,433.4435],[36.74544,34.94763,426.4368],[36.74172,34.94743,424.509],[36.73908,34.94769,422.0004],[36.73769,34.94841,419.4914],[36.72792,34.94536,358.0],[36.64927,34.9126,369.8408],[36.60038,34.91412,383.7452],[36.5777,34.90978,389.5854],[36.56591,34.90381,369.5414],[36.56204,34.90242,368.8302],[36.55971,34.90185,368.9013],[36.55537,34.90213,369.2733],[36.54948,34.90319,369.1078],[36.54018,34.9066,369.9624],[36.53661,34.90914,369.7346],[36.53475,34.91162,369.9767],[36.53475,34.91606,370.3592],[36.5346,34.91815,371.6321],[36.53398,34.91994,372.1725],[36.53289,34.92133,373.1292],[36.53134,34.92242,371.1543],[36.52958,34.92329,369.8312],[36.52762,34.92381,370.0959],[36.5254,34.92412,369.1445],[36.51811,34.92454,369.5246],[36.51625,34.92518,369.662],[36.51501,34.9264,369.6334],[36.51455,34.9282,371.8595],[36.51455,34.93017,378.7369],[36.51517,34.93192,392.1818],[36.51594,34.93353,402.734],[36.51951,34.9374,398.0963],[36.52168,34.94035,391.6864],[36.52245,34.94198,390.3627],[36.52292,34.94384,389.0604],[36.52276,34.94585,388.9656],[36.52214,34.94753,386.8922],[36.52121,34.94908,391.8442],[36.51997,34.95027,391.8442],[36.51842,34.95136,385.5652],[36.51501,34.95316,373.3224],[36.51114,34.95446,370.4997],[36.50804,34.95471,370.8378],[36.50431,34.95456,370.8817],[36.49501,34.95254,371.9671],[36.493,34.95172,371.783],[36.49191,34.95105,371.783],[36.49052,34.95012,371.3707],[36.48246,34.94133,372.9556],[36.4747,34.93045,378.8485],[36.45016,34.90815,456.685],[36.44985,34.90025,432.5627],[36.45078,34.89384,435.6389],[36.44985,34.8911,437.8585],[36.44799,34.88784,444.0479],[36.44272,34.88237,472.6581],[36.4407,34.87911,473.2466],[36.43977,34.87627,461.9855],[36.43977,34.86759,495.7596],[36.43946,34.86562,502.3225],[36.43776,34.86343,526.3788],[36.43016,34.85632,581.9265],[36.42783,34.85353,622.5973],[36.42303,34.85219,662.8267],[36.41941,34.85162,699.9149],[36.38871,34.8572,908.0657],[36.38158,34.86702,769.0229],[36.37895,34.86867,729.8749],[36.37492,34.87033,729.3064],[36.36763,34.87027,827.4703],[36.36422,34.86976,934.1244],[36.36153,34.86888,900.2841],[36.35874,34.86666,862.2335],[36.34727,34.85322,886.4688],[36.34432,34.85105,766.7185],[36.34262,34.85028,716.1556],[36.34045,34.84981,727.7947],[36.33657,34.85203,736.4763],[36.33192,34.85627,798.7115],[36.32293,34.86738,708.1729],[36.31859,34.87131,833.3623],[36.31564,34.8735,872.3483],[36.31347,34.87366,874.2924],[36.31146,34.87412,826.0121],[36.30944,34.8749,819.7773],[36.30882,34.87663,823.2215],[36.3096,34.87916,825.4593],[36.3158,34.88588,877.3484],[36.3175,34.88728,845.0028],[36.31998,34.88888,812.8748],[36.31983,34.89188,803.8563],[36.31316,34.90092,885.423],[36.29482,34.89627,840.5636],[36.28707,34.89358,775.0599],[36.28381,34.89167,758.1752],[36.28226,34.89064,743.5665],[36.27963,34.88813,746.3666],[36.27823,34.88534,743.3044],[36.27653,34.88123,732.7184],[36.27435,34.87245,674.2476],[36.27373,34.86795,742.2187],[36.27358,34.86454,690.6482],[36.27544,34.85493,791.1799],[36.27559,34.84826,672.1804],[36.27528,34.84619,698.0062],[36.27342,34.8432,690.841],[36.27017,34.83984,645.6359],[36.24423,34.82118,437.0307],[36.22857,34.80472,388.9882],[36.22438,34.80124,328.9435],[36.22097,34.79914,346.0412],[36.21446,34.79767,298.1017],[36.2126,34.79689,276.5407],[36.21105,34.79589,299.424],[36.20966,34.79472,275.5298],[36.1865,34.76873,208.7617],[36.11824,34.66682,31.8438],[36.11607,34.65995,21.0097],[36.11452,34.64011,28.6175],[36.11219,34.62977,25.3439],[36.11214,34.62953,25.3439],[36.15586,34.62693,80.027],[36.1602,34.62807,121.5865],[36.17219,34.63406,172.3363],[36.17829,34.6353,113.6894],[36.18335,34.63349,104.2774],[36.19513,34.62621,217.7293],[36.20123,34.62445,245.8784],[36.26159,34.62724,256.9654],[36.27151,34.63096,282.5807],[36.28071,34.63913,390.3065],[36.28443,34.64833,364.8695],[36.28484,34.66791,298.2212],[36.28815,34.67556,307.4308],[36.30893,34.68755,258.388],[36.32381,34.67949,259.98],[36.34737,34.64414,449.1462],[36.36753,34.62921,393.8851],[36.39119,34.62249,372.9497],[36.416,34.6229,531.736],[36.44018,34.62936,514.3979],[36.43626,34.59784,550.0354],[36.42912,34.59319,558.3369],[36.41848,34.60032,543.0875],[36.4037,34.60383,463.7712],[36.38892,34.59624,504.244],[36.38685,34.58425,611.8912],[36.38809,34.56952,632.9785],[36.38355,34.55381,738.2073],[36.36401,34.5411,894.5159],[36.33662,34.52885,1019.4968],[36.31988,34.51412,1106.2572],[36.32985,34.4986,1321.5115],[36.3327,34.49417,1203.0328],[36.33538,34.49348,1283.481],[36.33817,34.4933,1327.5076],[36.34096,34.49348,1351.776],[36.34365,34.49417,1415.3038],[36.36308,34.49903,1359.2162],[36.39233,34.50014,1032.9487],[36.41972,34.49833,792.8602],[36.43347,34.49433,603.6493],[36.43347,34.49417,603.6493],[36.43987,34.47746,586.8921],[36.4498,34.46454,575.0315],[36.46323,34.45524,562.5331],[36.48018,34.44914,552.8478],[36.49465,34.43426,580.4646],[36.50189,34.4303,580.5034],[36.50922,34.43242,564.6106],[36.52514,34.42294,560.0667],[36.53062,34.41418,558.5184],[36.52979,34.40309,566.211],[36.52628,34.38669,583.9432],[36.52359,34.37979,591.8585],[36.51997,34.37506,605.9384],[36.51677,34.36987,612.8039],[36.51594,34.36165,643.0974],[36.51863,34.35364,679.2928],[36.52359,34.34589,715.3011],[36.54519,34.32072,1027.9678],[36.55584,34.31109,1117.7957],[36.56297,34.3085,1235.2],[36.5703,34.30897,1306.9712],[36.57682,34.30767,1428.1742],[36.58198,34.2999,1369.7571],[36.57992,34.2869,1497.1666],[36.5703,34.27587,1542.667],[36.56276,34.26295,1518.1527],[36.56751,34.24414,1543.4901],[36.57403,34.22975,1615.5948],[36.59821,34.20985,2055.8169],[36.60355,34.2001,1961.1204],[36.62395,34.20507,2289.1665],[36.64818,34.21662,1801.5413],[36.66446,34.2192,1701.3396],[36.68787,34.21926,1525.8448],[36.69268,34.21864,1468.6992],[36.71056,34.21019,1405.9314],[36.7813,34.20251,1160.2473],[36.79029,34.20236,1141.6604],[36.79262,34.20293,1139.1378],[36.82755,34.21951,1066.6119],[36.85778,34.22729,1016.7738],[36.86527,34.22814,1013.032],[36.87008,34.22794,1006.6525],[36.87582,34.22365,1018.7886],[36.88806,34.20864,1038.6914],[36.88884,34.20709,1036.0109],[36.89209,34.20293,1047.9011],[36.91426,34.18001,1128.3923],[36.92811,34.16841,1202.8086],[36.943,34.14991,1353.0872],[36.96082,34.13445,1521.8749],[36.96672,34.12787,1551.3408],[36.97323,34.11719,1434.653],[36.98832,34.09784,1076.8971],[36.99405,34.08877,1030.7074],[36.99529,34.08743,1023.3917],[37.00273,34.07777,998.511],[37.00428,34.07461,961.1452],[37.01436,34.06051,913.835],[37.01529,34.05815,899.9517],[37.01684,34.05518,888.1819],[37.01994,34.05102,877.9362],[37.02134,34.04994,875.9838],[37.02599,34.04694,870.8124],[37.02738,34.04583,869.2449],[37.03017,34.04244,866.7978],[37.03457,34.03565,880.3992],[37.06898,34.00978,1212.1113],[37.08015,34.00289,960.3284],[37.08604,34.0003,932.9202],[37.08635,34.00025,932.9202],[37.08655,34.0002,932.9202],[37.08666,34.00012,932.9202],[37.08728,33.99994,932.9202],[37.18458,33.95284,989.8893],[37.19482,33.94997,1070.9838],[37.19952,33.94925,1014.4351],[37.21006,33.94907,974.6501],[37.22975,33.95121,1115.8927],[37.24975,33.94534,1009.5553],[37.25554,33.94201,951.469],[37.25657,33.94056,944.2189],[37.2574,33.93891,932.6277],[37.25802,33.93721,923.1484],[37.25843,33.93529,908.1045],[37.26484,33.92263,877.1978],[37.26778,33.91819,868.1151],[37.26856,33.91684,867.2598],[37.32054,33.84584,867.5225],[37.32768,33.84088,836.4675],[37.34287,33.83235,830.8573],[37.42297,33.76533,783.6852],[37.44002,33.75665,776.5242],[37.44994,33.75021,769.0024],[37.44994,33.75019,769.0024],[37.54678,33.67536,772.6207],[37.55283,33.66665,748.4752],[37.56244,33.64751,739.7214],[37.56399,33.64125,739.5879],[37.56492,33.63877,738.996],[37.5657,33.63728,732.8515],[37.57143,33.62399,724.2812],[37.575,33.61782,731.4349],[37.58042,33.60425,728.1553],[37.64797,33.52788,686.2714],[37.71592,33.4839,677.9857],[37.74398,33.47059,693.0756],[37.75375,33.46468,690.5474],[37.76915,33.45899,697.5731],[37.80666,33.45114,700.528],[37.81664,33.44773,696.6796],[37.83338,33.4455,694.0093],[37.83509,33.44488,694.3696],[37.83695,33.44442,694.0296],[37.8464,33.44059,692.3919],[37.8526,33.43744,686.5012],[37.87793,33.42049,687.7079],[37.90816,33.40468,680.6516],[38.31532,33.13147,748.1791],[38.31574,33.13118,748.1791],[38.52957,33.24425,801.4835],[38.77451,33.37169,720.0502],[38.8851,33.42711,707.4954],[38.99569,33.48248,706.142],[39.10627,33.53793,699.0386],[39.21686,33.59333,683.376],[39.32745,33.64872,679.1929],[39.43804,33.70409,675.3207],[39.54862,33.75949,658.8972],[39.65921,33.81481,643.5596],[39.7697,33.87023,606.072],[39.88039,33.9256,547.9327],[39.99087,33.98098,491.9451],[40.10146,34.03637,444.9038],[40.17311,34.07228,423.5357],[40.17282,34.07262,423.5357],[39.60945,34.74313,312.8021],[39.44455,34.93639,286.2254],[39.44062,34.94242,285.9146],[39.43582,34.95172,290.8376],[39.4352,34.96216,315.4794],[39.44155,35.01983,326.7424],[39.44109,35.02928,359.1522],[39.43783,35.03848,377.8803],[39.37437,35.14922,500.5321],[39.34275,35.18199,585.1937],[39.24203,35.24927,728.3226]]]}}