{"type":"Feature","properties":{"GID_2":"SYR.11.3_1","GID_0":"SYR","country":"Syria","GID_1":"SYR.11_1","province":"Lattakia","NL_NAME_1":"NA","county":"Latakia","VARNAME_2":"NA","NL_NAME_2":"NA","TYPE_2":"Mantika","ENGTYPE_2":"District","CC_2":"NA","HASC_2":"NA","name":"Latakia.county"},
"geometry":{"type": "MultiPolygon","coordinates": [[[[36.1701,35.8169,456.2967],[36.1691,35.8154,435.4628],[36.1634,35.8163,410.0395],[36.1548,35.8202,548.8625],[36.1417,35.8465,489.5526],[36.1341,35.8553,566.4886],[36.1164,35.8655,419.5571],[36.0499,35.8791,346.3019],[36.0187,35.8811,623.735],[36.0163,35.8837,597.4088],[36.0149,35.8899,466.4027],[36.0217,35.9087,463.6972],[36.0229,35.9245,552.9534],[36.0163,35.9341,645.9278],[36.0085,35.9403,729.7434],[36.0015,35.9409,862.4837],[35.9937,35.9393,1053.8921],[35.9509,35.9218,801.9933],[35.9358,35.9187,502.0439],[35.9185,35.9323,0.0],[35.9176,35.9287,14.0536],[35.9124,35.9285,5.0355],[35.9101,35.924,1.6997],[35.8996,35.9212,0.0],[35.8946,35.9151,60.6064],[35.8924,35.906,92.3866],[35.8876,35.9035,0.0],[35.8854,35.8885,2.4103],[35.8801,35.874,1.1644],[35.8771,35.869,1.5999],[35.8732,35.8662,0.3841],[35.8649,35.866,0.0],[35.861,35.861,0.0],[35.846,35.8504,18.4151],[35.8288,35.8496,2.234],[35.8251,35.854,0.0],[35.8232,35.8518,4.9891],[35.8179,35.8526,1.8859],[35.814,35.8576,0.0],[35.8087,35.8554,1.0601],[35.8085,35.8537,7.3206],[35.8065,35.8551,1.1041],[35.801,35.8551,0.3576],[35.8004,35.8515,0.0],[35.8118,35.8485,0.0],[35.8096,35.846,0.0],[35.8065,35.8354,0.0],[35.8112,35.8343,2.4555],[35.8124,35.8301,0.0685],[35.8199,35.8282,0.0],[35.8229,35.8171,32.7745],[35.8204,35.8124,1.0289],[35.8277,35.8077,3.0018],[35.8277,35.8051,0.0],[35.8296,35.8049,0.4906],[35.8288,35.8021,0.9404],[35.8315,35.8007,20.8243],[35.8315,35.7971,7.5968],[35.8296,35.794,0.0],[35.8335,35.7921,7.6143],[35.8385,35.7846,0.0259],[35.8382,35.7813,0.0],[35.8399,35.7804,4.2806],[35.841,35.7762,10.7312],[35.839,35.7724,7.0637],[35.8401,35.7646,0.2708],[35.8435,35.7615,2.5791],[35.8455,35.7454,4.7819],[35.8435,35.7407,0.0],[35.8387,35.7404,38.4628],[35.834,35.7379,2.9566],[35.8326,35.7212,1.8068],[35.8299,35.7149,0.9422],[35.8179,35.7115,0.0],[35.8157,35.7099,0.0],[35.8168,35.7068,9.7424],[35.8151,35.7046,4.349],[35.8112,35.7046,0.0],[35.8051,35.7004,1.4015],[35.8065,35.6957,8.2958],[35.7999,35.6918,6.474],[35.8004,35.6877,3.3231],[35.7985,35.6851,9.8081],[35.7946,35.6851,0.0],[35.7932,35.6824,0.0],[35.7891,35.6838,0.0],[35.7813,35.6818,5.7683],[35.7724,35.6763,0.0],[35.7685,35.671,0.0],[35.7676,35.6646,0.0],[35.7699,35.6637,11.697],[35.7679,35.6565,0.0],[35.7735,35.6554,0.3577],[35.7777,35.6513,8.0959],[35.7801,35.6371,1.5187],[35.7846,35.6335,0.0],[35.7837,35.6307,3.7035],[35.7815,35.6301,1.8804],[35.7826,35.6279,0.0],[35.779,35.6251,0.0],[35.7799,35.6235,11.463],[35.7771,35.6179,11.6065],[35.7721,35.6174,0.7297],[35.7726,35.614,0.0],[35.7756,35.6121,4.5023],[35.7751,35.6082,2.2137],[35.7707,35.6076,2.129],[35.7687,35.6101,1.4661],[35.7696,35.6121,0.0],[35.7641,35.6101,0.4767],[35.7621,35.6037,1.5029],[35.7576,35.5974,0.0],[35.7582,35.5932,0.0],[35.756,35.5921,0.3681],[35.7518,35.5938,0.0],[35.7516,35.5904,1.0473],[35.7496,35.5887,4.7222],[35.7426,35.5896,0.8062],[35.7426,35.5924,0.0],[35.7412,35.5929,0.0],[35.7343,35.5885,5.3079],[35.7318,35.5885,1.6993],[35.7282,35.5851,5.1124],[35.7205,35.5865,0.2813],[35.7163,35.5857,0.2714],[35.7176,35.584,0.1467],[35.7196,35.5846,3.4216],[35.7176,35.5824,0.4295],[35.7204,35.5824,2.851],[35.7204,35.5788,0.3125],[35.7351,35.584,3.5124],[35.7419,35.5821,0.4428],[35.7454,35.5779,1.7989],[35.7454,35.5735,2.4249],[35.7421,35.5729,1.0846],[35.7413,35.569,0.0],[35.7329,35.5638,0.0],[35.7326,35.561,0.0],[35.7382,35.561,2.0488],[35.7385,35.5571,0.513],[35.7424,35.5571,3.243],[35.7526,35.5499,0.0],[35.7557,35.5515,0.0],[35.7568,35.5488,1.4189],[35.754,35.5485,0.0],[35.7562,35.5438,0.0283],[35.7599,35.5432,0.0],[35.7587,35.546,0.8828],[35.7612,35.546,2.6389],[35.7637,35.544,1.143],[35.7626,35.5396,0.7132],[35.7676,35.5396,0.2901],[35.7721,35.5365,2.528],[35.7715,35.5324,1.5256],[35.7657,35.5279,0.0],[35.7663,35.5251,0.0],[35.7696,35.5257,0.6996],[35.7671,35.5151,0.0],[35.7651,35.5146,0.0],[35.761,35.5088,1.0192],[35.7599,35.5112,0.0],[35.7634,35.5176,0.0],[35.7551,35.5324,0.0],[35.7624,35.5185,0.8621],[35.759,35.5115,0.0],[35.7593,35.5088,0.0],[35.7629,35.5054,0.0],[35.7701,35.5037,0.0],[35.7785,35.4957,1.7259],[35.7818,35.4982,0.0],[35.7832,35.5054,0.7106],[35.7849,35.5063,6.9219],[35.7949,35.5057,2.3958],[35.8051,35.5029,1.0589],[35.8254,35.4924,2.2024],[35.8537,35.4732,0.931],[35.8665,35.485,36.844],[35.8757,35.4911,30.9926],[35.9054,35.4922,56.2309],[35.9106,35.5034,85.169],[35.9198,35.5157,135.0831],[35.9301,35.5352,76.1344],[35.9629,35.566,66.3426],[35.9721,35.5773,95.2646],[35.9936,35.6132,236.924],[36.0141,35.6378,234.0903],[36.0295,35.646,124.7305],[36.0623,35.6583,377.886],[36.0869,35.6808,348.2185],[36.0993,35.6962,487.8104],[36.1126,35.7055,568.4476],[36.1259,35.7055,579.4726],[36.1485,35.7085,719.3139],[36.1618,35.7178,813.7741],[36.1915,35.7485,580.9807],[36.211,35.7526,757.4108],[36.2228,35.7599,755.6832],[36.2182,35.7706,619.3372],[36.2182,35.7812,638.5851],[36.2164,35.7847,559.2955],[36.2076,35.7873,517.0825],[36.197,35.7873,443.7765],[36.1865,35.7935,532.4745],[36.1786,35.8014,563.1826],[36.1701,35.8169,456.2967]]]]}}