{"type":"Feature","properties":{"GID_2":"SYR.7.3_1","GID_0":"SYR","country":"Syria","GID_1":"SYR.7_1","province":"DayrAzZawr","NL_NAME_1":"NA","county":"Mayadin","VARNAME_2":"NA","NL_NAME_2":"NA","TYPE_2":"Mantika","ENGTYPE_2":"District","CC_2":"NA","HASC_2":"NA","name":"Mayadin.county"},
"geometry":{"type": "MultiPolygon","coordinates": [[[[41.0714,34.9129,172.9359],[41.0607,34.931399999999996,176.2027],[41.05,34.9727,171.1795],[41.0362,35.0064,180.4532],[41.0346,35.0968,159.0292],[41.053,35.1259,167.9195],[41.0454,35.1382,167.8401],[41.0086,35.1382,184.1732],[40.9672,35.1213,204.8656],[40.932,35.0953,177.7326],[40.909,35.0646,192.8701],[40.8799,35.0325,209.1141],[40.8447,35.0217,216.9392],[40.7941,35.0217,209.3554],[40.7191,35.0309,209.2784],[40.6118,35.0493,205.3715],[40.5996,35.0539,204.5178],[40.5827,35.0677,204.1696],[40.5521,35.0708,200.4803],[40.5398,35.0677,199.6142],[40.523,35.057,190.5867],[40.5123,35.0401,190.1731],[40.5031,35.0217,190.6914],[40.4862,35.0172,183.9506],[40.4724,35.0263,182.5],[40.451,35.0355,189.4696],[40.4372,35.0493,188.7274],[40.4188,35.0585,193.2772],[40.3392,35.057,229.6771],[40.3254,35.0417,232.012],[40.281,35.0217,238.2272],[40.1713,34.9774,244.56],[40.1127,34.9556,243.9039],[40.0243,34.9176,240.6951],[39.791,34.8096,273.5856],[39.5049,34.6488,359.3133],[39.4441,34.6166,343.67],[39.4211,34.6017,351.9446],[39.4159,34.6069,350.1619],[39.4507,34.5576,364.5587],[39.4874,34.5162,388.8953],[39.5212,34.4856,406.4858],[39.6039,34.5239,379.019],[39.7034,34.5607,371.7044],[39.731,34.5852,384.2723],[39.7417,34.5989,371.8159],[39.7678,34.6081,365.2422],[39.7846,34.6311,354.4153],[39.8045,34.648,340.3294],[39.826,34.6556,335.8623],[39.8628,34.6602,328.4226],[39.8811,34.6602,323.917],[39.8965,34.6495,325.6295],[39.9087,34.6143,338.8946],[39.9547,34.5974,335.638],[39.9853,34.5944,331.7924],[40.1201,34.648,279.771],[40.1998,34.674,266.1366],[40.2672,34.6863,246.2342],[40.3147,34.7001,247.8711],[40.3346,34.7077,234.1508],[40.379,34.7353,241.6],[40.3882,34.7338,244.2716],[40.3989,34.7292,244.2757],[40.405,34.7154,236.3413],[40.405,34.7016,234.6449],[40.4158,34.6801,246.0633],[40.425,34.6694,249.9203],[40.451,34.6633,248.27],[40.4755,34.6664,245.5286],[40.4847,34.6817,242.5798],[40.4954,34.7047,238.7916],[40.5,34.7246,230.5585],[40.5276,34.7491,230.6902],[40.5598,34.7721,229.3572],[40.9243,34.8701,203.35],[41.0576,34.9069,183.2036],[41.0714,34.9129,172.9359]]]]}}