{"type":"Feature","properties":{"GID_1":"SYR.7_1","GID_0":"SYR","country":"Syria","province":"DayrAzZawr","VARNAME_1":"Dair-Ezzor|DayrazZaur|DeirAl","NL_NAME_1":"NA","TYPE_1":"Muḥāfaẓah","ENGTYPE_1":"Governorate","CC_1":"NA","HASC_1":"SY.DY","ISO_1":"NA","name":"Dayr_Az_Zawr.province"},
"geometry":{"type": "MultiPolygon","coordinates": [[[[41.2297,34.9378,186.1703],[41.2181,35.1322,158.349],[41.2253,35.2042,206.7085],[41.2333,35.248,217.2385],[41.2424,35.2855,223.5477],[41.2749,35.3849,221.8653],[41.2826,35.4861,263.7845],[41.3214,35.5363,228.8177],[41.237,35.5436,202.3047],[41.1832,35.5421,203.075],[41.1488,35.5302,224.5584],[41.1249,35.5197,208.7897],[41.0815,35.5287,238.3299],[41.0247,35.5331,263.6064],[40.9604,35.5526,266.5891],[40.9245,35.566,257.6413],[40.8991,35.5735,257.6478],[40.8348,35.572,248.5171],[40.7585,35.578,241.5124],[40.7376,35.596,233.7959],[40.6867,35.6348,239.951],[40.6389,35.6752,263.9128],[40.5297,35.7605,272.1934],[40.4998,35.7814,296.8952],[40.4654,35.7993,300.1553],[40.4175,35.8382,309.3872],[40.3727,35.8711,315.8316],[40.3173,35.9055,308.7982],[40.1992,35.9997,322.36],[40.1962,36.0147,327.1086],[40.1752,36.0282,334.1227],[40.09,36.0999,374.1082],[40.0152,36.1598,414.3027],[39.9405,36.2166,541.3514],[39.9165,36.251,538.7998],[39.9016,36.2854,520.9407],[39.9054,36.3298,532.4458],[39.8969,36.3315,521.5671],[39.886,36.3409,511.5935],[39.8845,36.3517,512.1161],[39.8767,36.361,520.7318],[39.8736,36.3719,517.2336],[39.8736,36.4169,505.4472],[39.8689,36.4216,502.2849],[39.8394,36.4325,488.8057],[39.8224,36.4356,475.2321],[39.8154,36.4402,468.8876],[39.8036,36.4254,467.9453],[39.795,36.3638,475.3973],[39.7807,36.3108,490.6146],[39.7635,36.2592,477.0542],[39.7549,36.2262,483.0365],[39.7391,36.1881,435.9934],[39.7319,36.1591,409.5156],[39.6975,36.0703,338.9877],[39.6961,36.0517,331.6818],[39.6861,36.013,315.6901],[39.6717,35.9886,331.0453],[39.6717,35.9671,323.6295],[39.6746,35.9528,321.3674],[39.6889,35.9327,296.343],[39.7276,35.8653,264.5863],[39.7334,35.8424,258.4333],[39.7348,35.8037,256.4345],[39.7405,35.7937,243.1883],[39.7434,35.7794,229.5672],[39.7391,35.7622,219.4613],[39.7362,35.6934,278.7253],[39.7133,35.659,309.852],[39.6975,35.6518,316.8932],[39.6775,35.6475,328.2278],[39.6545,35.6475,325.146],[39.6416,35.6446,326.9388],[39.5624,35.52,602.5482],[39.5007,35.454,696.9305],[39.3875,35.3265,724.5745],[39.2972,35.2376,693.1721],[39.293,35.2383,686.5901],[39.2499,35.1888,648.8771],[39.2085,35.1463,527.5442],[39.1729,35.1141,458.7517],[39.1568,35.0934,416.2153],[39.1557,35.0337,350.747],[39.1902,35.0107,333.5782],[39.2177,34.9958,323.8868],[39.2464,34.9728,318.8871],[39.289,34.9188,313.7663],[39.3039,34.8889,308.7659],[39.3234,34.8579,309.7123],[39.328,34.8303,308.975],[39.3292,34.8096,316.3569],[39.328,34.7901,321.5773],[39.3223,34.7614,310.782],[39.3154,34.7396,329.9942],[39.3154,34.7189,344.4573],[39.3257,34.6994,332.1453],[39.3579,34.6706,338.7524],[39.4159,34.6069,350.1619],[39.4507,34.5576,364.5587],[39.4874,34.5162,388.8953],[39.5193,34.4873,400.5284],[39.5444,34.4465,435.8084],[39.6343,34.3219,470.08],[39.7568,34.183,510.481],[39.8385,34.0932,518.7582],[39.9609,33.9342,535.4909],[40.6037,34.2368,347.0611],[41.0124,34.4199,167.4556],[41.0172,34.4395,226.1229],[41.0192,34.4427,221.2535],[41.0271,34.4467,219.0787],[41.033,34.4521,218.3192],[41.1395,34.6641,169.8783],[41.2345,34.7772,156.7882],[41.2378,34.785,156.9425],[41.2296,34.8601,180.9276],[41.2297,34.9378,186.1703]]]]}}