{"type":"Feature","properties":{"ISO3166-1-Alpha-3":"SYR","country":"Syria","fill":"#FF0","id":"142","name":"Dayr Az Zawr"},
"geometry":{"type": "Polygon","coordinates": [[[41.30846,35.55225,214.369],[41.308,35.5523,214.6924],[41.19597,35.56527,213.1627],[40.99949,35.56925,264.4313],[40.92301,35.58214,261.9275],[40.88715,35.59305,254.9059],[40.82539,35.60408,247.6866],[40.80695,35.61085,240.9471],[40.77496,35.6263,231.6153],[40.02581,36.22117,509.6217],[39.90075,36.32429,526.5637],[39.82608,36.42439,479.4268],[39.80453,36.46367,459.8961],[39.73921,36.22758,474.1912],[39.64144,35.86432,257.6326],[39.63095,35.80257,223.6797],[39.63079,35.79213,218.8309],[39.63772,35.78991,217.056],[39.66686,35.77402,220.7982],[39.67497,35.77087,215.0],[39.66655,35.75756,222.2912],[39.24203,35.24927,728.3226],[39.34275,35.18199,585.1937],[39.37437,35.14922,500.5321],[39.43783,35.03848,377.8803],[39.44109,35.02928,359.1522],[39.44155,35.01983,326.7424],[39.4352,34.96216,315.4794],[39.43582,34.95172,290.8376],[39.44062,34.94242,285.9146],[39.44455,34.93639,286.2254],[39.60945,34.74313,312.8021],[40.17282,34.07262,423.5357],[40.17311,34.07228,423.5357],[40.21205,34.0918,412.7862],[40.32263,34.14717,402.1954],[40.43322,34.20254,366.3954],[40.54381,34.25799,354.7406],[40.69047,34.3315,251.7798],[40.93603,34.38607,188.7503],[40.96528,34.40185,175.8788],[40.98802,34.42852,166.0714],[41.02399,34.49417,191.7214],[41.02399,34.49433,191.7214],[41.19566,34.76847,155.8289],[41.20423,34.79312,156.0135],[41.20651,34.81932,159.3381],[41.19803,34.99404,160.8894],[41.19233,35.1589,151.2897],[41.19152,35.18214,160.9082],[41.20134,35.24302,210.7666],[41.24309,35.36652,208.8181],[41.25188,35.46409,261.7416],[41.26108,35.49417,245.8373],[41.26118,35.49417,245.8373],[41.26128,35.49417,245.8373],[41.26128,35.49432,245.8373],[41.30846,35.55225,214.369]]]}}