{"type":"Feature","properties":{"GID_1":"SYR.13_1","GID_0":"SYR","country":"Syria","province":"RifDimashq","VARNAME_1":"DamasCampagne|DamascusCountrys","NL_NAME_1":"NA","TYPE_1":"Muḥāfaẓah","ENGTYPE_1":"Governorate","CC_1":"NA","HASC_1":"SY.RD","ISO_1":"SY-RD","name":"Rif_Dimashq.province"},
"geometry":{"type": "MultiPolygon","coordinates": [[[[38.0416,32.971,679.1658],[38.3283,33.1239,752.5559],[38.2835,33.1612,744.7031],[38.0913,33.2849,691.6758],[38.0161,33.3358,685.4815],[37.9277,33.391,679.7714],[37.8615,33.4264,677.693],[37.7974,33.4507,693.0251],[37.762,33.4595,699.5621],[37.7399,33.4728,684.7249],[37.7156,33.5015,686.111],[37.6869,33.528,688.4296],[37.6626,33.5391,695.4495],[37.636,33.57,700.052],[37.6184,33.5965,702.5394],[37.6117,33.6208,739.2245],[37.6095,33.6385,744.6169],[37.5896,33.6474,736.9316],[37.5189,33.7026,767.3881],[37.4151,33.7799,794.4805],[37.3532,33.844,875.8737],[37.3267,33.8882,874.9548],[37.3024,33.9147,937.8963],[37.2913,33.9236,886.1721],[37.267,33.9391,915.7323],[37.2162,33.9523,994.061],[37.183,33.9656,933.0087],[37.1538,33.9656,919.86],[37.1453,33.9783,924.2499],[37.1313,33.9876,918.756],[37.1108,34.0044,922.637],[37.0782,34.0379,1142.1472],[37.0614,34.0584,866.1058],[37.0362,34.0827,915.5792],[37.005,34.1015,1014.7903],[37.0045,34.1097,1049.47],[36.9933,34.12,1282.3793],[36.9691,34.147,1619.0135],[36.9542,34.1666,1348.7557],[36.9141,34.202,1085.3036],[36.901,34.2039,1054.7932],[36.8656,34.1992,1041.9135],[36.8404,34.188,1102.568],[36.8013,34.1666,1152.5398],[36.7826,34.1582,1189.168],[36.7677,34.1573,1220.9412],[36.7547,34.1619,1251.2867],[36.7463,34.1722,1283.483],[36.7463,34.1862,1273.2422],[36.7435,34.1983,1289.5847],[36.7342,34.2085,1308.2024],[36.7267,34.2123,1333.1918],[36.6997,34.2123,1451.0748],[36.6392,34.2057,2003.2975],[36.6218,34.1986,2190.3157],[36.6212,34.195,2301.2219],[36.6031,34.1919,2240.2202],[36.5997,34.186,2329.3518],[36.5857,34.1766,2247.5117],[36.5849,34.1745,2202.6853],[36.5875,34.1695,2126.0967],[36.5829,34.1653,2224.1548],[36.5817,34.1597,2368.0554],[36.5704,34.1565,2288.3],[36.568,34.1523,2308.373],[36.5725,34.145,2242.2117],[36.568,34.1422,2168.9404],[36.5657,34.1338,2276.0571],[36.5528,34.1297,2368.8267],[36.5512,34.1312,2367.1428],[36.5409,34.1267,2294.9751],[36.5399,34.1217,2292.8669],[36.534,34.1201,2326.1951],[36.5244,34.1144,2285.3247],[36.5139,34.1003,2342.1228],[36.5093,34.0997,2268.3931],[36.506,34.0903,2337.9717],[36.5082,34.0885,2367.321],[36.514,34.0748,2413.0754],[36.5074,34.0631,2555.1147],[36.4983,34.0561,2496.7019],[36.5004,34.0515,2460.4675],[36.4837,34.0432,2569.7998],[36.4802,34.0386,2581.1719],[36.4669,34.0422,2435.5713],[36.4616,34.0448,2356.5203],[36.4612,34.0474,2277.4658],[36.4492,34.0516,2326.8772],[36.4451,34.0518,2321.4587],[36.454,34.044,2388.0662],[36.4419,34.0497,2322.5752],[36.4249,34.0547,2300.0059],[36.4158,34.0419,2338.9004],[36.4097,34.0454,2348.3975],[36.4011,34.0416,2340.7849],[36.4051,34.0276,2380.8169],[36.3903,34.0289,2430.0491],[36.3846,34.0188,2426.0376],[36.3828,34.0102,2324.72],[36.3698,34.0045,2409.4392],[36.3624,33.9831,2395.7095],[36.3568,33.9852,2374.6216],[36.3483,33.9782,2323.9932],[36.3405,33.9776,2314.7017],[36.3164,33.9594,2291.978],[36.3121,33.9549,2297.5088],[36.2882,33.9173,2159.4438],[36.2767,33.9037,2302.2021],[36.336,33.8746,1987.5808],[36.342,33.8762,1985.1902],[36.3572,33.8702,1865.7521],[36.368,33.8683,1728.6622],[36.3897,33.8548,1688.356],[36.392,33.8511,1669.4646],[36.3937,33.8336,1614.8732],[36.3885,33.829,1613.0942],[36.3837,33.8289,1620.9414],[36.3659,33.8337,1662.9725],[36.346,33.8305,1693.043],[36.3245,33.8363,1740.274],[36.3212,33.8324,1783.5186],[36.3109,33.8343,1809.6479],[36.2989,33.8338,1823.8245],[36.2879,33.8433,1849.1125],[36.2821,33.8452,1882.9916],[36.2789,33.8521,1924.2263],[36.2575,33.8553,2027.0251],[36.2521,33.8576,2082.2031],[36.239,33.8457,2102.6414],[36.237,33.8346,2162.332],[36.208,33.834,1861.6704],[36.2046,33.8324,1725.0813],[36.1978,33.8341,1669.0623],[36.1918,33.831,1781.6559],[36.1702,33.8333,1348.0885],[36.1647,33.8413,1517.1824],[36.1641,33.8471,1689.5625],[36.1453,33.8446,1508.9109],[36.137,33.8331,1631.1304],[36.124,33.8345,1375.6851],[36.1127,33.8337,1198.8768],[36.1159,33.8273,1274.7046],[36.1121,33.826,1265.3232],[36.1123,33.8224,1288.4258],[36.1106,33.8201,1282.553],[36.1025,33.8175,1332.3789],[36.0829,33.8155,1334.5544],[36.0761,33.8223,1222.8242],[36.0701,33.822,1419.7902],[36.0561,33.8046,1552.6587],[36.0469,33.7841,1641.6294],[36.0357,33.7732,1706.0503],[36.0304,33.7649,1660.389],[36.0269,33.764,1633.3134],[36.0174,33.7696,1580.2906],[36.0108,33.7698,1594.8446],[36.0085,33.7677,1588.8979],[36.0107,33.7627,1639.8737],[36.0037,33.7547,1612.1631],[35.9971,33.7412,1614.1514],[35.989,33.7336,1542.7336],[35.9869,33.7262,1460.5188],[35.98,33.7266,1421.2192],[35.9741,33.7294,1437.0426],[35.973,33.7276,1445.6639],[35.9743,33.7242,1391.0948],[35.9707,33.7203,1450.8911],[35.969,33.7143,1442.8064],[35.9711,33.7065,1373.002],[35.9673,33.7006,1381.2554],[35.9681,33.6976,1374.2231],[35.9732,33.6938,1357.0972],[35.9741,33.689,1377.3293],[35.9718,33.689,1373.4056],[35.9708,33.6849,1405.2548],[35.9682,33.6836,1392.2125],[35.9663,33.6764,1387.4357],[35.9557,33.6732,1386.0369],[35.9506,33.6747,1396.8699],[35.9465,33.6718,1429.916],[35.9446,33.6602,1437.3262],[35.9404,33.6546,1461.2659],[35.9334,33.6507,1479.5892],[35.9361,33.6478,1478.5823],[35.9345,33.6454,1499.526],[35.9365,33.6393,1589.3961],[35.9469,33.6373,1522.4375],[35.9499,33.6341,1471.7104],[35.9745,33.6331,1327.6907],[35.9753,33.637,1278.8567],[35.9783,33.6372,1273.7944],[35.9779,33.6353,1311.3792],[35.9813,33.632,1294.1538],[36.0049,33.6189,1351.937],[36.0315,33.6089,1158.3929],[36.0316,33.6047,1170.8517],[36.0361,33.6045,1223.4376],[36.0449,33.5999,1262.7352],[36.0596,33.5886,1249.0048],[36.0611,33.5827,1316.4108],[36.0653,33.58,1337.3157],[36.0648,33.5773,1342.6951],[36.0519,33.5674,1595.5006],[36.0263,33.5415,1454.4001],[36.0145,33.5426,1457.9546],[35.9882,33.5338,1576.79],[35.9681,33.533,1531.6329],[35.9437,33.5242,1712.8372],[35.9412,33.521,1695.7771],[35.9436,33.5092,1610.3918],[35.9579,33.4999,1543.2202],[35.9553,33.4993,1527.6599],[35.9536,33.495,1505.8308],[35.9531,33.4797,1901.9885],[35.9484,33.4722,2019.1306],[35.9337,33.4597,2127.6489],[35.9141,33.4475,2251.9563],[35.8997,33.4353,2328.7944],[35.875,33.4223,2637.207],[35.8634,33.4184,2734.4485],[35.826,33.3973,2470.4556],[35.8189,33.387,2345.9556],[35.8177,33.3765,2211.2078],[35.8151,33.372,2255.1685],[35.8172,33.364,2141.4148],[35.8238,33.3615,2069.116],[35.821,33.3543,2275.5544],[35.813,33.3463,2230.3521],[35.8424,33.3284,1525.9575],[35.8709,33.3209,1181.1799],[35.8706,33.3238,1192.0826],[35.9014,33.3095,1147.7726],[35.915,33.2983,1031.7969],[35.9163,33.2747,1007.4712],[35.93,33.2548,958.1832],[35.9623,33.251,923.8589],[35.9722,33.2398,911.7386],[35.9784,33.2187,913.7992],[35.9747,33.2075,928.5646],[35.9775,33.1888,929.6581],[36.001,33.19,900.7529],[36.0215,33.1834,870.2186],[36.0327,33.1816,861.3844],[36.0541,33.1816,822.9816],[36.0728,33.1881,801.071],[36.1026,33.2058,791.0502],[36.1147,33.2086,770.4995],[36.1893,33.2086,744.6552],[36.1949,33.2151,715.8008],[36.2079,33.2179,709.6577],[36.2154,33.2226,743.4082],[36.2182,33.2338,733.5237],[36.2191,33.2683,728.3864],[36.2285,33.2804,738.0341],[36.2434,33.2916,736.9658],[36.2667,33.2934,716.6205],[36.2881,33.299,693.3989],[36.3012,33.299,722.2891],[36.3347,33.2776,654.9639],[36.3618,33.2487,641.8965],[36.3655,33.2412,628.182],[36.3674,33.2142,617.0254],[36.3711,33.203,610.2991],[36.3776,33.1965,608.682],[36.3925,33.1965,605.8685],[36.4121,33.1993,609.0851],[36.4298,33.2179,611.7961],[36.4475,33.2403,637.4192],[36.4671,33.2543,623.3651],[36.4914,33.2636,619.4713],[36.5091,33.2757,623.4095],[36.5193,33.286,613.5544],[36.5473,33.2869,602.8229],[36.565,33.2841,603.8618],[36.5725,33.2673,603.7429],[36.5864,33.2459,612.8378],[36.5986,33.2347,615.4562],[36.6088,33.2207,628.1613],[36.6093,33.1848,677.7429],[36.6932,33.1976,656.7],[36.7578,33.205,651.0876],[36.8772,33.2274,616.9926],[36.9033,33.22,628.9319],[36.9219,33.1976,628.3696],[36.953,33.1653,639.4032],[36.9828,33.1292,625.7622],[37.004,33.1106,621.1214],[37.0127,33.0919,606.9756],[37.0176,33.0671,612.1273],[37.0189,33.0385,637.248],[37.0276,33.0347,646.6664],[37.04,33.0335,630.569],[37.0848,33.0347,598.4524],[37.1059,33.0323,599.9364],[37.1165,33.0209,600.7518],[37.1407,33.0248,612.761],[37.1606,33.0161,619.3741],[37.1767,33.0024,627.7131],[37.1805,32.9912,620.9569],[37.1842,32.9589,606.4304],[37.1917,32.9502,604.188],[37.2103,32.9378,597.7192],[37.2277,32.9303,615.9702],[37.2774,32.9303,611.9471],[37.3097,32.9278,605.9095],[37.3259,32.9142,608.7596],[37.3358,32.898,631.4503],[37.3358,32.8669,648.1745],[37.3421,32.847,642.417],[37.3607,32.8272,689.14],[37.4067,32.7849,757.344],[37.4465,32.7551,775.3224],[37.4813,32.7314,727.149],[37.4999,32.7103,762.6561],[37.5103,32.6888,800.8246],[38.0416,32.971,679.1658]],
[[36.3733,33.5912,715.3557],[36.4018,33.5905,657.389],[36.4009,33.5102,645.3241],[36.3305,33.5084,666.5761],[36.3162,33.5147,679.2665],[36.306399999999996,33.5343,705.4203],[36.2895,33.5494,1019.097],[36.2886,33.586,939.3184],[36.3019,33.5931,955.8749],[36.3733,33.5912,715.3557]]],
[[[36.1649,33.848,1689.5625],[36.1648,33.848,1689.5625],[36.1642,33.8476,1689.5625],[36.1642,33.8476,1689.5625],[36.1649,33.848,1689.5625]]]]}}