{"type":"Feature","properties":{"ISO3166-1-Alpha-3":"SYR","country":"Syria","fill":"#000","id":"144","name":"Rif Dimashq"},
"geometry":{"type": "Polygon","coordinates": [[[37.21006,33.94907,974.6501],[37.19952,33.94925,1014.4351],[37.19482,33.94997,1070.9838],[37.18458,33.95284,989.8893],[37.08728,33.99994,932.9202],[37.08666,34.00012,932.9202],[37.08655,34.0002,932.9202],[37.08635,34.00025,932.9202],[37.08604,34.0003,932.9202],[37.08015,34.00289,960.3284],[37.06898,34.00978,1212.1113],[37.03457,34.03565,880.3992],[37.03017,34.04244,866.7978],[37.02738,34.04583,869.2449],[37.02599,34.04694,870.8124],[37.02134,34.04994,875.9838],[37.01994,34.05102,877.9362],[37.01684,34.05518,888.1819],[37.01529,34.05815,899.9517],[37.01436,34.06051,913.835],[37.00428,34.07461,961.1452],[37.00273,34.07777,998.511],[36.99529,34.08743,1023.3917],[36.99405,34.08877,1030.7074],[36.98832,34.09784,1076.8971],[36.97323,34.11719,1434.653],[36.96672,34.12787,1551.3408],[36.96082,34.13445,1521.8749],[36.943,34.14991,1353.0872],[36.92811,34.16841,1202.8086],[36.91426,34.18001,1128.3923],[36.89209,34.20293,1047.9011],[36.88884,34.20709,1036.0109],[36.88806,34.20864,1038.6914],[36.87582,34.22365,1018.7886],[36.87008,34.22794,1006.6525],[36.86527,34.22814,1013.032],[36.85778,34.22729,1016.7738],[36.82755,34.21951,1066.6119],[36.79262,34.20293,1139.1378],[36.79029,34.20236,1141.6604],[36.7813,34.20251,1160.2473],[36.71056,34.21019,1405.9314],[36.69268,34.21864,1468.6992],[36.68787,34.21926,1525.8448],[36.66446,34.2192,1701.3396],[36.64818,34.21662,1801.5413],[36.62395,34.20507,2289.1665],[36.60355,34.2001,1961.1204],[36.6041,34.1991,1961.1204],[36.57589,34.17326,1983.5162],[36.55273,34.14099,2061.9856],[36.50798,34.10919,1982.4376],[36.48845,34.08864,2196.9263],[36.48266,34.07451,2298.3787],[36.4807,34.06275,2317.5701],[36.47522,34.0535,2384.7361],[36.45889,34.04671,2340.8149],[36.44514,34.04614,2335.5198],[36.42365,34.05281,2306.4761],[36.41217,34.05363,2274.9922],[36.39109,34.04472,2295.1919],[36.35781,34.00955,2281.7139],[36.31802,33.98051,2186.0601],[36.30231,33.96439,2222.9941],[36.28856,33.94651,2152.1389],[36.26717,33.91039,2223.8374],[36.26893,33.90677,2279.2461],[36.27534,33.89721,2241.7478],[36.28164,33.89111,2118.1248],[36.3111,33.87199,2050.9978],[36.35037,33.86641,1882.9305],[36.36763,33.85755,1687.355],[36.36959,33.83701,1659.5039],[36.3575,33.82378,1671.3818],[36.33828,33.82119,1703.8562],[36.30055,33.82869,1831.5319],[36.24919,33.84974,2095.9478],[36.23182,33.85253,1931.5226],[36.21663,33.84775,1832.0703],[36.20268,33.8383,1686.7449],[36.18656,33.83021,1830.7809],[36.16568,33.8298,1304.3191],[36.15762,33.83406,1405.1611],[36.1449,33.84742,1365.0632],[36.13829,33.85062,1320.7357],[36.10243,33.83228,1313.853],[36.08506,33.82605,1183.1526],[36.06646,33.82199,1268.6094],[36.05044,33.81644,1280.8102],[36.04052,33.80561,1324.9098],[36.02708,33.7843,1537.4724],[35.99401,33.76071,1228.7885],[35.98026,33.74355,1422.5227],[35.97417,33.73215,1352.2644],[35.95587,33.71812,1276.2645],[35.94843,33.70921,1289.8856],[35.94698,33.70084,1296.5468],[35.94988,33.6827,1339.2227],[35.94719,33.67309,1413.4363],[35.94244,33.66921,1400.2887],[35.92941,33.66508,1422.1171],[35.92538,33.66167,1459.3635],[35.92156,33.6403,1409.042],[35.93479,33.6334,1432.1045],[35.95691,33.62994,1340.4034],[35.98026,33.61901,1459.6962],[35.99453,33.6157,1453.3662],[36.01292,33.60803,1297.3335],[36.02967,33.59764,1186.4758],[36.03845,33.58635,1230.6525],[36.03525,33.5678,1215.1838],[36.01985,33.55263,1238.459],[35.99928,33.54126,1438.2615],[35.98026,33.53395,1607.168],[35.9568,33.53421,1555.4478],[35.93324,33.52783,1521.708],[35.92187,33.51457,1664.781],[35.93541,33.49426,1567.3999],[35.91949,33.46235,1797.8923],[35.88849,33.44041,2038.6748],[35.87009,33.43124,2360.511],[35.87309,33.41628,2470.6992],[35.86999,33.40693,2181.5229],[35.86151,33.39907,2040.1926],[35.84497,33.389,1974.4608],[35.83495,33.37807,1878.0092],[35.83019,33.36476,1882.3191],[35.83019,33.35148,2158.1245],[35.83495,33.33903,1871.948],[35.84298,33.3228,1610.1179],[35.84322,33.3227,1610.1179],[35.88471,33.30463,1260.7178],[35.89526,33.29867,1132.6487],[35.8951,33.29693,1133.3462],[35.89433,33.29528,1130.0734],[35.88937,33.29024,1145.5634],[35.88518,33.28469,1171.8674],[35.88425,33.28314,1167.7227],[35.88285,33.28035,1154.0211],[35.88084,33.27466,1150.9861],[35.8796,33.26867,1128.8383],[35.87929,33.26448,1115.1707],[35.8796,33.26019,1100.4409],[35.88006,33.25825,1093.6841],[35.88115,33.25502,1086.4557],[35.88735,33.24293,1028.9075],[35.88999,33.24056,1022.7078],[35.892,33.23996,1011.4821],[35.89309,33.24125,998.9625],[35.89417,33.24267,1001.6673],[35.89557,33.24596,1007.4808],[35.89696,33.25012,1020.6221],[35.89696,33.25022,1020.6221],[35.89758,33.25164,1020.3241],[35.89836,33.25285,1023.7788],[35.8996,33.25409,1023.8043],[35.90099,33.25518,1018.8835],[35.90487,33.2566,1004.4392],[35.90704,33.25704,998.0877],[35.90957,33.25717,999.8995],[35.93267,33.25373,951.3293],[35.9443,33.25324,941.0627],[35.95701,33.25154,932.552],[35.96104,33.2497,922.0237],[35.96337,33.24789,921.5623],[35.96383,33.24603,921.0585],[35.96414,33.24394,920.966],[35.96414,33.23957,919.0886],[35.96321,33.23128,927.3763],[35.96352,33.21611,932.289],[35.96321,33.21149,936.5117],[35.96166,33.20482,941.5424],[35.98342,33.19733,919.7463],[35.98605,33.1957,916.6797],[35.99008,33.1926,908.8676],[35.99613,33.18301,902.8147],[35.99969,33.17922,891.8604],[36.00621,33.1779,892.7126],[36.02543,33.17759,860.925],[36.03106,33.17834,856.9219],[36.03726,33.18015,856.1466],[36.04083,33.18159,852.2836],[36.04703,33.18539,843.1163],[36.06176,33.19637,820.8425],[36.06346,33.19725,823.3601],[36.14279,33.2027,750.7917],[36.14697,33.20379,746.3849],[36.16201,33.21048,738.2552],[36.20392,33.22237,716.7502],[36.21338,33.22627,744.3622],[36.2171,33.2342,735.5337],[36.22283,33.24288,722.5487],[36.22438,33.24621,727.4599],[36.22578,33.25017,736.0129],[36.22578,33.2503,736.0129],[36.22578,33.25045,738.9711],[36.22609,33.252,738.9711],[36.22624,33.25389,746.4269],[36.22578,33.25789,757.9342],[36.22221,33.26903,731.938],[36.22268,33.27221,731.7238],[36.22407,33.27663,735.438],[36.22888,33.2859,747.4227],[36.23198,33.28929,746.2894],[36.23493,33.29086,747.4181],[36.23679,33.29024,755.1177],[36.23849,33.28939,750.0585],[36.23989,33.2883,753.3016],[36.24113,33.28699,749.6661],[36.24919,33.27539,779.2365],[36.25405,33.27037,838.988],[36.25684,33.2682,854.384],[36.25854,33.26719,850.9725],[36.26924,33.26247,872.5667],[36.27079,33.26146,860.9677],[36.27218,33.2603,842.96],[36.27342,33.25906,830.523],[36.27435,33.25748,821.9161],[36.27497,33.25572,803.4182],[36.27606,33.24541,852.8944],[36.27668,33.24363,875.924],[36.27761,33.24211,802.9808],[36.2787,33.24074,801.5295],[36.28025,33.23965,765.8514],[36.2818,33.23872,757.7847],[36.28366,33.23787,771.7335],[36.28645,33.23709,771.1614],[36.30479,33.235,668.2812],[36.30913,33.23404,672.8651],[36.31099,33.23329,667.8284],[36.31394,33.23115,668.6423],[36.31518,33.22996,667.1793],[36.31626,33.22857,663.4373],[36.32045,33.22066,648.3146],[36.32138,33.21921,644.411],[36.32278,33.21797,651.7583],[36.3327,33.21265,642.7803],[36.33564,33.21038,644.2659],[36.33812,33.20784,639.0239],[36.34246,33.20588,634.9646],[36.36825,33.19955,609.9038],[36.37616,33.19841,608.747],[36.38158,33.19818,608.8784],[36.38344,33.19885,609.3357],[36.38577,33.20033,609.0693],[36.38654,33.2011,608.3571],[36.38747,33.2025,608.2223],[36.38809,33.20428,608.6666],[36.38856,33.20629,609.0895],[36.38949,33.21709,618.7103],[36.38995,33.2189,620.0682],[36.39073,33.22053,625.1592],[36.39399,33.22469,632.0724],[36.42411,33.24776,627.5744],[36.42814,33.25009,658.2925],[36.4283,33.25017,658.2925],[36.42845,33.25024,658.2925],[36.4778,33.27601,644.0529],[36.48106,33.27885,677.4633],[36.48649,33.28479,662.9865],[36.50323,33.29445,628.1877],[36.50664,33.29482,624.3746],[36.51083,33.29476,619.7821],[36.51439,33.29218,617.3867],[36.51625,33.29027,615.3484],[36.51765,33.28841,614.3601],[36.51951,33.28536,612.6807],[36.52106,33.28218,611.4009],[36.5254,33.26996,605.547],[36.5271,33.26681,605.5559],[36.52917,33.26391,605.7278],[36.56312,33.23087,625.5132],[36.56436,33.22924,625.953],[36.56622,33.22616,624.7817],[36.56684,33.22446,621.1115],[36.56746,33.2226,622.8894],[36.56793,33.22076,625.5127],[36.56855,33.20451,638.1511],[36.57087,33.19397,658.2278],[36.82383,33.22469,613.2612],[36.82554,33.22366,612.532],[36.83484,33.21549,618.8377],[36.83933,33.21247,615.1992],[36.84755,33.20544,619.0485],[36.85623,33.19973,619.3919],[36.88527,33.1865,619.1902],[36.88837,33.18449,618.2354],[36.89954,33.17379,627.4316],[36.90357,33.16743,634.4213],[36.90465,33.16395,633.3433],[36.90682,33.15214,639.0134],[36.90837,33.14888,650.5478],[36.9107,33.1463,643.2454],[36.94594,33.11622,632.9343],[36.94796,33.11397,630.36],[36.94935,33.11183,630.5429],[36.9509,33.10839,638.1689],[36.95369,33.10007,653.2531],[36.95431,33.09124,662.514],[36.95509,33.08721,659.915],[36.95633,33.08348,662.2584],[36.9571,33.08188,663.8508],[36.95803,33.08046,663.8508],[36.96067,33.07806,666.258],[36.98118,33.06522,643.8508],[36.9846,33.06374,644.0554],[37.0018,33.06175,614.9536],[37.00769,33.06168,611.7823],[37.0727,33.04982,598.305],[37.07782,33.04718,598.1426],[37.07937,33.04615,598.1998],[37.08201,33.04395,600.4954],[37.08717,33.04062,603.6132],[37.0988,33.03499,603.3224],[37.1019,33.03302,603.4402],[37.1033,33.03189,599.4777],[37.10438,33.03052,603.1728],[37.10531,33.02894,601.94],[37.10593,33.02724,599.4771],[37.1064,33.02556,600.516],[37.10655,33.02385,600.4529],[37.1064,33.02119,600.2722],[37.10562,33.01767,599.2771],[37.10593,33.01194,602.4432],[37.10609,33.01078,602.4432],[37.10655,33.00943,599.4978],[37.10826,33.00651,599.3334],[37.11043,33.00372,599.703],[37.11244,33.0014,599.8254],[37.11368,33.00031,599.8007],[37.11384,33.00023,599.8007],[37.11399,33.00008,599.8007],[37.1157,32.99902,599.751],[37.11833,32.99677,599.8906],[37.11942,32.99535,599.5408],[37.12081,32.99248,599.5107],[37.12159,32.99101,600.4415],[37.12283,32.98956,599.559],[37.12345,32.98827,599.6618],[37.12438,32.98708,600.1613],[37.12655,32.98494,600.3026],[37.12903,32.98323,601.7234],[37.13074,32.98096,603.5078],[37.1326,32.97478,607.4949],[37.1835,32.94993,602.6504],[37.19637,32.94494,599.9756],[37.19823,32.94525,600.6481],[37.202,32.94649,601.8273],[37.20365,32.94734,602.5276],[37.2052,32.94833,602.0117],[37.20789,32.9507,600.0667],[37.2127,32.95174,596.2958],[37.24138,32.95073,594.7853],[37.25719,32.94631,604.6414],[37.26422,32.94006,603.1792],[37.2684,32.93445,610.9909],[37.27026,32.93132,614.0839],[37.27166,32.92799,614.3346],[37.27476,32.91815,619.2919],[37.27925,32.87236,630.2916],[37.28018,32.86864,632.4071],[37.28065,32.86717,632.4071],[37.28127,32.86629,623.0887],[37.28391,32.86259,623.3297],[37.41981,32.74715,758.6119],[37.46855,32.71697,754.3345],[37.47754,32.7088,769.1584],[37.49433,32.69036,799.4177],[37.49461,32.69006,799.4177],[37.58668,32.73984,702.2516],[37.75804,32.83252,652.9321],[37.92939,32.92533,663.8141],[38.05673,32.99429,687.929],[38.05673,32.99434,687.929],[38.23088,33.0863,720.2052],[38.31574,33.13118,748.1791],[38.31532,33.13147,748.1791],[37.90816,33.40468,680.6516],[37.87793,33.42049,687.7079],[37.8526,33.43744,686.5012],[37.8464,33.44059,692.3919],[37.83695,33.44442,694.0296],[37.83509,33.44488,694.3696],[37.83338,33.4455,694.0093],[37.81664,33.44773,696.6796],[37.80666,33.45114,700.528],[37.76915,33.45899,697.5731],[37.75375,33.46468,690.5474],[37.74398,33.47059,693.0756],[37.71592,33.4839,677.9857],[37.64797,33.52788,686.2714],[37.58042,33.60425,728.1553],[37.575,33.61782,731.4349],[37.57143,33.62399,724.2812],[37.5657,33.63728,732.8515],[37.56492,33.63877,738.996],[37.56399,33.64125,739.5879],[37.56244,33.64751,739.7214],[37.55283,33.66665,748.4752],[37.54678,33.67536,772.6207],[37.44994,33.75019,769.0024],[37.44994,33.75021,769.0024],[37.44002,33.75665,776.5242],[37.42297,33.76533,783.6852],[37.34287,33.83235,830.8573],[37.32768,33.84088,836.4675],[37.32054,33.84584,867.5225],[37.26856,33.91684,867.2598],[37.26778,33.91819,868.1151],[37.26484,33.92263,877.1978],[37.25843,33.93529,908.1045],[37.25802,33.93721,923.1484],[37.2574,33.93891,932.6277],[37.25657,33.94056,944.2189],[37.25554,33.94201,951.469],[37.24975,33.94534,1009.5553],[37.22975,33.95121,1115.8927],[37.21006,33.94907,974.6501]],
[[36.19075,33.51323,1009.1432],[36.18316,33.53149,933.7893],[36.22163,33.54946,758.8511],[36.25151,33.55031,847.3091],[36.30714,33.56408,919.7029],[36.33495,33.56211,757.8843],[36.3511,33.54388,708.5474],[36.35013,33.53289,693.5821],[36.35209,33.51435,683.958],[36.3431,33.49244,679.4797],[36.32012,33.47299,673.0804],[36.31661,33.46069,668.6149],[36.2975,33.4635,678.7971],[36.23682,33.48907,740.9965],[36.21434,33.47642,741.5828],[36.20901,33.48654,783.8396],[36.23033,33.50522,855.8171],[36.20648,33.51491,919.9424],[36.19075,33.51323,1009.1432]]]}}