{"type":"Feature","properties":{"GID_2":"SYR.13.3_1","GID_0":"SYR","country":"Syria","GID_1":"SYR.13_1","province":"RifDimashq","NL_NAME_1":"NA","county":"At-Tall","VARNAME_2":"NA","NL_NAME_2":"NA","TYPE_2":"Mantika","ENGTYPE_2":"District","CC_2":"NA","HASC_2":"NA","name":"At-Tall.county"},
"geometry":{"type": "MultiPolygon","coordinates": [[[[36.2898,33.8414,1843.2842],[36.2835,33.8277,1867.3479],[36.2788,33.8127,2120.8647],[36.2769,33.7978,2029.566],[36.2713,33.7838,1916.1296],[36.2723,33.7717,1846.6423],[36.2797,33.7596,1798.502],[36.2807,33.7512,1798.3171],[36.2863,33.7382,1931.0316],[36.29,33.7223,1762.7192],[36.2909,33.6962,1842.824],[36.2732,33.6785,1602.9059],[36.2466,33.6308,1164.6931],[36.2574,33.6235,1112.5063],[36.2574,33.5909,954.052],[36.2452,33.5825,913.6642],[36.2434,33.575,889.8078],[36.2471,33.5685,840.9447],[36.2527,33.5657,847.8151],[36.2891,33.5647,965.7411],[36.2886,33.586,939.3184],[36.3019,33.5931,955.8749],[36.3733,33.5912,715.3557],[36.3776,33.5955,834.9232],[36.3823,33.6048,783.4639],[36.3823,33.6188,1033.6379],[36.3776,33.6281,1052.1516],[36.3776,33.6393,1235.2781],[36.3935,33.6589,1305.887],[36.4075,33.6701,1256.2952],[36.4205,33.6729,1274.1949],[36.4606,33.6766,997.5812],[36.4662,33.6887,1245.3414],[36.4671,33.7372,1218.8038],[36.4718,33.7493,1233.8772],[36.4802,33.7624,1227.7775],[36.496,33.7726,1231.7164],[36.5063,33.7838,1262.5358],[36.5091,33.7997,1352.4175],[36.5063,33.8155,1530.9092],[36.4997,33.823,1596.0007],[36.3981,33.8286,1604.4833],[36.3918,33.8316,1615.4623],[36.3885,33.829,1613.0942],[36.3848,33.8287,1616.3131],[36.3659,33.8337,1662.9725],[36.346,33.8305,1693.043],[36.3245,33.8363,1740.274],[36.3212,33.8324,1783.5186],[36.3109,33.8343,1809.6479],[36.2989,33.8338,1823.8245],[36.2898,33.8414,1843.2842]]]]}}