{"type":"Feature","properties":{"GID_1":"SYR.3_1","GID_0":"SYR","country":"Syria","province":"ArRaqqah","VARNAME_1":"AlRakka|Raqqa|AlRashid|Rashid","NL_NAME_1":"NA","TYPE_1":"Muḥāfaẓah","ENGTYPE_1":"Governorate","CC_1":"NA","HASC_1":"SY.RA","ISO_1":"SY-RA","name":"Ar_Raqqah.province"},
"geometry":{"type": "MultiPolygon","coordinates": [[[[38.4947,36.3036,432.4082],[38.4631,36.2907,428.7357],[38.3815,36.2735,480.6775],[38.3428,36.2563,415.0919],[38.1937,36.2477,299.5],[38.1808,36.2463,299.5],[38.1651,36.2334,348.0067],[38.1507,36.2334,376.3343],[38.1386,36.2358,299.5],[38.1146,36.2093,299.5],[38.038,36.081,299.5],[38.0473,36.0669,299.5],[38.063,36.0575,299.5],[38.0927,36.0356,299.5],[38.1224,36.0059,299.5],[38.1428,35.9886,299.5],[38.1647,35.973,299.5],[38.1788,35.9667,299.5],[38.1882,35.9542,299.5],[38.1913,35.9323,348.8218],[38.1882,35.9167,348.3405],[38.171,35.9073,358.0786],[38.149,35.9026,359.921],[38.124,35.8901,356.1695],[38.099,35.8713,354.0607],[38.0786,35.8478,346.9512],[38.0239,35.7571,358.1342],[38.0145,35.7305,360.6904],[38.0098,35.7023,369.2822],[38.0067,35.6335,386.1569],[38.0098,35.6006,398.7222],[38.0129,35.585,398.7085],[38.0317,35.5771,402.0629],[38.0411,35.5756,413.2097],[38.0661,35.5615,399.5165],[38.0708,35.5521,397.3961],[38.0708,35.538,391.5159],[38.088,35.5302,390.1432],[38.1084,35.5255,390.1887],[38.1428,35.5083,399.5522],[38.1756,35.4989,395.7559],[38.2038,35.4801,406.4232],[38.2257,35.4442,414.2674],[38.2461,35.4269,398.8211],[38.2617,35.4176,381.9398],[38.2977,35.3894,378.1716],[38.3008,35.3737,388.7733],[38.3227,35.3597,394.0014],[38.3509,35.3737,382.2318],[38.3994,35.3753,375.108],[38.498,35.3753,375.3541],[38.5534,35.3803,364.3375],[38.5663,35.3752,365.678],[38.605,35.3652,363.9947],[38.6681,35.3666,375.8656],[38.7211,35.3594,431.6498],[38.873,35.3265,519.4969],[38.9504,35.3079,521.2952],[39.1181,35.2763,589.0046],[39.2299,35.2477,718.0453],[39.2972,35.2376,693.1721],[39.3875,35.3265,724.5745],[39.5007,35.454,696.9305],[39.5624,35.52,602.5482],[39.6416,35.6446,326.9388],[39.6545,35.6475,325.146],[39.6775,35.6475,328.2278],[39.6975,35.6518,316.8932],[39.7133,35.659,309.852],[39.7362,35.6934,278.7253],[39.7391,35.7622,219.4613],[39.7434,35.7794,229.5672],[39.7405,35.7937,243.1883],[39.7348,35.8037,256.4345],[39.7334,35.8424,258.4333],[39.7276,35.8653,264.5863],[39.6889,35.9327,296.343],[39.6746,35.9528,321.3674],[39.6717,35.9671,323.6295],[39.6717,35.9886,331.0453],[39.6861,36.013,315.6901],[39.6961,36.0517,331.6818],[39.6975,36.0703,338.9877],[39.7319,36.1591,409.5156],[39.7391,36.1881,435.9934],[39.7549,36.2262,483.0365],[39.7635,36.2592,477.0542],[39.7807,36.3108,490.6146],[39.795,36.3638,475.3973],[39.8036,36.4254,467.9453],[39.8154,36.4402,468.8876],[39.813,36.4418,466.8285],[39.8099,36.4713,464.9871],[39.8006,36.4837,459.8551],[39.7851,36.4899,440.3318],[39.7401,36.5023,416.583],[39.7214,36.5194,407.2545],[39.6966,36.5272,397.6788],[39.6267,36.5272,379.3453],[39.5833,36.5318,372.7008],[39.546,36.5334,366.6186],[39.5227,36.538,359.9303],[39.5119,36.5473,362.5812],[39.4761,36.5862,374.0686],[39.4606,36.6079,377.543],[39.4482,36.6312,389.9816],[39.4435,36.6514,391.1997],[39.4435,36.6824,406.7283],[39.4504,36.699,411.9393],[39.4392,36.6953,410.2491],[39.398,36.6944,404.6183],[39.3448,36.6896,402.7695],[39.2759,36.6737,381.7105],[39.2273,36.665,382.2741],[39.2155,36.666,376.1811],[39.1503,36.6834,397.9871],[39.0855,36.6971,362.3145],[39.0202,36.7033,353.9942],[38.999,36.7029,346.316],[38.9697,36.6989,347.0121],[38.9183,36.6976,352.2556],[38.8471,36.6967,356.2888],[38.7774,36.6993,368.9728],[38.7315,36.7075,377.5165],[38.7236,36.7104,379.9689],[38.697,36.7284,387.9534],[38.635,36.7779,423.6219],[38.6284,36.7594,452.5297],[38.6284,36.7407,425.6309],[38.637,36.7221,505.6422],[38.6499,36.7006,420.6555],[38.6499,36.6633,414.9455],[38.6428,36.649,429.386],[38.6342,36.6433,452.8295],[38.617,36.639,467.4611],[38.6012,36.6318,495.4213],[38.5969,36.6203,489.471],[38.5998,36.6074,446.9761],[38.6069,36.6017,431.9062],[38.6227,36.6003,417.8715],[38.6686,36.6003,384.1306],[38.6772,36.596,383.1426],[38.6843,36.5845,387.1238],[38.6843,36.5487,397.8675],[38.6786,36.4942,428.3387],[38.6671,36.4742,399.403],[38.66,36.4426,366.9704],[38.6485,36.4154,373.7687],[38.6227,36.3753,435.4044],[38.6238,36.3724,424.3936],[38.5549,36.3194,395.2061],[38.5176,36.3122,424.9771],[38.4947,36.3036,432.4082]]]]}}