{"type":"Feature","properties":{"ISO3166-1-Alpha-3":"SYR","country":"Syria","fill":"#F0F","id":"136","name":"Ar Raqqah"},
"geometry":{"type": "Polygon","coordinates": [[[38.79539,36.68665,364.0098],[38.72501,36.69394,376.8138],[38.66413,36.71952,410.3666],[38.63519,36.74404,424.3719],[38.63519,36.74404,424.3719],[38.64816,36.69916,422.6369],[38.64878,36.69549,419.1406],[38.64832,36.69042,420.4379],[38.6463,36.68456,428.903],[38.64057,36.67549,448.7064],[38.63592,36.67156,440.6208],[38.63096,36.66939,442.8107],[38.58067,36.66371,533.805],[38.57664,36.66267,543.4668],[38.57323,36.66107,554.1943],[38.57199,36.65539,526.486],[38.57277,36.64694,505.228],[38.57788,36.62919,507.0562],[38.58145,36.62102,501.4601],[38.5847,36.61559,498.8786],[38.58796,36.61358,477.6467],[38.59153,36.61237,466.4594],[38.59587,36.61213,471.8694],[38.60021,36.61249,474.8214],[38.60832,36.61487,444.5119],[38.61824,36.62035,453.5008],[38.64243,36.63756,441.2568],[38.64956,36.64066,423.9887],[38.65374,36.64154,414.9688],[38.65793,36.64128,406.9061],[38.66217,36.64019,400.6421],[38.66542,36.63813,399.4585],[38.6679,36.63559,396.0383],[38.6693,36.63244,390.8242],[38.67038,36.62903,388.1595],[38.671,36.62526,386.9497],[38.66945,36.55808,414.9769],[38.66496,36.52986,435.0509],[38.65752,36.50098,411.1093],[38.65752,36.50041,411.3326],[38.65752,36.5003,411.3326],[38.64971,36.46625,378.6729],[38.64336,36.44909,372.8103],[38.63142,36.42938,401.034],[38.59339,36.383,409.6351],[38.58439,36.37483,413.7934],[38.57246,36.36592,394.9884],[38.50683,36.32858,428.5942],[38.42518,36.29205,462.884],[38.25961,36.26983,329.0297],[38.22225,36.26867,309.6476],[38.1946,36.26295,299.5],[38.15336,36.2459,299.5],[38.13672,36.23831,299.5],[38.13114,36.23464,299.5],[38.12013,36.22513,299.5],[38.10944,36.21298,299.5],[38.10024,36.19877,299.5],[38.08784,36.17529,299.5],[38.06598,36.14772,299.5],[38.0621,36.14092,299.5],[38.05978,36.13402,299.5],[38.05838,36.12674,299.5],[38.05978,36.11446,299.5],[38.06381,36.09842,299.5],[38.07605,36.06865,299.5],[38.08505,36.05426,299.5],[38.09419,36.04421,299.5],[38.10866,36.0323,299.5],[38.12184,36.01858,299.5],[38.13455,36.00059,299.5],[38.13517,35.99995,299.5],[38.17522,35.97302,299.5],[38.17879,35.96819,299.5],[38.18018,35.96251,299.5],[38.17863,35.95207,299.5],[38.17708,35.94706,326.7501],[38.17507,35.94277,333.5716],[38.17336,35.94013,356.4209],[38.16886,35.92809,359.7103],[38.16189,35.91414,358.9234],[38.15972,35.91114,360.7586],[38.1546,35.90597,359.4091],[38.13471,35.88954,356.6797],[38.09652,35.84469,352.1819],[38.09373,35.84231,350.2529],[38.08877,35.83688,348.4168],[38.07993,35.82489,347.4555],[38.05187,35.76913,355.8468],[38.02639,35.67844,377.8859],[38.02081,35.64297,383.9247],[38.02081,35.63816,385.7081],[38.02143,35.63307,387.0111],[38.02345,35.62646,394.3758],[38.02562,35.62217,396.7163],[38.02794,35.6186,395.0677],[38.04267,35.6031,402.6558],[38.2348,35.43587,417.0053],[38.2747,35.41153,375.8783],[38.28632,35.40146,377.6926],[38.30167,35.38234,383.2239],[38.3903,35.39092,366.4934],[38.68418,35.37231,375.7632],[39.24203,35.24927,728.3226],[39.66655,35.75756,222.2912],[39.67497,35.77087,215.0],[39.66686,35.77402,220.7982],[39.63772,35.78991,217.056],[39.63079,35.79213,218.8309],[39.63095,35.80257,223.6797],[39.64144,35.86432,257.6326],[39.73921,36.22758,474.1912],[39.80453,36.46367,459.8961],[39.80267,36.47656,460.4382],[39.80143,36.48046,460.3981],[39.79988,36.48356,459.8551],[39.79336,36.49183,446.2168],[39.78251,36.50082,432.2054],[39.72024,36.52909,404.3684],[39.62826,36.55994,378.1389],[39.62345,36.56074,375.7838],[39.61849,36.56097,373.8763],[39.61415,36.56051,373.0416],[39.60991,36.55963,372.507],[39.59426,36.55467,370.4368],[39.58588,36.55291,369.3696],[39.56759,36.55121,367.0069],[39.557,36.55188,365.0786],[39.54676,36.55389,364.324],[39.53824,36.55712,363.869],[39.52475,36.56676,368.0748],[39.474,36.61947,382.4705],[39.46517,36.63601,386.5341],[39.44171,36.69237,409.1461],[39.2396,36.66128,383.2537],[39.18586,36.65952,379.26],[39.03217,36.70117,360.9816],[38.97998,36.69817,346.0656],[38.95796,36.6929,347.3026],[38.79539,36.68665,364.0098]]]}}