{"type":"Feature","properties":{"GID_2":"SYR.4.1_1","GID_0":"SYR","country":"Syria","GID_1":"SYR.4_1","province":"AsSuwayda'","NL_NAME_1":"NA","county":"As-Suwayda","VARNAME_2":"NA","NL_NAME_2":"NA","TYPE_2":"Mantika","ENGTYPE_2":"District","CC_2":"NA","HASC_2":"NA","name":"As-Suwayda.county"},
"geometry":{"type": "MultiPolygon","coordinates": [[[[37.5103,32.6888,800.8246],[37.4999,32.7103,762.6561],[37.4813,32.7314,727.149],[37.4465,32.7551,775.3224],[37.4067,32.7849,757.344],[37.3607,32.8272,689.14],[37.3421,32.847,642.417],[37.3358,32.8669,648.1745],[37.3358,32.898,631.4503],[37.3259,32.9142,608.7596],[37.3097,32.9278,605.9095],[37.2774,32.9303,611.9471],[37.2277,32.9303,615.9702],[37.2103,32.9378,597.7192],[37.1917,32.9502,604.188],[37.1842,32.9589,606.4304],[37.1805,32.9912,620.9569],[37.1767,33.0024,627.7131],[37.1606,33.0161,619.3741],[37.1407,33.0248,612.761],[37.1096,33.0186,599.3446],[37.0748,33.0024,631.9069],[37.0487,32.985,671.5995],[36.9604,32.9353,799.6934],[36.9269,32.9129,841.7426],[36.9033,32.8918,876.7938],[36.8374,32.8657,984.4081],[36.8001,32.8607,1143.7472],[36.7616,32.862,1200.0248],[36.7255,32.8682,1193.4609],[36.6982,32.8794,1170.3403],[36.6484,32.8769,1066.9156],[36.6174,32.9005,915.4644],[36.6062,32.9055,874.5912],[36.595,32.9055,867.6033],[36.5701,32.8905,887.8576],[36.5515,32.8968,869.9427],[36.4757,32.9291,756.3068],[36.4396,32.9365,736.174],[36.3998,32.9365,692.0034],[36.3899,32.9229,680.7015],[36.3874,32.8359,692.2811],[36.3874,32.7377,694.563],[36.3911,32.7004,706.2537],[36.3961,32.6966,721.3034],[36.4334,32.6904,760.0414],[36.4496,32.6854,772.3419],[36.4694,32.6743,808.4547],[36.4744,32.6556,805.9677],[36.4732,32.6444,799.5299],[36.462,32.6357,803.2468],[36.4284,32.6245,764.908],[36.421,32.6146,773.0643],[36.4235,32.6084,772.166],[36.4483,32.5922,788.062],[36.4732,32.581,815.1835],[36.5067,32.5711,897.1393],[36.5291,32.5674,948.5342],[36.544,32.5599,953.5406],[36.5567,32.5301,969.1442],[36.5751,32.5301,984.8202],[36.5863,32.5326,1010.8677],[36.5962,32.5475,1064.6912],[36.6099,32.5636,1098.9202],[36.6149,32.5823,1155.896],[36.636,32.5885,1248.3713],[36.6422,32.5823,1254.8932],[36.6422,32.5537,1230.5858],[36.6484,32.5363,1250.3455],[36.6609,32.5288,1321.8049],[36.7379,32.5288,1368.4602],[36.7516,32.5437,1392.2812],[36.7703,32.5512,1435.9479],[36.7765,32.5723,1559.36],[36.779,32.5872,1487.7511],[36.8001,32.6121,1524.215],[36.8262,32.6121,1517.7577],[36.8424,32.6059,1498.4727],[36.8759,32.6022,1485.4365],[36.9269,32.6133,1249.5972],[36.9716,32.6171,987.4607],[37.0114,32.6357,869.7422],[37.0761,32.6593,785.3466],[37.1407,32.6693,729.8674],[37.3371,32.668,803.9431],[37.4564,32.6792,814.6983],[37.4924,32.6792,806.2777],[37.5103,32.6888,800.8246]]]]}}