{"type":"Feature","properties":{"GID_2":"SYR.9.1_1","GID_0":"SYR","country":"Syria","GID_1":"SYR.9_1","province":"Hims","NL_NAME_1":"NA","county":"Al-Mukharram","VARNAME_2":"NA","NL_NAME_2":"NA","TYPE_2":"Mantika","ENGTYPE_2":"District","CC_2":"NA","HASC_2":"NA","name":"Al-Mukharram.county"},
"geometry":{"type": "MultiPolygon","coordinates": [[[[37.0277,34.8653,530.3544],[37.0233,34.8543,548.147],[37.0205,34.8308,579.2952],[37.0158,34.8204,597.3225],[37.0139,34.8101,605.9852],[36.9988,34.7837,625.0912],[36.9988,34.7762,617.7883],[37.013,34.7508,623.2648],[37.013,34.7291,588.8895],[37.0054,34.7244,584.3879],[36.9951,34.7225,572.9258],[36.9894,34.7169,595.1451],[36.9922,34.7037,615.9237],[37.0054,34.6895,602.1592],[37.0243,34.6792,624.8715],[37.0572,34.6792,665.5383],[37.142,34.6754,822.1081],[37.1533,34.6679,854.5274],[37.1778,34.6594,941.2535],[37.2136,34.6604,888.4175],[37.223,34.666,862.8854],[37.2371,34.6679,850.5793],[37.2776,34.6669,810.2111],[37.3134,34.6556,782.4556],[37.3313,34.6519,768.0759],[37.417,34.6349,741.6666],[37.4462,34.6321,741.9823],[37.4546,34.6481,787.496],[37.4659,34.6613,805.006],[37.4763,34.6688,825.9416],[37.4998,34.6726,779.7959],[37.5177,34.6905,762.8045],[37.5413,34.6933,738.8705],[37.5582,34.7056,741.6183],[37.5667,34.7216,760.7805],[37.5742,34.7432,792.0968],[37.5827,34.7592,807.7409],[37.6015,34.7894,850.4581],[37.6194,34.8101,827.7728],[37.6543,34.844,892.4811],[37.6722,34.8534,840.1957],[37.6901,34.8543,814.1113],[37.6995,34.8666,804.7985],[37.6995,34.8977,917.3677],[37.708,34.909,958.2456],[37.7108,34.925,1014.37],[37.7277,34.9476,957.107],[37.7419,34.9626,844.9407],[37.7814,34.9655,855.3333],[37.8134,34.973,941.4921],[37.8729,35.0133,863.7797],[37.8639,35.0279,861.8403],[37.8585,35.0432,876.1815],[37.8447,35.0663,755.8071],[37.8254,35.0832,683.3652],[37.7916,35.1032,627.1317],[37.7516,35.114,611.6313],[37.7262,35.1148,611.84],[37.6432,35.0971,617.4944],[37.5693,35.0732,636.8847],[37.5293,35.0548,676.3011],[37.4824,35.0217,704.0174],[37.4432,34.9886,709.3462],[37.4386,34.9648,752.2567],[37.4324,34.9571,742.7382],[37.4201,34.9509,738.1024],[37.4017,34.9463,698.1628],[37.3871,34.9333,715.3477],[37.3755,34.9179,737.4156],[37.3663,34.9094,733.4153],[37.3394,34.9071,703.1246],[37.3255,34.9102,697.2781],[37.314,34.9194,677.6765],[37.2971,34.9363,647.2581],[37.2732,34.9379,635.0797],[37.264,34.9317,636.8281],[37.2525,34.9133,659.0602],[37.2294,34.9133,636.4064],[37.2086,34.9171,621.5756],[37.2017,34.9163,616.8214],[37.1948,34.9125,607.0629],[37.1786,34.9086,613.2679],[37.1625,34.9071,601.837],[37.1448,34.8979,588.4547],[37.1148,34.8863,584.2033],[37.0994,34.8825,576.9033],[37.0871,34.8748,559.3444],[37.081,34.8679,571.5022],[37.071,34.8625,567.9014],[37.0579,34.861,557.0844],[37.041,34.8617,536.6244],[37.0277,34.8653,530.3544]]]]}}