{"type":"Feature","properties":{"GID_2":"SYR.13.4_1","GID_0":"SYR","country":"Syria","GID_1":"SYR.13_1","province":"RifDimashq","NL_NAME_1":"NA","county":"Darayya","VARNAME_2":"NA","NL_NAME_2":"NA","TYPE_2":"Mantika","ENGTYPE_2":"District","CC_2":"NA","HASC_2":"NA","name":"Darayya.county"},
"geometry":{"type": "MultiPolygon","coordinates": [[[[36.1595,33.4902,957.8826],[36.1473,33.4771,964.1976],[36.1445,33.465,900.7121],[36.1445,33.4566,870.1345],[36.152,33.4463,799.2909],[36.1595,33.4305,761.9992],[36.1604,33.4128,761.3782],[36.1734,33.4025,754.5662],[36.1902,33.3923,819.1157],[36.2033,33.3783,864.5253],[36.2033,33.3709,761.5788],[36.2238,33.368,741.0768],[36.2424,33.3699,740.5497],[36.2527,33.3792,706.5227],[36.2527,33.3923,733.5463],[36.2601,33.4072,765.9908],[36.2807,33.4212,677.5641],[36.2807,33.4408,682.2366],[36.2769,33.4445,678.1714],[36.2657,33.4501,681.7985],[36.2508,33.4501,688.7808],[36.2368,33.4547,701.2968],[36.2266,33.4594,709.8736],[36.2173,33.4678,721.6726],[36.2117,33.4706,733.3978],[36.18,33.4725,831.9714],[36.1716,33.4762,881.3452],[36.1632,33.4836,945.2809],[36.1595,33.4902,957.8826]]]]}}