{"type":"Feature","properties":{"GID_2":"SYR.2.7_1","GID_0":"SYR","country":"Syria","GID_1":"SYR.2_1","province":"Aleppo","NL_NAME_1":"NA","county":"Jarabulus","VARNAME_2":"NA","NL_NAME_2":"NA","TYPE_2":"Mantika","ENGTYPE_2":"District","CC_2":"NA","HASC_2":"NA","name":"Jarabulus.county"},
"geometry":{"type": "MultiPolygon","coordinates": [[[[38.0312,36.8275,326.9012],[37.998,36.8238,368.7578],[37.9765,36.8182,392.8715],[37.908,36.7857,443.7536],[37.8623,36.7741,478.7965],[37.8144,36.7592,505.046],[37.7912,36.7486,511.979],[37.767,36.7466,502.5845],[37.7337,36.7495,509.9836],[37.7268,36.7488,510.1658],[37.7103,36.7446,510.0137],[37.6945,36.7382,495.8713],[37.674,36.7368,513.6761],[37.6551,36.7314,514.8367],[37.6355,36.7207,506.8638],[37.5782,36.6985,540.072],[37.5343,36.6763,541.9424],[37.521,36.6672,540.5765],[37.502,36.6493,558.295],[37.485,36.6411,513.2072],[37.4725,36.638,508.1522],[37.4611,36.6381,516.1509],[37.4466,36.6414,512.9756],[37.4356,36.6304,495.0342],[37.4184,36.6218,486.6179],[37.3998,36.618899999999996,487.8499],[37.3854,36.6146,480.8183],[37.374,36.6046,481.0501],[37.3783,36.5874,478.8476],[37.3969,36.5601,485.3528],[37.4041,36.5429,477.9358],[37.4127,36.5301,494.6553],[37.4241,36.5286,496.5958],[37.4599,36.5286,549.6561],[37.5302,36.5329,529.3683],[37.5402,36.5401,516.114],[37.5517,36.5544,546.7426],[37.5746,36.5587,530.1465],[37.6018,36.5387,510.1007],[37.619,36.5329,499.3875],[37.6706,36.5329,514.8606],[37.6835,36.5372,521.7001],[37.7021,36.5558,514.9639],[37.7179,36.5745,501.6382],[37.7294,36.5931,494.6078],[37.7437,36.6089,493.7786],[37.7709,36.6504,461.4988],[37.7824,36.6504,478.9095],[37.7939,36.6447,477.6129],[37.8111,36.6318,461.8561],[37.8297,36.6318,444.6252],[37.8569,36.6275,450.2606],[37.9143,36.6089,431.6395],[37.9229,36.6031,441.9806],[37.9487,36.6074,412.9029],[37.9644,36.6246,408.3019],[37.9787,36.6361,368.9798],[38.0017,36.6361,384.5045],[38.0246,36.6433,376.8214],[38.0619,36.6433,368.3223],[38.0885,36.6544,379.2549],[38.0676,36.6662,344.2808],[38.0432,36.6834,376.6491],[38.0389,36.6949,397.8344],[38.0461,36.7078,367.8779],[38.0475,36.7207,323.0],[38.0375,36.7293,323.0],[38.0174,36.7522,326.6504],[38.0174,36.7808,327.0074],[38.026,36.7923,326.6664],[38.0318,36.8081,326.8317],[38.0312,36.8275,326.9012]]]]}}