{"type":"Feature","properties":{"ISO3166-1-Alpha-3":"SYR","country":"Syria","fill":"#F0F","id":"145","name":"Quneitra"},
"geometry":{"type": "Polygon","coordinates": [[[35.892,33.23996,1011.4821],[35.88999,33.24056,1022.7078],[35.88735,33.24293,1028.9075],[35.88115,33.25502,1086.4557],[35.88006,33.25825,1093.6841],[35.8796,33.26019,1100.4409],[35.87929,33.26448,1115.1707],[35.8796,33.26867,1128.8383],[35.88084,33.27466,1150.9861],[35.88285,33.28035,1154.0211],[35.88425,33.28314,1167.7227],[35.88518,33.28469,1171.8674],[35.88937,33.29024,1145.5634],[35.89433,33.29528,1130.0734],[35.8951,33.29693,1133.3462],[35.89526,33.29867,1132.6487],[35.88471,33.30463,1260.7178],[35.84322,33.3227,1610.1179],[35.84298,33.3228,1610.1179],[35.84342,33.32189,1672.6483],[35.8458,33.31326,1503.5552],[35.84497,33.30389,1391.4094],[35.84043,33.29536,1402.8317],[35.8334,33.29063,1328.0671],[35.82637,33.28831,1300.3052],[35.82172,33.28598,1295.905],[35.81934,33.28443,1294.6707],[35.82017,33.28055,1304.0337],[35.82637,33.2798,1243.3284],[35.83578,33.27903,1242.1016],[35.8458,33.27903,1256.1802],[35.85128,33.27583,1238.8726],[35.85366,33.2727,1226.6895],[35.85438,33.26882,1202.853],[35.86151,33.23756,1022.588],[35.86616,33.22596,996.8851],[35.87474,33.21575,977.8008],[35.88559,33.20405,1004.2568],[35.8888,33.19859,973.6389],[35.8888,33.19462,945.9543],[35.88249,33.18924,935.0468],[35.88249,33.18459,937.868],[35.88487,33.17906,940.1725],[35.88807,33.17676,944.0549],[35.89035,33.17676,944.3162],[35.89655,33.18061,948.967],[35.90037,33.17981,950.4579],[35.90595,33.17676,954.5889],[35.9075,33.17131,963.0779],[35.91133,33.16581,963.5699],[35.91133,33.14942,940.5273],[35.91133,33.13927,930.6945],[35.9106,33.13539,927.8736],[35.90595,33.13307,919.7338],[35.90037,33.13074,910.365],[35.89489,33.12829,897.814],[35.8919,33.12441,890.0142],[35.89345,33.12051,885.3466],[35.89727,33.11664,878.79],[35.90275,33.11664,876.8409],[35.90275,33.10961,865.2209],[35.89035,33.10961,873.4327],[35.86844,33.10728,878.8776],[35.86461,33.08155,922.2344],[35.87712,32.99264,828.2854],[35.8981,32.98553,765.3922],[35.92383,32.96768,655.4605],[35.91215,32.94729,656.1856],[35.89035,32.92864,644.0156],[35.86068,32.88016,512.4954],[35.84663,32.83647,316.755],[35.8468,32.83578,316.755],[35.85397,32.8451,352.1884],[35.90673,32.88618,526.117],[35.9367,32.90675,556.2373],[35.94182,32.9128,565.076],[35.94244,32.91443,565.3574],[35.9429,32.91887,567.994],[35.93996,32.93848,597.2067],[35.93841,32.94437,602.0],[35.93686,32.94817,602.9723],[35.93438,32.95073,609.3093],[35.93329,32.95212,614.3779],[35.93252,32.95373,614.3779],[35.93283,32.956,621.2172],[35.93422,32.95848,626.3242],[35.93841,32.96158,633.168],[35.94151,32.96292,638.5095],[35.94461,32.96362,637.4768],[35.96228,32.96442,648.4918],[35.96714,32.9638,646.1483],[35.9691,32.96316,642.5776],[35.97065,32.96212,637.5236],[35.97179,32.96073,634.0532],[35.97241,32.95907,631.4067],[35.97349,32.95556,621.1767],[35.97427,32.95404,618.2965],[35.97551,32.95259,614.6964],[35.9766,32.95132,611.6145],[35.97815,32.95019,609.0278],[35.97985,32.94931,608.3005],[35.98156,32.94856,601.8948],[35.98326,32.94812,601.4856],[35.98512,32.94817,597.3624],[35.98636,32.9491,599.929],[35.98729,32.95065,602.5326],[35.98714,32.95453,607.4764],[35.9859,32.96018,616.4164],[35.97939,32.97788,642.391],[35.97753,32.98137,645.0112],[35.97349,32.98509,655.5643],[35.9691,32.99049,666.441],[35.96383,33.00008,681.0754],[35.96368,33.00023,681.0754],[35.96352,33.00065,682.8647],[35.95205,33.01512,719.5082],[35.94709,33.02463,749.8876],[35.94771,33.03214,762.6469],[35.9598,33.0948,828.6818],[35.96089,33.09625,829.9652],[35.96745,33.10909,850.2959],[35.98001,33.12612,878.894],[35.9797,33.12878,887.113],[35.9783,33.13281,879.9094],[35.97365,33.14051,895.6045],[35.97065,33.14387,902.1997],[35.96817,33.14601,904.0724],[35.95406,33.15477,951.591],[35.95298,33.15622,948.4819],[35.95375,33.16653,978.1537],[35.96166,33.20482,941.5424],[35.96321,33.21149,936.5117],[35.96352,33.21611,932.289],[35.96321,33.23128,927.3763],[35.96414,33.23957,919.0886],[35.96414,33.24394,920.966],[35.96383,33.24603,921.0585],[35.96337,33.24789,921.5623],[35.96104,33.2497,922.0237],[35.95701,33.25154,932.552],[35.9443,33.25324,941.0627],[35.93267,33.25373,951.3293],[35.90957,33.25717,999.8995],[35.90704,33.25704,998.0877],[35.90487,33.2566,1004.4392],[35.90099,33.25518,1018.8835],[35.8996,33.25409,1023.8043],[35.89836,33.25285,1023.7788],[35.89758,33.25164,1020.3241],[35.89696,33.25022,1020.6221],[35.89696,33.25012,1020.6221],[35.89557,33.24596,1007.4808],[35.89417,33.24267,1001.6673],[35.89309,33.24125,998.9625],[35.892,33.23996,1011.4821]]]}}