{"type":"Feature","properties":{"GID_2":"SYR.14.4_1","GID_0":"SYR","country":"Syria","GID_1":"SYR.14_1","province":"Tartus","NL_NAME_1":"NA","county":"Safita","VARNAME_2":"NA","NL_NAME_2":"NA","TYPE_2":"Mantika","ENGTYPE_2":"District","CC_2":"NA","HASC_2":"NA","name":"Safita.county"},
"geometry":{"type": "MultiPolygon","coordinates": [[[[36.2955,34.8779,806.2747],[36.2869,34.8779,822.5342],[36.2613,34.8923,672.1477],[36.2469,34.8974,646.1985],[36.2274,34.9005,653.3075],[36.1177,34.9005,317.2824],[36.1003,34.8913,286.3475],[36.0235,34.8892,346.65],[36.0254,34.8769,237.1269],[36.0275,34.7795,108.9636],[36.0326,34.7528,95.484],[36.0408,34.7487,81.4849],[36.0541,34.7477,208.2507],[36.0654,34.7395,192.2441],[36.0675,34.7292,201.543],[36.0746,34.7159,151.3899],[36.088,34.7005,57.8757],[36.1095,34.6831,39.9331],[36.1239,34.6749,37.8858],[36.1273,34.6707,29.8711],[36.1372,34.6841,67.4076],[36.1464,34.6933,81.338],[36.1587,34.7149,100.3917],[36.1608,34.7405,148.1845],[36.1721,34.7487,218.4405],[36.1977,34.7621,244.9686],[36.2705,34.841,608.4138],[36.2777,34.8533,749.6064],[36.2951,34.8749,755.6067],[36.2955,34.8779,806.2747]]]]}}