{"type":"Feature","properties":{"GID_1":"SYR.8_1","GID_0":"SYR","country":"Syria","province":"Hamah","VARNAME_1":"Hama|Ḥamāh","NL_NAME_1":"NA","TYPE_1":"Muḥāfaẓah","ENGTYPE_1":"Governorate","CC_1":"NA","HASC_1":"SY.HM","ISO_1":"SY-HM","name":"Hamah.province"},
"geometry":{"type": "MultiPolygon","coordinates": [[[[36.9288,34.9866,432.6755],[36.9297,34.9969,419.6996],[36.9452,34.9876,484.4364],[36.9811,34.9518,479.5066],[36.9904,34.9312,490.8636],[36.9904,34.9138,497.6199],[36.9881,34.8996,505.3369],[37.0018,34.8833,516.5194],[37.0241,34.8663,529.7733],[37.041,34.8617,536.6244],[37.0579,34.861,557.0844],[37.071,34.8625,567.9014],[37.081,34.8679,571.5022],[37.0871,34.8748,559.3444],[37.0994,34.8825,576.9033],[37.1148,34.8863,584.2033],[37.1448,34.8979,588.4547],[37.1625,34.9071,601.837],[37.1786,34.9086,613.2679],[37.1948,34.9125,607.0629],[37.2017,34.9163,616.8214],[37.2086,34.9171,621.5756],[37.2294,34.9133,636.4064],[37.2525,34.9133,659.0602],[37.264,34.9317,636.8281],[37.2732,34.9379,635.0797],[37.2971,34.9363,647.2581],[37.314,34.9194,677.6765],[37.3255,34.9102,697.2781],[37.3394,34.9071,703.1246],[37.3663,34.9094,733.4153],[37.3755,34.9179,737.4156],[37.3871,34.9333,715.3477],[37.4017,34.9463,698.1628],[37.4201,34.9509,738.1024],[37.4324,34.9571,742.7382],[37.4386,34.9648,752.2567],[37.4432,34.9886,709.3462],[37.4824,35.0217,704.0174],[37.5293,35.0548,676.3011],[37.5693,35.0732,636.8847],[37.6432,35.0971,617.4944],[37.7262,35.1148,611.84],[37.7516,35.114,611.6313],[37.7916,35.1032,627.1317],[37.8254,35.0832,683.3652],[37.8447,35.0663,755.8071],[37.8585,35.0432,876.1815],[37.8639,35.0279,861.8403],[37.8739,35.0117,869.3442],[37.93,34.9517,1131.5886],[37.9454,34.9386,1184.3374],[37.9654,34.914,1206.3893],[37.9785,34.9056,1153.46],[37.993899999999996,34.9002,1117.1687],[38.0139,34.9033,1115.401],[38.0269,34.9163,1080.9548],[38.0339,34.931,1038.9681],[38.0385,34.9486,1005.2828],[38.0477,34.9725,941.9354],[38.0569,34.9925,888.006],[38.0785,35.0163,821.6962],[38.0962,35.0317,787.9602],[38.1508,35.0532,726.6468],[38.1846,35.0694,691.4996],[38.243,35.1255,581.6952],[38.263,35.154,556.4841],[38.3069,35.2509,507.2441],[38.3114,35.3313,420.1601],[38.3205,35.3611,392.8041],[38.3008,35.3737,388.7733],[38.2977,35.3894,378.1716],[38.2617,35.4176,381.9398],[38.2461,35.4269,398.8211],[38.2312,35.4395,409.9972],[38.2114,35.4318,414.557],[38.1727,35.4354,403.5984],[38.1105,35.426,441.2644],[38.0084,35.426,422.6361],[37.9357,35.4295,418.0369],[37.9075,35.433,423.2218],[37.8958,35.4283,428.0003],[37.8782,35.4248,433.7559],[37.8629,35.4154,438.0425],[37.8477,35.4095,442.4808],[37.8277,35.4084,443.5352],[37.8089,35.4095,447.3569],[37.789,35.4119,423.4269],[37.7749,35.4213,414.6866],[37.7717,35.4276,409.9207],[37.735,35.4295,400.8651],[37.667,35.4377,380.7021],[37.654,35.4471,369.7046],[37.6224,35.4776,352.8591],[37.5836,35.5069,343.0009],[37.5672,35.5081,341.0801],[37.5437,35.5058,330.076],[37.4722,35.5034,313.8551],[37.4053,35.5058,299.6875],[37.3995,35.5084,298.5188],[37.3552,35.4995,307.8456],[37.3192,35.4987,310.9547],[37.284,35.5048,316.4754],[37.2222,35.5228,287.3298],[37.2078,35.5088,293.1345],[37.2016,35.4948,300.9833],[37.1961,35.4917,293.2563],[37.1852,35.4894,304.0858],[37.1549,35.4894,317.6382],[37.151,35.4855,324.5258],[37.1502,35.4551,331.2489],[37.1455,35.4364,339.8551],[37.1455,35.4271,352.9694],[37.1416,35.4193,363.6626],[37.1331,35.4131,357.7253],[37.0801,35.4115,436.7867],[37.0716,35.403,429.7805],[37.0708,35.3773,433.3398],[37.0747,35.371,409.5073],[37.0833,35.3671,407.2639],[37.1113,35.3664,365.4163],[37.1183,35.3617,372.8911],[37.1237,35.3555,389.1489],[37.1268,35.3469,376.118],[37.1253,35.3259,389.3376],[37.1198,35.3134,399.0151],[37.1121,35.3033,398.5143],[37.1019,35.294,402.6152],[37.0962,35.2822,445.0587],[37.0842,35.2824,443.1071],[37.0539,35.2681,415.0241],[37.0348,35.2673,492.0199],[37.0165,35.2697,461.6492],[37.0062,35.2793,470.0873],[36.9926,35.3039,477.5616],[36.9894,35.327,453.6875],[36.9886,35.3685,430.8381],[36.9831,35.3716,441.6699],[36.9759,35.3669,445.1158],[36.9663,35.3462,425.0159],[36.9568,35.339,429.3792],[36.9193,35.3342,402.9922],[36.9106,35.335,406.5671],[36.905,35.3366,421.3239],[36.8931,35.347,417.7141],[36.8891,35.3613,401.4646],[36.8899,35.3756,384.9693],[36.8835,35.3788,408.9092],[36.8819,35.3876,382.6475],[36.8763,35.3916,410.9543],[36.8628,35.3916,376.9886],[36.8548,35.3876,378.2752],[36.8429,35.3876,368.3325],[36.823,35.3931,354.6543],[36.7935,35.3947,336.0509],[36.7784,35.4011,333.2867],[36.764,35.4035,336.9276],[36.7202,35.4035,362.5045],[36.7107,35.4003,375.2083],[36.6923,35.3844,379.6078],[36.6812,35.378,382.2103],[36.674,35.3756,349.9056],[36.6501,35.3764,328.8087],[36.6103,35.3923,339.4771],[36.6,35.3931,330.3267],[36.5713,35.3916,295.5832],[36.553,35.3923,292.7757],[36.541,35.3947,263.4496],[36.5354,35.4027,280.0074],[36.5354,35.4139,282.5912],[36.5331,35.425,291.1411],[36.5219,35.4377,277.0779],[36.5116,35.4433,303.8008],[36.502,35.4457,322.2742],[36.4901,35.4457,295.2669],[36.4821,35.4377,293.8472],[36.4709,35.4314,285.5019],[36.459,35.4282,287.1532],[36.4502,35.4282,287.8183],[36.4359,35.4393,289.0803],[36.4335,35.4497,288.7737],[36.4319,35.4712,302.5005],[36.4263,35.4792,305.7672],[36.4168,35.5054,554.8982],[36.4168,35.5317,677.2032],[36.42,35.5437,757.0912],[36.42,35.554,680.2911],[36.4224,35.5644,573.1792],[36.4263,35.5723,464.9568],[36.4279,35.5819,553.5211],[36.4279,35.6249,646.439],[36.4305,35.6386,772.8123],[36.4276,35.6421,777.9801],[36.4259,35.6544,802.9391],[36.4267,35.6641,754.9862],[36.4382,35.6808,858.247],[36.4408,35.6896,845.2041],[36.4408,35.6976,651.9017],[36.4364,35.7028,405.8432],[36.4205,35.7151,247.4393],[36.4179,35.7134,237.4969],[36.4074,35.7134,228.9016],[36.3889,35.7152,208.4867],[36.3801,35.7213,190.8174],[36.3757,35.7292,210.7125],[36.3748,35.7468,219.6949],[36.3167,35.7468,164.7328],[36.2886,35.7556,274.1014],[36.2622,35.7574,801.4941],[36.2507,35.753,1033.3969],[36.2394,35.7524,1033.6272],[36.2274,35.7434,1032.2142],[36.2203,35.7321,923.3403],[36.2182,35.7208,890.5872],[36.2069,35.6931,1115.9174],[36.2069,35.6675,1213.7502],[36.212,35.6552,1315.3972],[36.2203,35.648,1306.6261],[36.2274,35.6316,1242.1357],[36.2336,35.6224,809.3296],[36.2336,35.6091,1002.2869],[36.2059,35.5373,1222.0011],[36.2059,35.4901,1258.1713],[36.1874,35.4491,1044.2097],[36.1813,35.444,1071.0426],[36.1765,35.444,947.4082],[36.1803,35.4358,1062.2345],[36.1803,35.4204,1102.9996],[36.1864,35.4081,1119.4304],[36.1915,35.3845,1175.2815],[36.1997,35.3732,1227.989],[36.2038,35.3445,1221.0632],[36.2049,35.3086,1337.0532],[36.2028,35.2922,1151.9012],[36.1967,35.2789,1097.8748],[36.1949,35.2783,1159.2739],[36.1936,35.2686,1173.6389],[36.1727,35.239,910.9153],[36.1854,35.2296,654.054],[36.1996,35.2256,907.618],[36.1936,35.2143,735.2025],[36.1936,35.2061,671.8695],[36.2172,35.1774,944.0521],[36.2285,35.1589,980.5473],[36.2326,35.1435,997.1546],[36.2326,35.1025,1060.1992],[36.2295,35.0851,898.9564],[36.2192,35.0687,892.6733],[36.2069,35.0533,683.2529],[36.1854,35.0492,580.4089],[36.1751,35.0492,508.1985],[36.1751,35.0317,785.1131],[36.1936,34.9989,460.9819],[36.2049,34.9743,855.1148],[36.2161,34.9569,624.139],[36.2602,34.9333,929.4119],[36.2746,34.9282,939.1235],[36.2951,34.9159,867.8945],[36.3125,34.9138,835.2758],[36.3577,34.9138,584.2555],[36.3587,34.8943,840.4927],[36.37,34.8933,707.8948],[36.4028,34.8984,633.3297],[36.4438,34.9087,458.8408],[36.453,34.9169,395.1165],[36.4684,34.9487,374.8566],[36.4848,34.963,371.8062],[36.4899,34.9712,381.303],[36.4992,34.9743,385.1207],[36.5166,34.9682,370.5032],[36.5238,34.96,370.0919],[36.5238,34.9425,389.6842],[36.5269,34.9333,377.7469],[36.531,34.9292,381.28],[36.5484,34.9138,375.6124],[36.5627,34.9118,377.7248],[36.5771,34.9128,375.9185],[36.5925,34.9251,372.4318],[36.6089,34.9292,365.0993],[36.6212,34.9292,362.85],[36.6571,34.9241,397.6655],[36.6663,34.9271,397.3372],[36.6755,34.9425,396.5454],[36.6909,34.9518,402.4686],[36.7104,34.9518,406.7185],[36.736,34.9487,419.4914],[36.7514,34.9436,408.6132],[36.7791,34.9251,448.2954],[36.7863,34.9261,462.3307],[36.7945,34.9343,481.1583],[36.7945,34.9446,498.2881],[36.7976,34.9518,428.7606],[36.8099,34.961,328.8882],[36.8365,34.961,360.7662],[36.8981,34.9702,375.7517],[36.9155,34.9764,408.4033],[36.9288,34.9866,432.6755]]]]}}