{"type":"Feature","properties":{"ISO3166-1-Alpha-3":"SYR","country":"Syria","fill":"#FF0","id":"138","name":"Hamah"},
"geometry":{"type": "Polygon","coordinates": [[[36.28536,35.73901,231.1674],[36.27761,35.73983,398.2324],[36.27001,35.7418,604.5181],[36.26583,35.74407,723.9034],[36.26195,35.74671,761.6353],[36.25963,35.74896,786.3088],[36.25482,35.75593,1005.7467],[36.23865,35.74438,981.8555],[36.23446,35.73557,1103.3782],[36.23276,35.71028,1143.2361],[36.23074,35.70402,1069.9839],[36.2281,35.6996,1041.2662],[36.21291,35.69095,902.845],[36.20283,35.68247,1101.86],[36.19989,35.67725,1187.7091],[36.19942,35.67307,1144.9402],[36.20113,35.67005,1178.9275],[36.21291,35.65684,1298.8879],[36.21648,35.65105,1394.4587],[36.21896,35.64452,1422.7756],[36.22159,35.63333,1314.9668],[36.22438,35.60201,1408.535],[36.22051,35.53535,993.769],[36.20128,35.42518,1273.6111],[36.2019,35.42146,1192.0886],[36.20811,35.40228,1049.308],[36.22469,35.3635,1418.8584],[36.25043,35.2624,1165.5369],[36.25296,35.22343,1167.7927],[36.25358,35.20441,1272.7178],[36.26505,35.08649,1072.9698],[36.26521,35.07112,1037.5652],[36.25699,35.04794,950.8817],[36.25389,35.0422,946.5636],[36.25043,35.03846,939.0332],[36.24361,35.03461,862.0287],[36.24004,35.03202,747.389],[36.23322,35.02541,797.4678],[36.22934,35.02368,830.8798],[36.21524,35.02267,790.9604],[36.21121,35.02148,854.9424],[36.205,35.01763,826.9438],[36.20113,35.01639,757.0106],[36.19214,35.01523,677.338],[36.1879,35.01425,718.9538],[36.18433,35.01277,811.1348],[36.17813,35.00872,742.7903],[36.17488,35.00704,726.671],[36.171,35.00626,697.4087],[36.16666,35.00639,697.4755],[36.15736,35.00794,666.622],[36.14728,35.00753,741.6699],[36.13684,35.0022,698.8762],[36.14403,34.97533,668.0917],[36.19069,34.96774,812.478],[36.20687,34.96712,686.986],[36.24536,34.97011,759.3143],[36.2542,34.96846,907.8233],[36.26009,34.96629,1024.3973],[36.26614,34.95389,1037.0042],[36.27017,34.93993,989.7624],[36.27311,34.93363,910.1971],[36.27513,34.93079,883.8851],[36.27901,34.92766,857.3955],[36.30459,34.91273,911.8791],[36.30944,34.90764,861.8788],[36.31316,34.90092,885.423],[36.31983,34.89188,803.8563],[36.31998,34.88888,812.8748],[36.3175,34.88728,845.0028],[36.3158,34.88588,877.3484],[36.3096,34.87916,825.4593],[36.30882,34.87663,823.2215],[36.30944,34.8749,819.7773],[36.31146,34.87412,826.0121],[36.31347,34.87366,874.2924],[36.31564,34.8735,872.3483],[36.31859,34.87131,833.3623],[36.32293,34.86738,708.1729],[36.33192,34.85627,798.7115],[36.33657,34.85203,736.4763],[36.34045,34.84981,727.7947],[36.34262,34.85028,716.1556],[36.34432,34.85105,766.7185],[36.34727,34.85322,886.4688],[36.35874,34.86666,862.2335],[36.36153,34.86888,900.2841],[36.36422,34.86976,934.1244],[36.36763,34.87027,827.4703],[36.37492,34.87033,729.3064],[36.37895,34.86867,729.8749],[36.38158,34.86702,769.0229],[36.38871,34.8572,908.0657],[36.41941,34.85162,699.9149],[36.42303,34.85219,662.8267],[36.42783,34.85353,622.5973],[36.43016,34.85632,581.9265],[36.43776,34.86343,526.3788],[36.43946,34.86562,502.3225],[36.43977,34.86759,495.7596],[36.43977,34.87627,461.9855],[36.4407,34.87911,473.2466],[36.44272,34.88237,472.6581],[36.44799,34.88784,444.0479],[36.44985,34.8911,437.8585],[36.45078,34.89384,435.6389],[36.44985,34.90025,432.5627],[36.45016,34.90815,456.685],[36.4747,34.93045,378.8485],[36.48246,34.94133,372.9556],[36.49052,34.95012,371.3707],[36.49191,34.95105,371.783],[36.493,34.95172,371.783],[36.49501,34.95254,371.9671],[36.50431,34.95456,370.8817],[36.50804,34.95471,370.8378],[36.51114,34.95446,370.4997],[36.51501,34.95316,373.3224],[36.51842,34.95136,385.5652],[36.51997,34.95027,391.8442],[36.52121,34.94908,391.8442],[36.52214,34.94753,386.8922],[36.52276,34.94585,388.9656],[36.52292,34.94384,389.0604],[36.52245,34.94198,390.3627],[36.52168,34.94035,391.6864],[36.51951,34.9374,398.0963],[36.51594,34.93353,402.734],[36.51517,34.93192,392.1818],[36.51455,34.93017,378.7369],[36.51455,34.9282,371.8595],[36.51501,34.9264,369.6334],[36.51625,34.92518,369.662],[36.51811,34.92454,369.5246],[36.5254,34.92412,369.1445],[36.52762,34.92381,370.0959],[36.52958,34.92329,369.8312],[36.53134,34.92242,371.1543],[36.53289,34.92133,373.1292],[36.53398,34.91994,372.1725],[36.5346,34.91815,371.6321],[36.53475,34.91606,370.3592],[36.53475,34.91162,369.9767],[36.53661,34.90914,369.7346],[36.54018,34.9066,369.9624],[36.54948,34.90319,369.1078],[36.55537,34.90213,369.2733],[36.55971,34.90185,368.9013],[36.56204,34.90242,368.8302],[36.56591,34.90381,369.5414],[36.5777,34.90978,389.5854],[36.60038,34.91412,383.7452],[36.64927,34.9126,369.8408],[36.72792,34.94536,358.0],[36.73769,34.94841,419.4914],[36.73908,34.94769,422.0004],[36.74172,34.94743,424.509],[36.74544,34.94763,426.4368],[36.75427,34.94929,433.4435],[36.76223,34.94949,394.7216],[36.76394,34.949,356.2802],[36.76719,34.94877,322.4032],[36.79866,34.95068,428.7606],[36.80269,34.95179,493.7018],[36.81608,34.96205,340.4205],[36.82197,34.96425,327.5169],[36.82802,34.96541,313.3827],[36.83747,34.96546,313.9594],[36.84181,34.96588,336.3006],[36.84631,34.96737,315.3766],[36.86104,34.97546,306.9616],[36.86745,34.97735,312.8159],[36.87365,34.97833,322.5265],[36.88403,34.97717,331.2971],[36.89675,34.97399,372.4944],[36.91163,34.96371,425.9014],[36.91659,34.95833,433.8558],[36.91736,34.95668,451.3547],[36.94811,34.90645,498.0897],[36.97276,34.8609,538.4537],[36.99343,34.86686,535.3637],[36.99948,34.86955,524.156],[37.04914,34.9026,513.4396],[37.05581,34.90624,508.1867],[37.06449,34.90831,507.7248],[37.08154,34.9095,525.0056],[37.08635,34.91084,525.0322],[37.08934,34.91211,524.0765],[37.1002,34.92386,531.5974],[37.10376,34.92624,531.4467],[37.10686,34.92766,532.1769],[37.11167,34.92764,531.9304],[37.11415,34.92738,532.061],[37.11632,34.92689,536.5468],[37.11833,34.92619,540.9139],[37.12361,34.92361,557.7028],[37.12655,34.92154,561.6838],[37.12841,34.92066,561.5605],[37.13647,34.91802,567.8903],[37.14474,34.91425,576.2957],[37.1466,34.91467,583.8464],[37.14784,34.91596,582.0243],[37.14939,34.92174,577.0438],[37.15296,34.92521,581.2778],[37.15916,34.92975,569.9551],[37.18257,34.94275,581.3417],[37.18799,34.94469,582.6107],[37.19327,34.94464,584.5023],[37.19575,34.94433,587.514],[37.19983,34.94306,582.9144],[37.20355,34.94138,584.8163],[37.2068,34.93947,591.477],[37.20944,34.9373,602.0007],[37.21083,34.93608,600.2936],[37.21192,34.93469,597.5219],[37.2158,34.92624,615.1851],[37.21952,34.92035,627.5083],[37.22184,34.91771,633.6648],[37.22339,34.9166,630.4393],[37.2268,34.9149,634.3363],[37.23548,34.91164,649.1957],[37.24742,34.90908,653.5453],[37.25145,34.90908,664.9518],[37.2544,34.90955,666.0944],[37.2606,34.91348,659.8566],[37.26608,34.91823,647.1895],[37.26716,34.91963,648.8188],[37.26809,34.92118,646.8027],[37.26964,34.92443,651.7856],[37.27352,34.93745,635.0797],[37.27429,34.93895,629.6196],[37.27522,34.94043,624.1588],[37.27662,34.94169,624.1588],[37.28391,34.94732,628.5271],[37.28515,34.94856,628.5271],[37.28608,34.95006,625.131],[37.2884,34.958,616.2806],[37.2898,34.96066,612.7335],[37.29243,34.96438,615.0238],[37.29553,34.96626,608.899],[37.29832,34.96727,613.295],[37.3008,34.96766,612.918],[37.31155,34.96766,627.2836],[37.32721,34.96443,641.375],[37.33031,34.96502,643.8773],[37.33217,34.96624,643.4214],[37.33233,34.9682,642.8329],[37.33233,34.97029,640.9172],[37.33295,34.97316,636.9819],[37.33465,34.97657,627.772],[37.33961,34.98205,632.127],[37.34318,34.98396,639.4698],[37.34628,34.98463,641.7904],[37.34845,34.98412,649.0734],[37.35031,34.98334,651.6658],[37.36039,34.97766,657.2509],[37.36798,34.97585,661.9268],[37.37672,34.97502,678.0521],[37.384,34.97657,689.6025],[37.39005,34.9789,680.8444],[37.39889,34.98401,694.9507],[37.40369,34.98577,686.7289],[37.40741,34.98662,694.1349],[37.41315,34.98655,691.2027],[37.42617,34.98815,701.5666],[37.43211,34.98817,711.6585],[37.43955,34.98691,712.8214],[37.45118,34.98743,713.6667],[37.45614,34.98693,727.1006],[37.46017,34.98572,728.1008],[37.46188,34.98474,724.7836],[37.46327,34.98355,731.5829],[37.47242,34.97073,757.4525],[37.47583,34.96681,757.7384],[37.47847,34.96546,757.5981],[37.48219,34.96417,759.3885],[37.4903,34.96285,746.9461],[37.49433,34.96293,748.1154],[37.49728,34.96347,753.5392],[37.49883,34.96438,754.2922],[37.49991,34.96515,755.2096],[37.50084,34.96593,757.1787],[37.50255,34.96856,757.4318],[37.50332,34.97027,756.4748],[37.50379,34.97213,756.3947],[37.50394,34.97417,756.0105],[37.50379,34.97616,756.4083],[37.5027,34.97993,762.7557],[37.49805,34.99187,755.739],[37.49743,34.9959,761.0157],[37.49728,35.02179,704.3467],[37.4996,35.03564,685.9924],[37.501,35.03921,683.4785],[37.50441,35.04561,679.6775],[37.50534,35.04701,679.6775],[37.50658,35.0483,678.8815],[37.51092,35.05171,678.1962],[37.51774,35.05572,678.5852],[37.53728,35.06432,683.4556],[37.56833,35.08256,634.8322],[37.575,35.08527,626.5037],[37.58042,35.08675,624.8631],[37.58942,35.08636,616.7845],[37.59381,35.08659,620.0146],[37.60745,35.08907,641.5759],[37.65386,35.10259,622.9189],[37.73685,35.11863,611.181],[37.74073,35.11863,612.4143],[37.74383,35.11827,610.1616],[37.74584,35.11755,611.9398],[37.75266,35.11406,608.4879],[37.75871,35.10969,623.8661],[37.77008,35.09853,641.7129],[37.77163,35.09742,643.7495],[37.77488,35.09553,652.7002],[37.7786,35.09403,634.116],[37.78294,35.09295,637.8262],[37.78806,35.09243,635.7294],[37.8079,35.09215,655.8826],[37.8124,35.09106,659.8878],[37.81411,35.09029,661.9109],[37.81757,35.0883,666.4085],[37.81891,35.08721,667.4822],[37.82377,35.08202,683.8152],[37.82687,35.07781,697.9065],[37.82858,35.07466,722.5544],[37.8292,35.0729,729.5919],[37.83075,35.06964,728.2925],[37.83168,35.06817,747.2926],[37.83292,35.0668,734.7814],[37.83834,35.0622,742.7861],[37.83943,35.06086,762.9796],[37.84036,35.05936,785.7071],[37.84501,35.0451,850.5235],[37.8464,35.03946,910.4885],[37.84733,35.02902,888.7933],[37.85043,35.01587,883.4897],[37.85105,35.01409,882.6464],[37.85198,35.01249,885.1857],[37.85571,35.00877,884.1758],[37.86439,35.00218,877.1617],[37.86764,35.00032,887.9154],[37.8678,35.00029,887.9154],[37.86966,34.99931,887.9154],[37.92614,34.96117,1078.1245],[37.93281,34.95528,1121.1144],[37.94169,34.94422,1164.0394],[37.98045,34.90324,1149.8021],[37.98603,34.89854,1126.5393],[37.98872,34.89828,1125.0132],[37.99198,34.89875,1119.2267],[37.99942,34.90133,1115.3035],[38.00159,34.90242,1122.2966],[38.02004,34.91932,1091.5997],[38.02112,34.92076,1082.3855],[38.02267,34.92412,1064.5519],[38.02376,34.92779,1070.7782],[38.02469,34.92944,1082.9746],[38.02655,34.93249,1085.5327],[38.02779,34.93384,1055.5266],[38.02856,34.93544,1039.2673],[38.02934,34.93709,1058.1145],[38.02996,34.93888,1055.3904],[38.03073,34.94298,1064.7415],[38.03089,34.94743,1045.8177],[38.03027,34.9557,1029.9264],[38.03027,34.95776,1015.1819],[38.03089,34.95968,1016.981],[38.03166,34.96133,1018.8985],[38.03662,34.96874,981.0571],[38.04164,34.9789,936.3674],[38.04267,34.98055,946.6678],[38.04861,34.98691,920.0911],[38.0497,34.9883,904.5204],[38.05063,34.98993,906.5773],[38.0514,34.99177,895.3392],[38.05233,34.99993,872.2009],[38.05233,35.00019,872.2009],[38.0528,35.00239,864.2939],[38.05698,35.00665,849.6273],[38.08427,35.02758,805.8664],[38.10075,35.03791,779.4697],[38.23263,35.08613,649.5],[38.23976,35.0914,714.3342],[38.24318,35.09605,711.9114],[38.2379,35.12943,584.8647],[38.23806,35.1377,578.0714],[38.23961,35.14649,570.5865],[38.24209,35.15455,563.5155],[38.24674,35.16542,553.5665],[38.25062,35.17212,549.2107],[38.27501,35.20178,554.4908],[38.28462,35.21635,538.7827],[38.29532,35.23718,535.8216],[38.29997,35.25364,518.9208],[38.30307,35.36497,392.7428],[38.30167,35.38234,383.2239],[38.28632,35.40146,377.6926],[38.2747,35.41153,375.8783],[38.2348,35.43587,417.0053],[37.80852,35.43494,460.5147],[37.72383,35.4452,396.3999],[37.67897,35.45603,379.7412],[37.66207,35.46215,368.3192],[37.59567,35.50013,340.9141],[37.59515,35.50044,343.701],[37.57593,35.51135,342.9549],[37.4116,35.50161,301.1646],[37.35341,35.50223,301.1374],[37.34612,35.50401,301.5395],[37.33744,35.50745,313.594],[37.30158,35.52713,285.9039],[37.21642,35.55147,278.8151],[37.19761,35.54295,279.8478],[37.19482,35.53979,280.6725],[37.19171,35.53517,284.6814],[37.18102,35.51421,294.8162],[37.15637,35.47833,310.2399],[37.15032,35.47181,315.0531],[37.14329,35.46843,326.5411],[37.12268,35.46091,360.8999],[37.10965,35.45437,387.1915],[37.10392,35.44954,407.6238],[37.0988,35.44226,391.6052],[37.07953,35.40797,445.4551],[37.07689,35.40115,440.0503],[37.07627,35.39691,432.9641],[37.07658,35.39298,425.0024],[37.07782,35.38973,426.0887],[37.08046,35.38719,433.0639],[37.08371,35.38518,444.8894],[37.0879,35.38391,448.9256],[37.09275,35.38337,451.434],[37.09741,35.38368,436.2468],[37.10144,35.38466,419.9325],[37.105,35.38632,399.3392],[37.10779,35.38869,395.9618],[37.10996,35.39148,389.5478],[37.11585,35.4012,380.9709],[37.11849,35.40394,385.8315],[37.12112,35.40631,372.127],[37.12423,35.40817,360.0743],[37.1281,35.4089,348.1109],[37.13229,35.40817,369.7333],[37.13554,35.40647,356.4008],[37.13833,35.40414,358.2284],[37.14019,35.4013,377.257],[37.14143,35.39799,414.239],[37.14267,35.3905,414.032],[37.14205,35.34885,387.7278],[37.1405,35.34601,380.0328],[37.1374,35.34585,380.0386],[37.13353,35.34702,378.9547],[37.12888,35.34797,377.6616],[37.12438,35.34844,375.8163],[37.12035,35.34779,377.7871],[37.11663,35.34652,374.0812],[37.11337,35.34469,375.1017],[37.11027,35.34265,374.8439],[37.10454,35.33673,379.3285],[37.09632,35.32523,383.5],[37.09317,35.3227,381.8354],[37.08903,35.32079,380.782],[37.08325,35.31908,380.2198],[37.07813,35.31836,381.0331],[37.0572,35.31908,413.6624],[37.03467,35.31686,474.9545],[37.02506,35.31684,458.9836],[37.02041,35.31764,448.8485],[37.01622,35.31898,432.8279],[37.0125,35.32087,432.6507],[37.00956,35.32317,435.5025],[37.00769,35.32601,432.0048],[37.00661,35.32937,429.5541],[37.00645,35.34162,412.0753],[37.00599,35.34549,407.3594],[37.00242,35.35955,419.1063],[37.00211,35.36332,421.4526],[37.00227,35.3673,414.7399],[37.00335,35.37115,419.69],[37.01297,35.38771,384.8848],[37.01421,35.39166,376.6338],[37.01483,35.39582,374.4589],[37.01498,35.39993,384.6306],[37.01421,35.40755,373.1626],[37.01343,35.41128,381.1078],[37.01204,35.41456,379.4126],[37.01033,35.41753,368.932],[37.00832,35.42037,364.5053],[37.00583,35.42298,365.2814],[37.00258,35.425,360.4447],[36.99762,35.4259,364.1138],[36.99436,35.4245,363.5228],[36.99157,35.42192,367.3228],[36.98336,35.40952,371.4322],[36.97979,35.40585,371.3112],[36.95803,35.38823,392.9853],[36.94052,35.36614,407.9652],[36.93447,35.36273,397.7635],[36.92765,35.36071,394.0056],[36.92036,35.36025,387.7267],[36.91023,35.35867,409.375],[36.90403,35.35841,418.9495],[36.89985,35.35986,410.4496],[36.89752,35.36242,418.6382],[36.89566,35.36528,402.3651],[36.89302,35.36774,390.0978],[36.88233,35.37324,392.9595],[36.87907,35.37526,394.4593],[36.87644,35.37758,393.0238],[36.87241,35.38332,393.0126],[36.87086,35.38655,386.4703],[36.86693,35.39228,384.1491],[36.83701,35.41432,362.1647],[36.83329,35.41587,360.5034],[36.82895,35.41704,352.1794],[36.82445,35.41727,346.4121],[36.8198,35.41704,342.1923],[36.69939,35.39009,385.4517],[36.64787,35.39159,342.6857],[36.58111,35.40668,308.9868],[36.57118,35.40776,316.0729],[36.55196,35.40673,298.6376],[36.54188,35.40735,284.4183],[36.53708,35.40817,277.631],[36.53289,35.40962,277.944],[36.52958,35.41174,283.3022],[36.5271,35.41417,284.5403],[36.52509,35.41704,285.256],[36.52338,35.41998,280.4802],[36.52075,35.42639,269.8975],[36.51734,35.43246,270.8572],[36.5147,35.43494,279.9812],[36.51145,35.43691,286.6091],[36.49377,35.44412,302.1061],[36.48711,35.446,291.9377],[36.48246,35.44551,286.1915],[36.44768,35.43158,278.8296],[36.42613,35.4366,284.4998],[36.41962,35.44259,280.0608],[36.41466,35.46001,307.1471],[36.3929,35.50013,520.4962],[36.3929,35.5006,476.5778],[36.39383,35.50367,445.1876],[36.39585,35.5059,448.1149],[36.39802,35.50987,458.9337],[36.39972,35.5152,464.6637],[36.39135,35.58269,195.4667],[36.39337,35.60046,233.7533],[36.40747,35.65452,435.7408],[36.41383,35.69839,207.5],[36.41228,35.71121,221.3317],[36.40515,35.71482,235.3793],[36.36153,35.71591,177.9805],[36.34789,35.71947,169.6989],[36.34603,35.72247,169.1756],[36.34479,35.72573,168.938],[36.34386,35.72916,169.073],[36.34184,35.73327,169.1014],[36.33921,35.73761,169.3666],[36.33363,35.74335,169.0643],[36.32991,35.74578,169.137],[36.32588,35.74709,170.368],[36.32154,35.74709,171.008],[36.31735,35.7464,164.7328],[36.31363,35.74505,172.5539],[36.31006,35.74332,172.7734],[36.29823,35.73999,185.94],[36.28536,35.73901,231.1674]]]}}