{"type":"Feature","properties":{"GID_2":"SYR.14.2_1","GID_0":"SYR","country":"Syria","GID_1":"SYR.14_1","province":"Tartus","NL_NAME_1":"NA","county":"Baniyas","VARNAME_2":"NA","NL_NAME_2":"NA","TYPE_2":"Mantika","ENGTYPE_2":"District","CC_2":"NA","HASC_2":"NA","name":"Baniyas.county"},
"geometry":{"type": "MultiPolygon","coordinates": [[[[36.1727,35.239,910.9153],[36.13,35.2122,658.1146],[36.1044,35.2071,781.6831],[36.0429,35.2071,384.8988],[36.0275,35.2102,199.5782],[35.9998,35.2327,192.5018],[35.9885,35.2348,108.9379],[35.944,35.2354,4.5877],[35.9495,35.2218,0.4669],[35.9493,35.2132,0.0],[35.9527,35.2041,0.0],[35.9531,35.1943,0.0],[35.9507,35.1893,1.069],[35.9457,35.1888,0.0],[35.9432,35.1843,0.0],[35.9315,35.181,0.0],[35.9238,35.1732,1.7385],[35.9271,35.1629,0.0],[35.9274,35.1565,20.5568],[35.9251,35.1554,0.0],[35.9226,35.1504,6.3538],[35.9162,35.1493,0.0],[35.9168,35.1454,1.8574],[35.9126,35.1421,0.0],[35.9115,35.1361,6.2344],[35.9068,35.129,1.6394],[35.9055,35.1204,3.907],[35.9007,35.1182,9.5393],[35.8957,35.119,0.0],[35.8927,35.1093,3.5956],[35.8874,35.1071,0.0],[35.8868,35.0982,0.4335],[35.8909,35.0901,0.0],[35.8921,35.0801,0.0],[35.8849,35.061,1.679],[35.8854,35.0529,0.0],[35.8885,35.0501,0.8145],[35.8901,35.0452,0.0],[35.9188,35.0533,131.2551],[35.9485,35.0676,122.6026],[35.967,35.0738,221.0889],[35.9793,35.083,329.5636],[35.9906,35.084,423.6954],[36.0008,35.0881,130.835],[36.0121,35.0881,350.1177],[36.0295,35.0799,442.081],[36.049,35.0584,342.5502],[36.0644,35.0512,241.6262],[36.0777,35.0481,395.6316],[36.13,35.044,552.793],[36.1618,35.0492,794.7252],[36.1854,35.0492,580.4089],[36.2069,35.0533,683.2529],[36.2192,35.0687,892.6733],[36.2295,35.0851,898.9564],[36.2326,35.1025,1060.1992],[36.2326,35.1435,997.1546],[36.2285,35.1589,980.5473],[36.2172,35.1774,944.0521],[36.1936,35.2061,671.8695],[36.1936,35.2143,735.2025],[36.1996,35.2256,907.618],[36.1854,35.2296,654.054],[36.1727,35.239,910.9153]]]]}}