{"type":"Feature","properties":{"GID_2":"SYR.10.2_1","GID_0":"SYR","country":"Syria","GID_1":"SYR.10_1","province":"Idlib","NL_NAME_1":"NA","county":"Harem","VARNAME_2":"NA","NL_NAME_2":"NA","TYPE_2":"Mantika","ENGTYPE_2":"District","CC_2":"NA","HASC_2":"NA","name":"Harem.county"},
"geometry":{"type": "MultiPolygon","coordinates": [[[[36.669,36.3143,182.364],[36.6711,36.3024,198.6375],[36.6948,36.2969,252.1601],[36.7003,36.2922,254.1515],[36.6991,36.2871,340.0065],[36.6923,36.2764,337.0468],[36.6928,36.2716,366.1776],[36.6958,36.266,349.9292],[36.706,36.2552,478.2561],[36.7007,36.2443,513.6249],[36.6842,36.2373,421.3891],[36.6749,36.2293,415.2628],[36.6406,36.2292,318.8383],[36.6274,36.2177,264.836],[36.6184,36.2166,241.47],[36.6093,36.2175,243.3973],[36.5839,36.2321,192.1818],[36.5782,36.2324,202.8499],[36.5574,36.2281,434.131],[36.5426,36.2381,271.0181],[36.5228,36.2381,125.2354],[36.5095,36.23,101.5648],[36.4954,36.2345,92.5804],[36.4924,36.2328,92.6396],[36.4892,36.2187,105.1939],[36.4817,36.2055,119.6891],[36.4773,36.2029,126.3426],[36.4711,36.2018,159.0377],[36.4575,36.2084,121.6406],[36.4353,36.2113,89.0687],[36.4267,36.2145,86.7178],[36.4128,36.2231,86.6795],[36.4034,36.2264,86.8373],[36.3975,36.2232,87.6106],[36.3976,36.2127,88.1078],[36.4031,36.1996,89.664],[36.4006,36.1915,92.4956],[36.3987,36.1898,91.0271],[36.3888,36.1885,90.628],[36.3817,36.1807,110.9795],[36.3767,36.1694,102.0369],[36.3883,36.1515,129.187],[36.392,36.1426,118.9163],[36.3812,36.1188,94.6366],[36.3852,36.1078,95.8111],[36.386,36.0994,95.0244],[36.3887,36.0948,98.0678],[36.3942,36.0906,100.8765],[36.3978,36.0838,157.1425],[36.3887,36.0682,148.1532],[36.3941,36.0539,189.2749],[36.4115,36.0519,229.2282],[36.43,36.0422,272.4637],[36.4687,36.0087,236.3942],[36.4801,35.9947,227.1098],[36.4793,35.9841,224.3287],[36.4713,35.9647,220.2832],[36.4722,35.9577,218.8389],[36.4793,35.9515,217.3488],[36.4977,35.9542,230.4186],[36.5356,35.9559,229.7679],[36.5488,35.9603,265.4174],[36.5629,35.9577,349.4093],[36.5717,35.9586,405.5083],[36.5778,35.9674,370.8466],[36.5787,35.9788,356.1775],[36.5655,35.9999,290.7391],[36.562,36.0413,319.4512],[36.5655,36.0554,409.6797],[36.5761,36.0651,390.1825],[36.635,36.0774,316.3533],[36.6491,36.0853,364.4204],[36.665,36.0976,334.0419],[36.6746,36.1011,332.1339],[36.6746,36.1091,353.5921],[36.6711,36.1214,419.6525],[36.6773,36.1355,441.6861],[36.6896,36.139,410.3898],[36.7019,36.1381,367.6983],[36.7125,36.132,340.0304],[36.723,36.1284,342.9472],[36.7354,36.1284,317.9273],[36.7406,36.1311,319.414],[36.7433,36.1408,336.9288],[36.7503,36.1478,353.4934],[36.7706,36.1584,366.526],[36.7864,36.1645,353.4139],[36.7926,36.1724,394.7479],[36.7926,36.2006,406.149],[36.8014,36.2068,419.0385],[36.8075,36.2059,453.2986],[36.8155,36.2015,452.0331],[36.8278,36.1997,443.9196],[36.8375,36.1997,418.4585],[36.8471,36.2059,389.6169],[36.8515,36.2226,393.9115],[36.8507,36.2314,427.6258],[36.8137,36.2578,433.2917],[36.7943,36.2666,430.5345],[36.7547,36.2983,450.9608],[36.7359,36.3192,413.4255],[36.7231,36.3136,357.6284],[36.7117,36.3183,308.9344],[36.6993,36.3183,271.8302],[36.6899,36.3157,233.4649],[36.669,36.3143,182.364]]]]}}