{"type":"Feature","properties":{"GID_2":"SYR.11.4_1","GID_0":"SYR","country":"Syria","GID_1":"SYR.11_1","province":"Lattakia","NL_NAME_1":"NA","county":"Qardaha","VARNAME_2":"NA","NL_NAME_2":"NA","TYPE_2":"Mantika","ENGTYPE_2":"District","CC_2":"NA","HASC_2":"NA","name":"Qardaha.county"},
"geometry":{"type": "MultiPolygon","coordinates": [[[[36.1765,35.444,947.4082],[36.169,35.444,843.4911],[36.1382,35.4634,935.4857],[36.1208,35.4706,554.4976],[36.0705,35.4788,378.4606],[36.0521,35.484,378.3867],[36.0182,35.485,310.7676],[35.9752,35.4922,137.654],[35.9536,35.5055,70.7439],[35.9267,35.5292,53.6951],[35.9198,35.5157,135.0831],[35.9106,35.5034,85.169],[35.9054,35.4922,56.2309],[35.8757,35.4911,30.9926],[35.8665,35.485,36.844],[35.8539,35.4732,0.931],[35.8777,35.4568,1.1377],[35.9013,35.4357,5.1603],[35.9068,35.4271,1.7816],[35.9124,35.4218,0.7859],[35.9151,35.4161,11.5256],[35.9208,35.4142,7.9684],[35.9413,35.4132,42.5907],[35.9608,35.4019,52.2246],[36.0018,35.366,122.9429],[36.0203,35.3589,138.5351],[36.0839,35.3424,337.3801],[36.1105,35.3271,458.1552],[36.1874,35.2758,1232.3698],[36.1967,35.2789,1097.8748],[36.2028,35.2922,1151.9012],[36.2049,35.3086,1337.0532],[36.2049,35.3291,1330.7712],[36.1997,35.3732,1227.989],[36.1915,35.3845,1175.2815],[36.1864,35.4081,1119.4304],[36.1803,35.4204,1102.9996],[36.1803,35.4358,1062.2345],[36.1765,35.444,947.4082]]]]}}