{"type":"Feature","properties":{"GID_2":"SYR.4.3_1","GID_0":"SYR","country":"Syria","GID_1":"SYR.4_1","province":"AsSuwayda'","NL_NAME_1":"NA","county":"Shahba","VARNAME_2":"NA","NL_NAME_2":"NA","TYPE_2":"Mantika","ENGTYPE_2":"District","CC_2":"NA","HASC_2":"NA","name":"Shahba.county"},
"geometry":{"type": "MultiPolygon","coordinates": [[[[37.1165,33.0209,600.7518],[37.1059,33.0323,599.9364],[37.0848,33.0347,598.4524],[37.04,33.0335,630.569],[37.0276,33.0347,646.6664],[37.0189,33.0385,637.248],[37.0176,33.0671,612.1273],[37.0127,33.0919,606.9756],[37.004,33.1106,621.1214],[36.9828,33.1292,625.7622],[36.953,33.1653,639.4032],[36.9219,33.1976,628.3696],[36.9033,33.22,628.9319],[36.8772,33.2274,616.9926],[36.7578,33.205,651.0876],[36.6932,33.1976,656.7],[36.5776,33.1802,675.7578],[36.5428,33.169,645.6296],[36.5229,33.1516,642.1065],[36.5105,33.1342,650.8351],[36.5105,33.0758,699.2383],[36.5217,33.0621,707.551],[36.5391,33.0546,713.756],[36.5801,33.0434,753.0604],[36.595,33.0323,761.4583],[36.5962,33.0198,787.4473],[36.5888,33.0037,772.9415],[36.5689,32.9912,775.1241],[36.5428,32.9912,769.2134],[36.5154,32.9863,764.9276],[36.4545,32.985,720.8429],[36.4409,32.9825,714.7462],[36.4259,32.9676,703.0374],[36.4094,32.9594,693.944],[36.4172,32.9428,716.1016],[36.4185,32.9365,716.5017],[36.4396,32.9365,736.174],[36.4757,32.9291,756.3068],[36.5515,32.8968,869.9427],[36.5701,32.8905,887.8576],[36.595,32.9055,867.6033],[36.6062,32.9055,874.5912],[36.6174,32.9005,915.4644],[36.6484,32.8769,1066.9156],[36.6982,32.8794,1170.3403],[36.7255,32.8682,1193.4609],[36.7616,32.862,1200.0248],[36.8001,32.8607,1143.7472],[36.8374,32.8657,984.4081],[36.9033,32.8918,876.7938],[36.9269,32.9129,841.7426],[36.9604,32.9353,799.6934],[37.0487,32.985,671.5995],[37.0748,33.0024,631.9069],[37.1165,33.0209,600.7518]]]]}}