{"type":"Feature","properties":{"GID_2":"SYR.3.3_1","GID_0":"SYR","country":"Syria","GID_1":"SYR.3_1","province":"ArRaqqah","NL_NAME_1":"NA","county":"TalAbyad","VARNAME_2":"NA","NL_NAME_2":"NA","TYPE_2":"Mantika","ENGTYPE_2":"District","CC_2":"NA","HASC_2":"NA","name":"Tal_Abyad.county"},
"geometry":{"type": "MultiPolygon","coordinates": [[[[39.4504,36.699,411.9393],[39.4392,36.6953,410.2491],[39.398,36.6944,404.6183],[39.3448,36.6896,402.7695],[39.2759,36.6737,381.7105],[39.2273,36.665,382.2741],[39.2155,36.666,376.1811],[39.1503,36.6834,397.9871],[39.0855,36.6971,362.3145],[39.0202,36.7033,353.9942],[38.999,36.7029,346.316],[38.9697,36.6989,347.0121],[38.9183,36.6976,352.2556],[38.8471,36.6967,356.2888],[38.7774,36.6993,368.9728],[38.7315,36.7075,377.5165],[38.7236,36.7104,379.9689],[38.697,36.7284,387.9534],[38.635,36.7779,423.6219],[38.6284,36.7594,452.5297],[38.6284,36.7407,425.6309],[38.637,36.7221,505.6422],[38.6499,36.7006,420.6555],[38.6499,36.6633,414.9455],[38.6428,36.649,429.386],[38.6342,36.6433,452.8295],[38.617,36.639,467.4611],[38.6012,36.6318,495.4213],[38.5969,36.6203,489.471],[38.5998,36.6074,446.9761],[38.6069,36.6017,431.9062],[38.6227,36.6003,417.8715],[38.6686,36.6003,384.1306],[38.6772,36.596,383.1426],[38.6843,36.5845,387.1238],[38.6843,36.5487,397.8675],[38.6786,36.4942,428.3387],[38.6671,36.4742,399.403],[38.66,36.4426,366.9704],[38.6485,36.4154,373.7687],[38.6227,36.3753,435.4044],[38.6227,36.3724,425.2457],[38.6313,36.3724,424.7381],[38.637,36.3681,400.136],[38.6585,36.3581,386.3496],[38.6729,36.3595,388.2827],[38.6829,36.3681,363.9161],[38.6929,36.371,352.7066],[38.7015,36.3652,349.941],[38.7245,36.3638,340.472],[38.7374,36.3595,347.1622],[38.756,36.3437,353.6327],[38.7646,36.3237,350.9337],[38.7746,36.3179,345.3815],[38.8076,36.3136,325.2039],[38.819,36.3194,341.0289],[38.842,36.3394,344.2649],[39.0612,36.3409,295.5032],[39.1214,36.3222,323.763],[39.1329,36.3222,328.4039],[39.1487,36.3251,332.1417],[39.1945,36.348,350.7347],[39.2017,36.3609,347.5158],[39.2447,36.3609,366.5663],[39.3163,36.3566,406.1879],[39.3321,36.3495,406.8431],[39.3436,36.3194,438.8672],[39.3765,36.3136,424.9732],[39.4224,36.3151,444.8727],[39.4267,36.3093,428.6928],[39.4281,36.2964,429.0909],[39.441,36.2907,445.0701],[39.4955,36.2807,435.8687],[39.5729,36.2535,453.7686],[39.6044,36.2377,458.6044],[39.6431,36.2148,438.5201],[39.6531,36.2062,434.5438],[39.6574,36.1861,436.7977],[39.6703,36.1847,433.6557],[39.7119,36.1732,424.8],[39.7377,36.1847,431.0628],[39.7549,36.2262,483.0365],[39.7635,36.2592,477.0542],[39.7807,36.3108,490.6146],[39.795,36.3638,475.3973],[39.8036,36.4254,467.9453],[39.8154,36.4402,468.8876],[39.813,36.4418,466.8285],[39.8099,36.4713,464.9871],[39.8006,36.4837,459.8551],[39.7851,36.4899,440.3318],[39.7401,36.5023,416.583],[39.7214,36.5194,407.2545],[39.6966,36.5272,397.6788],[39.6267,36.5272,379.3453],[39.5833,36.5318,372.7008],[39.546,36.5334,366.6186],[39.5227,36.538,359.9303],[39.5119,36.5473,362.5812],[39.4761,36.5862,374.0686],[39.4606,36.6079,377.543],[39.4482,36.6312,389.9816],[39.4435,36.6514,391.1997],[39.4435,36.6824,406.7283],[39.4504,36.699,411.9393]]]]}}