{"type":"Feature","properties":{"GID_2":"SYR.14.3_1","GID_0":"SYR","country":"Syria","GID_1":"SYR.14_1","province":"Tartus","NL_NAME_1":"NA","county":"Duraykish","VARNAME_2":"NA","NL_NAME_2":"NA","TYPE_2":"Mantika","ENGTYPE_2":"District","CC_2":"NA","HASC_2":"NA","name":"Duraykish.county"},
"geometry":{"type": "MultiPolygon","coordinates": [[[[36.1907,35.0036,591.9313],[36.1782,35.0,568.4936],[36.1639,34.9907,448.666],[36.1464,34.9907,535.9534],[36.1249,34.9856,515.7027],[36.1044,34.9764,506.9907],[36.0449,34.9774,517.1102],[36.0286,34.9825,380.4683],[36.0264,34.9712,361.2079],[36.0275,34.9538,333.1082],[36.0223,34.9477,231.0493],[36.0172,34.9333,249.7637],[35.9936,34.9138,348.0647],[35.9916,34.9025,247.9353],[35.9998,34.8913,177.9729],[36.0121,34.8892,330.1556],[36.1003,34.8913,286.3475],[36.1177,34.9005,317.2824],[36.2274,34.9005,653.3075],[36.2469,34.8974,646.1985],[36.2613,34.8923,672.1477],[36.2869,34.8779,822.5342],[36.2972,34.8779,802.6039],[36.3033,34.8882,830.8657],[36.3033,34.9077,930.4401],[36.3049,34.9147,911.6838],[36.2951,34.9159,867.8945],[36.2746,34.9282,939.1235],[36.2602,34.9333,929.4119],[36.2161,34.9569,624.139],[36.2049,34.9743,855.1148],[36.1907,35.0036,591.9313]]]]}}