{"type":"Feature","properties":{"GID_1":"SYR.1_1","GID_0":"SYR","country":"Syria","province":"AlḤasakah","VARNAME_1":"Al-Haska|AlHassake|ElHaseke|Ha","NL_NAME_1":"NA","TYPE_1":"Muḥāfaẓah","ENGTYPE_1":"Governorate","CC_1":"NA","HASC_1":"SY.HA","ISO_1":"NA","name":"Al_Ḥasakah.province"},
"geometry":{"type": "MultiPolygon","coordinates": [[[[41.2765,36.1586,368.2055],[41.2918,36.2636,454.6717],[41.2945,36.3562,589.8615],[41.4039,36.5125,395.1095],[41.4137,36.5205,382.1721],[41.423,36.5247,382.4725],[41.7068,36.5675,402.4136],[41.8283,36.5932,379.2743],[41.8649,36.6188,370.9742],[41.8817,36.6234,370.5068],[41.904,36.6462,368.5302],[41.9385,36.6703,375.019],[41.9908,36.723,374.0772],[42.0344,36.7638,385.3893],[42.0924,36.8143,391.6592],[42.1348,36.8577,418.4918],[42.1769,36.8904,449.9749],[42.2492,36.9577,451.9008],[42.3847,37.0672,360.3941],[42.385,37.0741,404.0766],[42.3811,37.082,404.1719],[42.3736,37.0868,350.6526],[42.366,37.0891,369.1694],[42.3622,37.095,359.0817],[42.3637,37.1093,338.6778],[42.3628,37.1269,341.1723],[42.36,37.1352,377.0893],[42.3494,37.1483,346.6935],[42.3371,37.1749,346.4636],[42.3353,37.1857,348.4503],[42.3402,37.1996,361.7968],[42.3552,37.2106,360.401],[42.3587,37.2181,352.8373],[42.3574,37.2275,386.8593],[42.3498,37.2365,414.563],[42.3351,37.2403,356.9771],[42.3275,37.2451,365.6512],[42.3211,37.2568,407.515],[42.3073,37.2613,353.9674],[42.3032,37.2651,359.4638],[42.3001,37.2746,417.3378],[42.295,37.2809,482.823],[42.2756,37.2711,374.4026],[42.267,37.2718,384.446],[42.2559,37.2788,367.4932],[42.2473,37.2804,356.1273],[42.235,37.2805,358.8217],[42.2271,37.2766,366.353],[42.2208,37.2775,357.0501],[42.2181,37.2805,366.2106],[42.2188,37.284,365.8875],[42.2286,37.2984,423.2805],[42.2349,37.3157,438.821],[42.2249,37.3191,375.3323],[42.2165,37.3152,364.6884],[42.2078,37.3002,363.3661],[42.1939,37.2822,462.2698],[42.1839,37.2751,474.0313],[42.1538,37.2598,475.0105],[42.1392,37.2494,481.5098],[42.1224,37.2354,481.5253],[42.1128,37.2191,494.8857],[42.1061,37.2129,504.7414],[42.0793,37.2016,542.0874],[42.0573,37.1889,564.0518],[42.0163,37.1774,568.6058],[41.9751,37.1596,603.1892],[41.7586,37.1175,574.5923],[41.7284,37.1135,547.2296],[41.6869,37.1145,537.1781],[41.6574,37.1124,534.2224],[41.6265,37.1051,503.0327],[41.5897,37.0924,480.233],[41.5581,37.0852,461.0148],[41.5009,37.0795,436.1231],[41.286,37.0801,454.987],[41.2711,37.0792,463.688],[41.2575,37.075,455.7238],[41.2488,37.0691,455.3019],[41.2368,37.0649,458.819],[41.2184,37.0636,457.4099],[41.2119,37.067,469.3504],[41.2077,37.0765,481.6481],[41.2044,37.0793,479.1792],[41.1697,37.0922,482.3933],[41.1324,37.0931,500.226],[41.1145,37.0951,495.8967],[41.0595,37.1054,500.1487],[41.0324,37.1074,484.274],[41.0005,37.112,477.8549],[40.9724,37.1174,483.7137],[40.95,37.1244,487.3498],[40.9211,37.1271,483.394],[40.8859,37.1243,487.046],[40.8705,37.118,483.4733],[40.8581,37.1084,473.3958],[40.8505,37.1066,468.893],[40.8341,37.1094,491.9637],[40.8282,37.1161,497.0948],[40.8225,37.1197,494.1361],[40.7817,37.1206,501.0972],[40.7527,37.1059,498.7675],[40.7406,37.1024,492.6214],[40.7208,37.1011,491.1506],[40.7078,37.0977,499.8391],[40.6884,37.0876,490.3229],[40.6748,37.0784,487.907],[40.6352,37.0629,471.0393],[40.6022,37.0541,474.3512],[40.5824,37.0412,486.7491],[40.5463,37.0267,472.1411],[40.5326,37.0238,462.7578],[40.4618,37.0149,438.866],[40.4381,37.0088,428.335],[40.4191,36.9992,407.262],[40.3975,36.9813,402.0872],[40.386,36.9747,402.2865],[40.3696,36.9674,395.4304],[40.3259,36.952,405.8755],[40.2784,36.9261,379.3016],[40.2602,36.92,368.9903],[40.2383,36.9032,354.3448],[40.208,36.8878,391.8504],[40.1809,36.8787,386.9088],[40.1327,36.8718,356.4197],[40.087,36.8607,364.6718],[40.0801,36.8565,360.5463],[40.0728,36.8491,355.911],[40.0519,36.8361,352.7125],[40.0158,36.824,354.3087],[39.9632,36.7984,375.4106],[39.9291,36.787,377.3576],[39.8905,36.7771,393.1517],[39.856,36.7605,424.0466],[39.8418,36.7553,427.6898],[39.8073,36.7495,432.4945],[39.7227,36.7438,437.7241],[39.712,36.7416,437.3523],[39.6648,36.7258,411.2558],[39.5966,36.7196,417.7653],[39.5457,36.7078,404.8825],[39.4983,36.7013,399.0001],[39.4671,36.6979,412.8849],[39.4526,36.6997,410.8567],[39.4504,36.699,411.9393],[39.4435,36.6824,406.7283],[39.4435,36.6514,391.1997],[39.4482,36.6312,389.9816],[39.4606,36.6079,377.543],[39.4761,36.5862,374.0686],[39.5119,36.5473,362.5812],[39.5227,36.538,359.9303],[39.546,36.5334,366.6186],[39.5833,36.5318,372.7008],[39.6267,36.5272,379.3453],[39.6966,36.5272,397.6788],[39.7214,36.5194,407.2545],[39.7401,36.5023,416.583],[39.7851,36.4899,440.3318],[39.8006,36.4837,459.8551],[39.8099,36.4713,464.9871],[39.813,36.4418,466.8285],[39.8224,36.4356,475.2321],[39.8394,36.4325,488.8057],[39.8689,36.4216,502.2849],[39.8736,36.4169,505.4472],[39.8736,36.3719,517.2336],[39.8767,36.361,520.7318],[39.8845,36.3517,512.1161],[39.886,36.3409,511.5935],[39.8969,36.3315,521.5671],[39.9054,36.3298,532.4458],[39.9016,36.2854,520.9407],[39.9165,36.251,538.7998],[39.9405,36.2166,541.3514],[40.0152,36.1598,414.3027],[40.09,36.0999,374.1082],[40.1752,36.0282,334.1227],[40.1962,36.0147,327.1086],[40.1992,35.9997,322.36],[40.3173,35.9055,308.7982],[40.3727,35.8711,315.8316],[40.4175,35.8382,309.3872],[40.4654,35.7993,300.1553],[40.4998,35.7814,296.8952],[40.5297,35.7605,272.1934],[40.6389,35.6752,263.9128],[40.6867,35.6348,239.951],[40.7376,35.596,233.7959],[40.7585,35.578,241.5124],[40.8348,35.572,248.5171],[40.8991,35.5735,257.6478],[40.9245,35.566,257.6413],[40.9604,35.5526,266.5891],[41.0247,35.5331,263.6064],[41.0815,35.5287,238.3299],[41.1249,35.5197,208.7897],[41.1488,35.5302,224.5584],[41.1832,35.5421,203.075],[41.237,35.5436,202.3047],[41.3214,35.5363,228.8177],[41.3943,35.6303,229.8557],[41.3811,35.8353,309.3078],[41.258,36.0546,321.4246],[41.2669,36.092,334.518],[41.2765,36.1586,368.2055]]]]}}