{"type":"Feature","properties":{"featurecla":"River","scalerank":4,"rivernum":120,"dissolve":"120River","name":"Dicle2","name_alt":null,"note":null,"min_zoom":4.0,"strokeweig":0.25,"name_en":"Dicle","min_label":5.0},
"geometry":{"type": "LineString","coordinates": [[40.968652343750023,37.80048248905662,512.0832],[41.003515625,37.78742096561912,513.6117],[41.02099609375,37.775165106244117,505.7548],[41.034765625,37.77167389530662,591.1292],[41.049707031250023,37.77374909061912,530.6265],[41.079492187500023,37.78143952030662,501.3593],[41.088476562500006,37.78143952030662,520.0643],[41.093847656250006,37.77912018436912,564.1693],[41.10546875,37.770038153119117,553.798],[41.111523437500011,37.76740143436912,495.413],[41.1171875,37.766131903119117,600.1319],[41.140722656250006,37.76471588749412,551.1586],[41.1640625,37.76740143436912,716.194],[41.175390625,37.76715729374412,755.1234],[41.18701171875,37.76276276249412,699.264],[41.20703125,37.747577215619117,636.8293],[41.217480468750011,37.742938543744117,606.6429],[41.22314453125,37.742938543744117,670.9684],[41.226757812500011,37.74469635624412,666.9152],[41.230224609375,37.74725983280662,622.9014],[41.23486328125,37.749530340619117,726.5449],[41.23974609375,37.75079987186912,823.37],[41.2431640625,37.750995184369117,802.4178],[41.285742187500006,37.73981354374412,517.4529],[41.296972656250006,37.73883698124412,533.5439],[41.301855468750006,37.73981354374412,548.2531],[41.31103515625,37.74433014530662,779.679],[41.315527343750006,37.74567291874412,740.988],[41.320898437500006,37.74567291874412,713.2571],[41.373779296875,37.736590887494117,607.2008],[41.50341796875,37.74384186405662,900.3536],[41.547265625000023,37.74066803593162,831.0956],[41.561914062500023,37.74323151249412,708.3774],[41.6123046875,37.763202215619117,495.377],[41.662207031250006,37.77081940311912,555.5705],[41.672949218750006,37.76959869999412,586.9465],[41.683203125,37.76569244999412,572.7701],[41.702539062500023,37.754169012494117,620.6203],[41.712646484375,37.749530340619117,614.6711],[41.730224609375,37.74884674686912,651.0504],[41.74755859375,37.75324127811912,554.5177],[41.764257812500006,37.75531647343162,600.6868],[41.780371093750006,37.74750397343162,579.5574],[41.7861328125,37.740497137494117,478.0522],[41.816015625,37.686151434369116,438.8384],[41.826074218750023,37.638690496869117,494.32619999999997],[41.833105468750006,37.62604401249412,430.6305],[41.843164062500023,37.61786530155662,476.4758],[41.851318359375,37.61298248905662,504.1866],[41.857324218750023,37.60626862186912,561.4855],[41.860449218750006,37.59284088749412,674.6473],[41.861523437500011,37.56976959843162,759.3171],[41.85986328125,37.55902741093162,503.0335],[41.832763671875,37.49701569218162,582.6034],[41.827539062500023,37.469842840619116,818.197],[41.833886718750023,37.443866278119117,811.8553],[41.849609375,37.426629949994116,733.4665],[41.86962890625,37.41950104374412,536.0327],[41.8916015625,37.41962311405662,756.5482],[41.929296875,37.42755768436912,689.4661],[42.015039062500023,37.43329498905662,458.9388],[42.027734375000023,37.431756903119116,454.0829],[42.043701171875,37.42548248905662,497.9529],[42.089257812500023,37.39826080936912,415.3751],[42.123242187500011,37.38458893436912,370.0],[42.128173828125,37.38410065311912,371.1285],[42.139404296875,37.38556549686912,374.9486],[42.143798828125,37.38458893436912,396.7258],[42.148339843750023,37.379901434369117,381.5521],[42.158105468750023,37.363544012494117,371.1085],[42.184960937500023,37.353876043744116,394.8242],[42.192285156250023,37.349872137494117,378.4912],[42.196875,37.34418366093162,371.6996],[42.206298828125,37.32916901249412,371.3223],[42.222070312500023,37.314227606244117,363.4521],[42.223242187500006,37.302606512494116,394.9257],[42.2216796875,37.29266998905662,393.7795],[42.22265625,37.28839752811912,392.7386],[42.236328125,37.28656647343162,416.2564],[42.266699218750006,37.27472565311912,358.5863],[42.272216796875,37.276971746869116,353.4658],[42.27880859375,37.28253815311912,358.7129],[42.285253906250006,37.286737371869116,399.0659],[42.291601562500006,37.28534577030662,471.2402],[42.2958984375,37.27997467655662,470.4923],[42.300878906250006,37.27020905155662,380.7115],[42.30517578125,37.26483795780662,360.6123],[42.339453125,37.24286530155662,417.5441],[42.34619140625,37.240008856244117,387.4729],[42.352636718750006,37.227313543744117,380.4541],[42.334863281250023,37.17145416874412,345.3771],[42.34619140625,37.158710028119117,355.9984],[42.35400390625,37.152606512494117,352.3737],[42.35595703125,37.13849518436912,347.556],[42.356640625000011,37.11029694218162,339.6442],[42.363183593750023,37.098407293744117,364.35],[42.37060546875,37.08820221561912,344.5108],[42.376220703125,37.07697174686912,337.2601],[42.3765625,37.062518621869117,345.0117]]}}