{"type":"Feature","properties":{"ISO3166-1-Alpha-3":"SYR","country":"Syria","fill":"#000","id":"141","name":"Hasaka (Al Haksa)"},
"geometry":{"type": "Polygon","coordinates": [[[42.26722,37.27452,354.6478],[42.23683,37.2863,416.2564],[42.22319,37.28814,392.7386],[42.22216,37.2924,410.519],[42.22381,37.30238,394.9257],[42.22257,37.31395,363.4521],[42.2112,37.32491,364.9919],[42.19301,37.31323,391.1035],[42.17854,37.3063,483.5615],[42.12831,37.25328,490.8354],[42.05297,37.19665,572.1749],[42.00925,37.17561,567.7015],[41.89637,37.15428,632.6261],[41.47977,37.07557,436.4084],[41.20134,37.06497,461.9156],[41.17974,37.06962,464.0447],[41.13509,37.08425,480.2662],[40.89645,37.1227,486.2524],[40.70897,37.10048,500.5705],[40.65946,37.08526,476.6624],[40.52572,37.02588,459.6926],[40.47983,37.01516,451.9062],[40.45699,37.01412,436.0606],[40.43519,37.01061,425.0742],[40.41389,37.00402,413.4404],[40.39374,36.99402,403.6675],[40.26141,36.92278,369.0369],[40.19014,36.88442,388.7262],[40.15272,36.87036,367.1443],[40.1152,36.86473,370.4538],[40.07924,36.85486,359.3825],[39.97981,36.80695,365.8872],[39.76525,36.74215,432.3801],[39.44171,36.69237,409.1461],[39.46517,36.63601,386.5341],[39.474,36.61947,382.4705],[39.52475,36.56676,368.0748],[39.53824,36.55712,363.869],[39.54676,36.55389,364.324],[39.557,36.55188,365.0786],[39.56759,36.55121,367.0069],[39.58588,36.55291,369.3696],[39.59426,36.55467,370.4368],[39.60991,36.55963,372.507],[39.61415,36.56051,373.0416],[39.61849,36.56097,373.8763],[39.62345,36.56074,375.7838],[39.62826,36.55994,378.1389],[39.72024,36.52909,404.3684],[39.78251,36.50082,432.2054],[39.79336,36.49183,446.2168],[39.79988,36.48356,459.8551],[39.80143,36.48046,460.3981],[39.80267,36.47656,460.4382],[39.80453,36.46367,459.8961],[39.82608,36.42439,479.4268],[39.90075,36.32429,526.5637],[40.02581,36.22117,509.6217],[40.77496,35.6263,231.6153],[40.80695,35.61085,240.9471],[40.82539,35.60408,247.6866],[40.88715,35.59305,254.9059],[40.92301,35.58214,261.9275],[40.99949,35.56925,264.4313],[41.19597,35.56527,213.1627],[41.308,35.5523,214.6924],[41.30846,35.55225,214.369],[41.34221,35.59369,227.0153],[41.35802,35.62392,219.8489],[41.3635,35.65524,220.3821],[41.35926,35.79275,284.5075],[41.35451,35.82557,305.9859],[41.34366,35.85766,323.3417],[41.26635,35.99424,308.9719],[41.26635,35.99434,308.9719],[41.26625,35.99429,308.9719],[41.24061,36.04302,315.8386],[41.23669,36.06033,320.8206],[41.23658,36.07702,328.1185],[41.26883,36.32796,588.0597],[41.27699,36.35478,597.0869],[41.36526,36.4939,415.1189],[41.36526,36.494,415.1189],[41.36536,36.49405,415.1189],[41.36536,36.49416,415.1189],[41.38541,36.51638,389.0594],[41.41487,36.52738,379.6683],[41.47977,36.53612,389.1689],[41.78993,36.58929,385.7066],[41.81732,36.59973,377.3433],[41.84378,36.61787,370.6523],[41.97855,36.73362,372.9268],[42.17844,36.90532,469.3353],[42.28158,36.99397,475.9854],[42.28189,36.99397,475.9854],[42.28189,36.99402,475.9854],[42.28189,36.99413,475.9854],[42.34587,37.04291,386.2891],[42.37681,37.062,344.9218],[42.37719,37.06224,345.0117],[42.37688,37.07676,337.2601],[42.37119,37.08794,344.5108],[42.36365,37.09815,364.35],[42.35724,37.10998,339.6442],[42.35651,37.13828,347.556],[42.35455,37.15241,352.3737],[42.3467,37.15843,355.9984],[42.33533,37.17117,345.459],[42.35321,37.22703,373.8878],[42.3467,37.23977,387.4729],[42.33988,37.24264,417.5441],[42.30577,37.26455,360.6123],[42.30143,37.26992,380.7115],[42.29636,37.27969,470.4923],[42.29202,37.28506,483.0117],[42.28582,37.28656,397.9646],[42.27921,37.28227,358.7129],[42.2729,37.27674,353.4658],[42.26722,37.27452,354.6478]]]}}