{"type":"Feature","properties":{"GID_1":"SYR.2_1","GID_0":"SYR","country":"Syria","province":"Aleppo","VARNAME_1":"Aleppo|Alep|Alepo|Haleb|Ḥalab","NL_NAME_1":"NA","TYPE_1":"Muḥāfaẓah","ENGTYPE_1":"Governorate","CC_1":"NA","HASC_1":"SY.HL","ISO_1":"NA","name":"Aleppo.province"},
"geometry":{"type": "MultiPolygon","coordinates": [[[[37.7538,35.4283,407.6184],[37.7717,35.4276,409.9207],[37.7749,35.4213,414.6866],[37.789,35.4119,423.4269],[37.8277,35.4084,443.5352],[37.8477,35.4095,442.4808],[37.8629,35.4154,438.0425],[37.8782,35.4248,433.7559],[37.8958,35.4283,428.0003],[37.9075,35.433,423.2218],[37.9357,35.4295,418.0369],[38.0084,35.426,422.6361],[38.1105,35.426,441.2644],[38.1727,35.4354,403.5984],[38.2114,35.4318,414.557],[38.2312,35.4395,409.9972],[38.2257,35.4442,414.2674],[38.2038,35.4801,406.4232],[38.1756,35.4989,395.7559],[38.1428,35.5083,399.5522],[38.1084,35.5255,390.1887],[38.088,35.5302,390.1432],[38.0708,35.538,391.5159],[38.0708,35.5521,397.3961],[38.0661,35.5615,399.5165],[38.0411,35.5756,413.2097],[38.0317,35.5771,402.0629],[38.0129,35.585,398.7085],[38.0098,35.6006,398.7222],[38.0067,35.6335,386.1569],[38.0098,35.7023,369.2822],[38.0145,35.7305,360.6904],[38.0239,35.7571,358.1342],[38.0786,35.8478,346.9512],[38.099,35.8713,354.0607],[38.124,35.8901,356.1695],[38.149,35.9026,359.921],[38.171,35.9073,358.0786],[38.1882,35.9167,348.3405],[38.1913,35.9323,348.8218],[38.1882,35.9542,299.5],[38.1788,35.9667,299.5],[38.1647,35.973,299.5],[38.1428,35.9886,299.5],[38.1224,36.0059,299.5],[38.0927,36.0356,299.5],[38.063,36.0575,299.5],[38.0473,36.0669,299.5],[38.038,36.081,299.5],[38.1146,36.2093,299.5],[38.1386,36.2358,299.5],[38.1507,36.2334,376.3343],[38.1651,36.2334,348.0067],[38.1808,36.2463,299.5],[38.1937,36.2477,299.5],[38.3428,36.2563,415.0919],[38.3815,36.2735,480.6775],[38.4631,36.2907,428.7357],[38.5176,36.3122,424.9771],[38.5549,36.3194,395.2061],[38.6238,36.3724,424.3936],[38.6227,36.3753,435.4044],[38.6485,36.4154,373.7687],[38.66,36.4426,366.9704],[38.6671,36.4742,399.403],[38.6786,36.4942,428.3387],[38.6843,36.5487,397.8675],[38.6843,36.5845,387.1238],[38.6772,36.596,383.1426],[38.6686,36.6003,384.1306],[38.6227,36.6003,417.8715],[38.6069,36.6017,431.9062],[38.5998,36.6074,446.9761],[38.5969,36.6203,489.471],[38.6012,36.6318,495.4213],[38.617,36.639,467.4611],[38.6342,36.6433,452.8295],[38.6428,36.649,429.386],[38.6499,36.6633,414.9455],[38.6499,36.7006,420.6555],[38.637,36.7221,505.6422],[38.6284,36.7407,425.6309],[38.6284,36.7594,452.5297],[38.635,36.7779,423.6219],[38.6229,36.7903,425.6268],[38.6006,36.806,448.6061],[38.591,36.8174,438.3826],[38.5796,36.8238,444.8663],[38.5681,36.836,478.761],[38.5634,36.8388,450.4488],[38.493,36.8627,462.8027],[38.4494,36.8818,470.0699],[38.3985,36.8972,485.3984],[38.3425,36.9004,510.0262],[38.3163,36.9054,523.7817],[38.2956,36.907,534.8881],[38.2652,36.9135,555.5367],[38.2528,36.9135,584.625],[38.2305,36.9059,583.8564],[38.2005,36.908,567.7017],[38.1943,36.9069,555.4047],[38.1878,36.9046,561.061],[38.1728,36.8946,587.8556],[38.1264,36.8811,509.0163],[38.0705,36.8586,407.3441],[38.0583,36.8487,395.3411],[38.054,36.8435,384.6877],[38.0517,36.8364,384.1179],[38.0409,36.8286,381.6459],[37.998,36.8238,368.7578],[37.9765,36.8182,392.8715],[37.908,36.7857,443.7536],[37.8623,36.7741,478.7965],[37.8144,36.7592,505.046],[37.7912,36.7486,511.979],[37.767,36.7466,502.5845],[37.7337,36.7495,509.9836],[37.7268,36.7488,510.1658],[37.7103,36.7446,510.0137],[37.6945,36.7382,495.8713],[37.674,36.7368,513.6761],[37.6551,36.7314,514.8367],[37.6355,36.7207,506.8638],[37.5782,36.6985,540.072],[37.5343,36.6763,541.9424],[37.521,36.6672,540.5765],[37.502,36.6493,558.295],[37.485,36.6411,513.2072],[37.4725,36.638,508.1522],[37.4611,36.6381,516.1509],[37.4272,36.6458,494.2836],[37.3727,36.6535,500.8113],[37.3348,36.6551,495.0224],[37.3031,36.6616,505.611],[37.2664,36.6649,490.9843],[37.2256,36.6633,511.461],[37.1962,36.6543,508.7976],[37.185,36.6536,508.9913],[37.1744,36.6546,513.169],[37.1511,36.6635,548.5027],[37.1447,36.6632,562.2333],[37.1268,36.6617,558.2288],[37.1219,36.6594,569.1252],[37.1126,36.6463,560.6403],[37.1036,36.627,552.951],[37.0963,36.6235,548.9158],[37.091,36.6236,558.9235],[37.0799,36.6294,575.4739],[37.0646,36.6423,630.2632],[37.0485,36.6532,658.2103],[37.0314,36.6577,686.7491],[37.028,36.6606,723.9575],[37.0279,36.6655,701.8313],[37.0332,36.6784,641.9061],[37.0566,36.7127,782.9006],[37.0581,36.7207,731.1604],[37.056,36.7243,672.4379],[37.0518,36.7268,631.4276],[37.0199,36.737,464.2555],[37.0095,36.7431,447.8935],[36.9989,36.7553,369.4809],[36.9888,36.762,386.0444],[36.9444,36.7812,455.5566],[36.9027,36.7777,527.6586],[36.8796,36.7814,605.7],[36.8042,36.7986,1152.5178],[36.739,36.8242,619.7836],[36.6853,36.8348,432.5305],[36.6755,36.8456,376.5059],[36.6707,36.8427,373.841],[36.6684,36.8363,370.0619],[36.6776,36.8213,380.5074],[36.6782,36.8112,374.5406],[36.6703,36.7998,361.0656],[36.6328,36.7663,381.6332],[36.6271,36.7577,410.111],[36.624,36.7471,457.2238],[36.6252,36.7425,424.9373],[36.6351,36.728,312.0933],[36.6387,36.7116,418.0549],[36.6369,36.7051,445.7396],[36.6278,36.6953,379.8816],[36.6188,36.68,498.9282],[36.6064,36.6715,255.8933],[36.5919,36.6501,276.0569],[36.588,36.636,268.1547],[36.5879,36.6305,257.916],[36.6006,36.6005,465.4604],[36.6029,36.591,406.633],[36.6042,36.5791,401.5745],[36.5999,36.562,354.7589],[36.5961,36.5557,340.248],[36.5913,36.5375,320.631],[36.5833,36.5227,266.0782],[36.5734,36.5121,229.2959],[36.553,36.5011,195.6],[36.5529,36.497,192.705],[36.557,36.4918,191.3663],[36.555,36.4858,190.1137],[36.5678,36.4677,220.8588],[36.5685,36.445,219.7641],[36.5735,36.4423,209.9205],[36.5756,36.4386,196.3156],[36.5769,36.4248,177.1521],[36.585,36.4117,167.804],[36.5867,36.4019,152.647],[36.5891,36.3978,148.8355],[36.5932,36.3942,155.614],[36.5993,36.3923,219.315],[36.6067,36.3913,381.4556],[36.6157,36.3927,325.0516],[36.6226,36.3912,316.0129],[36.6235,36.388,274.8086],[36.6203,36.3749,236.9321],[36.6278,36.3597,174.7026],[36.6277,36.3542,163.4964],[36.612,36.3407,147.2487],[36.6077,36.3329,117.4663],[36.6078,36.3299,117.5951],[36.6116,36.3279,122.0929],[36.6215,36.3288,128.5151],[36.6394,36.3356,141.6467],[36.6502,36.3361,149.9147],[36.6593,36.334,170.4244],[36.6662,36.3302,202.8658],[36.6692,36.3262,223.0034],[36.669,36.3143,182.364],[36.6899,36.3157,233.4649],[36.6993,36.3183,271.8302],[36.7117,36.3183,308.9344],[36.7231,36.3136,357.6284],[36.7359,36.3192,413.4255],[36.7547,36.2983,450.9608],[36.7943,36.2666,430.5345],[36.8137,36.2578,433.2917],[36.8507,36.2314,427.6258],[36.8515,36.2226,393.9115],[36.8471,36.2059,389.6169],[36.8375,36.1997,418.4585],[36.8278,36.1997,443.9196],[36.8155,36.2015,452.0331],[36.8075,36.2059,453.2986],[36.8014,36.2068,419.0385],[36.7926,36.2006,406.149],[36.7926,36.1724,394.7479],[36.7864,36.1645,353.4139],[36.7706,36.1584,366.526],[36.7503,36.1478,353.4934],[36.7433,36.1408,336.9288],[36.7406,36.1311,319.414],[36.7359,36.1287,318.7541],[36.7481,36.1218,306.6913],[36.754,36.1207,304.4689],[36.7587,36.1136,304.8682],[36.7599,36.0702,305.6493],[36.7716,36.0667,298.8194],[36.8338,36.0655,316.9427],[36.8408,36.0514,339.6768],[36.8549,36.0397,356.9716],[36.8702,36.035,355.8187],[36.8831,36.028,319.4899],[36.8913,36.0115,312.2999],[36.8941,35.9958,304.668],[36.8906,35.9905,304.4842],[36.8888,35.9791,302.3874],[36.8818,35.9597,300.3834],[36.8756,35.9536,312.727],[36.8747,35.943,325.6631],[36.8782,35.9307,321.0925],[36.8853,35.9228,312.6423],[36.9134,35.8999,297.7584],[36.9398,35.8876,279.0915],[36.9469,35.877,280.7047],[36.9539,35.8524,268.5851],[36.9618,35.8365,251.3458],[36.9662,35.8216,248.4635],[36.9794,35.8084,246.1527],[36.9918,35.8004,253.9873],[37.0217,35.7987,245.3495],[37.027,35.8013,244.92],[37.0287,35.8189,247.3284],[37.0314,35.8269,246.6452],[37.0472,35.8269,250.1816],[37.0719,35.8189,244.4944],[37.1044,35.8013,245.3148],[37.1123,35.782,249.9829],[37.1176,35.76,248.6585],[37.1176,35.7098,250.931],[37.1097,35.6975,258.1974],[37.0868,35.6764,277.3244],[37.0763,35.664,309.5479],[37.0719,35.6298,317.9358],[37.0771,35.6148,331.3094],[37.0868,35.6052,387.1497],[37.1071,35.5919,346.8697],[37.1185,35.5743,332.2297],[37.1308,35.57,317.2646],[37.1405,35.57,313.68],[37.1467,35.5647,291.2248],[37.1616,35.5418,308.0154],[37.1933,35.5356,283.2311],[37.21,35.5268,285.9435],[37.284,35.5048,316.4754],[37.3192,35.4987,310.9547],[37.3552,35.4995,307.8456],[37.3995,35.5084,298.5188],[37.4053,35.5058,299.6875],[37.4722,35.5034,313.8551],[37.5437,35.5058,330.076],[37.5672,35.5081,341.0801],[37.5836,35.5069,343.0009],[37.6224,35.4776,352.8591],[37.654,35.4471,369.7046],[37.667,35.4377,380.7021],[37.7538,35.4283,407.6184]]]]}}