{"type":"Feature","properties":{"id":142171.0,"name":null,"lge_id":null,"pfafstette":6915.0,"lke_type":null,"altitude":311,"objectid":89088,"scalerank":12,"featurecla":"Alkaline Lake","note":"_untitled_89088","funkyname":0,"min_zoom":7.0,"min_label":8.0},
"geometry":{"type": "Polygon","coordinates": [[[37.698619011333733,35.886847235150327,312.0],[37.698619011333733,35.886847235150327,312.0],[37.707286003521233,35.902289129681577,313.5963],[37.695689323833733,35.917120672650327,318.7051],[37.671885612896233,35.913885809369077,331.7076],[37.650157097271233,35.907049871869077,312.8506],[37.639414909771233,35.898443914837827,317.3686],[37.661387566021233,35.884161688275327,312.0],[37.698619011333733,35.886847235150327,312.0]]]}}