{"type":"Feature","properties":{"featurecla":"Reservoir","scalerank":7,"name":"Buhayrat al-Assad","name_abb":"Buhayrat al-Assad","name_alt":"Lake Assad","note":null,"delta":"New or modified in version 1.2","dam_name":"Tabqa Dam","year":1974,"admin":null,"min_zoom":5.7,"min_label":6.7},
"geometry":{"type": "Polygon","coordinates": [[[38.557730750409206,35.889282522092316,299.5],[38.549782918976661,35.890459978600859,299.5],[38.546250549451088,35.893697983999289,299.5],[38.544484364688287,35.903706364321778,299.5],[38.540363266908457,35.903706364321778,299.5],[38.533298527857283,35.897524717652004,300.5967],[38.533298527857283,35.896052897016347,308.0022],[38.515636680229392,35.890165614473716,299.5],[38.514459223720849,35.891931799236517,304.8425],[38.503567751016988,35.901057087177605,316.264],[38.497974832601471,35.904295092576035,299.5],[38.495914283711556,35.899585266541948,299.5],[38.488849544660411,35.891931799236517,299.5],[38.481490441482123,35.887810701456658,299.5],[38.477958071956522,35.893697983999289,299.5],[38.476780615448007,35.904883820830293,299.5],[38.473248245922434,35.907533097974493,299.5],[38.468538419888318,35.907827462101608,299.5],[38.4638285938542,35.911654195754323,299.5],[38.452054028768941,35.931670956399273,299.5],[38.443223104954996,35.952570809425623,300.0785],[38.437041458285222,35.952570809425623,315.5677],[38.437041458285222,35.945211706247335,299.5],[38.429682355106934,35.945211706247335,299.5],[38.4246781649457,35.958458091968282,299.5],[38.42350070843716,35.96581719514657,306.1846],[38.411431779224785,35.957869363713996,305.7217],[38.404661404300754,35.927844222746586,301.1313],[38.389354469689891,35.918424570678354,299.5],[38.371692622062,35.920485119568269,299.5],[38.360801149358139,35.9299047716365,299.5],[38.351087133162792,35.940207516086105,299.5],[38.282205927413969,35.966700287527942,299.5],[38.268370813438793,35.970232657053543,299.5],[38.261011710260476,35.979063580867489,299.5],[38.254830063590731,35.988777597062835,299.5],[38.254830063590731,35.993781787224066,306.0218],[38.228631656276008,35.992015602461265,299.5],[38.217151455317861,35.993781787224066,299.5],[38.217740183572147,35.995253607859723,299.5],[38.215973998809346,35.999374705639582,299.5],[38.212735993410888,36.004084531673669,299.5],[38.209792352139573,36.00673380881787,299.5],[38.205082526105485,36.007322537072127,299.5],[38.194191053401596,36.00585071643647,299.5],[38.18948122736748,36.00673380881787,299.5],[38.174763021010904,36.013798547869015,299.5],[38.16946446672253,36.018214009775988,299.5],[38.1626940917985,36.027044933589934,299.5],[38.157984265764412,36.035581493276766,299.5],[38.1541575321117,36.048239150743427,299.5],[38.149153341950466,36.055009525667458,299.5],[38.142971695280693,36.059130623447288,299.5],[38.125898575907058,36.066195362498462,299.5],[38.118245108601627,36.07178828091395,303.9034],[38.110591641296196,36.084445938380611,320.619],[38.09675652732102,36.120652726017823,300.3757],[38.094401614303962,36.133899111738742,299.5],[38.099994532719478,36.142730035552688,299.5],[38.135612592102405,36.171872084138727,318.007],[38.1253098476528,36.195421214309249,312.4304],[38.144149151789208,36.217498523844142,309.9389],[38.174763021010904,36.233688550836376,320.2659],[38.20037270007137,36.240164561633264,329.6846],[38.225688015004692,36.252233490845668,313.6237],[38.222450009606234,36.28078681117745,342.2227],[38.1968403305458,36.336421631205326,327.9559],[38.18948122736748,36.336421631205326,330.0172],[38.178589754663619,36.3426032778751,299.5],[38.175351749265161,36.330828712789838,299.5],[38.176529205773704,36.301392300076657,318.3546],[38.173291200375246,36.292855740389854,316.5568],[38.1644602765613,36.276371349270477,318.9071],[38.1626940917985,36.270778430854961,318.4121],[38.159161722272927,36.262830599422415,299.5],[38.151508254967496,36.262241871168158,305.0894],[38.144149151789208,36.265185512439473,306.2181],[38.142382967026435,36.267540425456531,299.5],[38.115007103203169,36.256648952752641,299.5],[38.103821266372165,36.249584213701496,299.5],[38.094401614303962,36.240164561633264,299.5],[38.092046701286904,36.232216730200719,373.9318],[38.092635429541161,36.223385806386773,299.5],[38.091163608905504,36.2163210673356,299.5],[38.084098869854358,36.213377426064284,299.5],[38.079683407947385,36.210433784792968,299.5],[38.042299163801658,36.172460812392984,305.0037],[38.024931680300881,36.145968040951146,299.5],[38.01492329997842,36.113293622839535,308.5703],[38.018750033631136,36.075615014566665,306.7243],[38.024931680300881,36.0620742647186,323.8046],[38.044065348564459,36.03675894978528,317.0893],[38.052896272378405,36.027044933589934,349.5755],[38.0799777720745,36.014976004377559,326.1232],[38.087336875252817,36.007911265326385,350.9943],[38.074090489531869,35.999963433893839,320.9008],[38.074090489531869,35.993781787224066,318.2967],[38.087631239379931,35.986128319918635,352.4498],[38.094401614303962,35.986128319918635,362.8562],[38.102349445736508,35.992309966588408,327.258],[38.110002913041939,35.989660689444236,304.5576],[38.112946554313254,35.982007222138805,299.5],[38.108236728279167,35.973176298324859,328.4105],[38.117362016220227,35.966111559273685,314.5466],[38.134435135593861,35.948744075772936,354.6378],[38.145915336552008,35.945211706247335,302.9301],[38.159750450527184,35.943739885611677,353.3677],[38.192424868638824,35.935792054179132,332.7886],[38.203905069596942,35.931670956399273,339.5327],[38.223627466114777,35.915480929407039,310.85],[38.253652607082188,35.877507957007055,345.0288],[38.275729916617081,35.870148853828766,344.0582],[38.294274856626373,35.868971397320252,328.0453],[38.307521242347292,35.865733391921793,316.7551],[38.318118350924038,35.859257381124905,307.3759],[38.327243638865127,35.849543364929559,320.8759],[38.335485834424816,35.836296979208612,319.353],[38.334602742043415,35.829526604284609,317.9458],[38.3298929160093,35.823344957614836,316.0319],[38.327243638865127,35.811864756656689,299.5],[38.324005633466669,35.8071549306226,299.5],[38.316646530288381,35.803622561097,299.5],[38.309287427110092,35.798912735062913,300.0758],[38.306049421711634,35.790670539503225,323.4814],[38.310170519491464,35.785371985214852,334.8205],[38.319001443305439,35.786843805850509,327.3475],[38.326360546483727,35.791553631884625,321.3179],[38.327243638865127,35.79449727315594,316.4645],[38.350498404908507,35.79449727315594,319.1823],[38.35756314395968,35.789493082994682,310.5185],[38.361389877612396,35.773891784256705,320.3126],[38.368160252536427,35.773891784256705,303.8391],[38.368160252536427,35.787726898231909,299.5],[38.361389877612396,35.81863513158072,299.5],[38.365805339519369,35.825111142377608,305.982],[38.384939007782918,35.835708250954355,320.0127],[38.389354469689891,35.83953498460707,316.6361],[38.393769931596864,35.8471884519125,299.5],[38.402306491283696,35.8333533379373,309.6024],[38.409665594461984,35.815102762055147,301.0037],[38.409076866207727,35.808626751258259,304.4646],[38.420557067165845,35.806566202368316,308.7578],[38.431742903996849,35.810981664275289,308.6312],[38.441751284319338,35.812159120783832,299.5],[38.449993479879026,35.801267648079943,319.6166],[38.458235675438715,35.801267648079943,338.5799],[38.504156479271245,35.8333533379373,301.6954],[38.512104310703791,35.842772990005528,299.5],[38.519169049754964,35.842772990005528,341.8961],[38.519169049754964,35.8360026150815,352.4972],[38.553609652629376,35.851015185565217,338.7234],[38.559791299299121,35.852781370327989,324.0458],[38.561263119934779,35.864555935413279,262.6871],[38.56479548946038,35.873386859227224,300.3396],[38.573626413274326,35.890165614473716,282.3717],[38.566856038350295,35.8889881579652,299.5],[38.557730750409206,35.889282522092316,299.5]]]}}