{"type":"Feature","properties":{"id":141932.0,"name":null,"lge_id":null,"pfafstette":935351.0,"lke_type":null,"altitude":397,"objectid":89055,"scalerank":10,"featurecla":"Lake","note":"_untitled_89055","funkyname":0,"min_zoom":6.0,"min_label":7.0},
"geometry":{"type": "Polygon","coordinates": [[[38.063487175396233,36.768072821087827,324.8857],[38.063487175396233,36.768072821087827,324.8857],[38.046153191021233,36.778753973431577,331.787],[38.027476433208733,36.772467352337827,326.3334],[38.039683464458733,36.732062078900327,323.0],[38.060191276958733,36.695807196087827,322.0],[38.067027214458733,36.680670477337827,322.0],[38.087901237896233,36.670782782025327,322.0],[38.118418816021233,36.667853094525327,321.5],[38.137705925396233,36.665167547650327,321.5],[38.162852409771233,36.654791571087827,321.5],[38.202647331646233,36.637213446087827,321.0],[38.231700066021233,36.602179266400327,320.5],[38.251353386333733,36.573309637494077,320.0],[38.261729362896233,36.556402899212827,329.0719],[38.254283073833733,36.543280340619077,341.0811],[38.233164909771233,36.527533270306577,346.7031],[38.229746941021233,36.499273992962827,320.0],[38.247202995708733,36.478766180462827,320.0],[38.216807487896233,36.462103582806577,405.0211],[38.191416862896233,36.445440985150327,383.7941],[38.197764519146233,36.422430731244077,320.0],[38.228770378521233,36.415167547650327,320.0],[38.265025261333733,36.434820867962827,320.0],[38.289439323833733,36.451727606244077,320.0],[38.293589714458733,36.478461004681577,340.1936],[38.275401237896233,36.494208074994077,345.1088],[38.287119987896233,36.503180242962827,367.2197],[38.306651237896233,36.519598699994077,377.9549],[38.289317253521233,36.557867742962827,351.8554],[38.269541862896233,36.587958074994077,391.5235],[38.253672722271233,36.613592840619077,421.7788],[38.219737175396233,36.652411199994077,341.0446],[38.205821159771233,36.666693426556577,321.0],[38.194224480083733,36.681830145306577,349.7445],[38.151133659771233,36.683905340619077,335.425],[38.102061394146233,36.685675360150327,331.687],[38.092295769146233,36.705939032025327,323.8112],[38.092295769146233,36.725531317181577,326.6488],[38.078257683208733,36.746344305462827,329.4794],[38.063487175396233,36.768072821087827,324.8857]]]}}