{"type":"Feature","properties":{"featurecla":"River","scalerank":3,"rivernum":69,"dissolve":"69River","name":"Al1","name_alt":null,"note":null,"min_zoom":3.0,"strokeweig":0.25,"name_en":"Al Furat","min_label":4.0},
"geometry":{"type": "LineString","coordinates": [[38.025781250000023,36.83563873905662,327.5956],[38.033105468750023,36.821795965619117,327.7481],[38.03271484375,36.809442449994116,324.5],[38.030664062500023,36.79669830936912,326.5768],[38.032470703125,36.78131744999412,323.5],[38.038818359375,36.77118561405662,323.7276],[38.046777343750023,36.76386139530662,325.0653],[38.050878906250006,36.75495026249412,323.7545],[38.045996093750006,36.740350653119116,323.0],[38.051171875000023,36.740741278119117,323.0],[38.061425781250023,36.74005768436912,323.0],[38.066503906250006,36.740350653119116,324.0275],[38.062402343750023,36.72919342655662,323.0],[38.06201171875,36.718133856244116,323.0],[38.066650390625,36.709588934369116,323.0],[38.077392578125,36.706170965619116,323.0],[38.08359375,36.70197174686912,322.0],[38.09130859375,36.68317291874412,329.3872],[38.097558593750023,36.67890045780662,324.8359],[38.141992187500023,36.67255280155662,328.3372],[38.169042968750006,36.664813543744117,321.5],[38.190820312500023,36.651483465619116,321.0],[38.19580078125,36.65058014530662,321.0],[38.206738281250011,36.65094635624412,321.0],[38.21044921875,36.64813873905662,326.2174],[38.215039062500011,36.63471100468162,321.0],[38.21728515625,36.630487371869116,321.0],[38.228125,36.62213776249412,368.6935],[38.2333984375,36.61701080936912,320.5],[38.286376953125,36.535907293744117,320.0],[38.293066406250006,36.52802155155662,376.199],[38.26708984375,36.51227448124412,349.4958],[38.256103515625,36.46283600468162,328.0124],[38.2275390625,36.45233795780662,332.2952],[38.203125,36.438836981244116,320.0],[38.19287109375,36.40729401249412,326.7143],[38.183837890625,36.34247467655662,299.5]]}}