{"type":"Feature","properties":{"ISO3166-1-Alpha-3":"SYR","country":"Syria","fill":"#000","id":"137","name":"Aleppo"},
"geometry":{"type": "Polygon","coordinates": [[[38.63519,36.74404,424.3719],[38.52936,36.83372,458.5869],[38.47996,36.85574,464.496],[38.28989,36.9017,538.3313],[38.22426,36.90839,573.949],[38.19005,36.90553,556.6062],[38.12297,36.88462,479.361],[38.02601,36.83501,326.4562],[38.00794,36.82576,350.4079],[37.98004,36.81967,395.7976],[37.81974,36.76055,507.3284],[37.65406,36.73213,514.2802],[37.59339,36.71053,533.5724],[37.52214,36.6736,534.2119],[37.44612,36.6342,507.506],[37.40447,36.63446,488.6294],[37.24189,36.65859,482.7713],[37.21967,36.65714,505.1097],[37.15611,36.64391,508.6109],[37.1374,36.64588,531.6935],[37.12097,36.64991,558.4363],[37.10443,36.65099,577.9841],[37.08562,36.64417,590.2668],[37.07012,36.63151,590.2316],[37.06237,36.62211,589.3268],[37.05307,36.61994,597.9703],[37.03333,36.62872,699.4436],[37.01452,36.64226,729.7997],[37.01079,36.65373,645.3724],[37.01948,36.68582,580.1536],[37.01844,36.70665,573.9412],[37.01059,36.71952,502.0983],[36.9801,36.74225,412.398],[36.9647,36.75383,368.6309],[36.94589,36.76267,392.1069],[36.92594,36.76897,465.8589],[36.90682,36.77259,517.6216],[36.84367,36.77584,726.6924],[36.65956,36.82724,372.8534],[36.65857,36.82752,372.8534],[36.64916,36.82855,376.7307],[36.63986,36.82809,377.2786],[36.64327,36.80365,383.4631],[36.63201,36.78432,353.6811],[36.61568,36.76659,341.9104],[36.60327,36.74696,336.1763],[36.59893,36.72479,310.956],[36.59811,36.70546,281.058],[36.5947,36.68582,263.9955],[36.58281,36.66241,242.6446],[36.56927,36.62014,230.906],[36.56999,36.5757,283.5525],[36.56534,36.5325,206.7398],[36.53547,36.494,196.0417],[36.53124,36.47901,145.6518],[36.53382,36.46248,197.7268],[36.55273,36.40817,136.3037],[36.55801,36.40062,123.2779],[36.56503,36.39561,125.6381],[36.58085,36.38987,124.4809],[36.5857,36.38703,121.6031],[36.59056,36.38036,108.5516],[36.59335,36.37349,107.1538],[36.59449,36.36595,111.4995],[36.59428,36.35711,102.7955],[36.58777,36.34212,95.1334],[36.58219,36.33308,95.0361],[36.57764,36.33287,95.1803],[36.58777,36.32481,102.7187],[36.62074,36.32202,136.5166],[36.63707,36.3168,147.9633],[36.64865,36.3059,192.0904],[36.64876,36.30572,192.0904],[36.6612,36.31117,188.8103],[36.69578,36.31722,284.868],[36.72823,36.31696,374.5094],[36.73334,36.3183,376.178],[36.75427,36.33122,438.2646],[36.76115,36.33267,346.9962],[36.76626,36.3322,399.8654],[36.76936,36.33003,476.9843],[36.77153,36.32724,492.803],[36.77324,36.32424,491.8565],[36.77448,36.32081,496.8303],[36.77665,36.30536,475.7518],[36.78208,36.29675,518.825],[36.81277,36.27339,693.9691],[36.83902,36.24616,472.6703],[36.84305,36.23934,455.7682],[36.84321,36.23394,444.6875],[36.84212,36.22988,446.3636],[36.84042,36.22626,416.926],[36.83623,36.22012,427.3122],[36.83127,36.21482,442.3126],[36.81122,36.19846,447.1692],[36.80378,36.19053,457.2688],[36.80099,36.1882,416.0741],[36.79122,36.18358,381.566],[36.78921,36.18244,381.8528],[36.78688,36.18079,405.4153],[36.78208,36.17604,461.6946],[36.77742,36.17048,417.4197],[36.772,36.16549,385.6365],[36.73862,36.14348,341.2459],[36.72621,36.12648,322.0535],[36.74699,36.10446,310.157],[36.75427,36.09247,312.829],[36.76347,36.08384,307.967],[36.77262,36.07723,289.9754],[36.78161,36.07258,291.1113],[36.86527,36.04103,370.9298],[36.87489,36.03532,348.1827],[36.88093,36.03075,329.5626],[36.8831,36.024,314.5935],[36.88481,36.01674,305.6423],[36.88682,35.98525,302.135],[36.88667,35.97682,304.1562],[36.88729,35.97287,304.5903],[36.88868,35.96923,302.8146],[36.94222,35.90546,276.0927],[36.99297,35.83112,244.684],[37.00087,35.82153,244.6916],[37.00723,35.81559,245.2791],[37.01142,35.8142,245.3145],[37.01622,35.81306,245.1116],[37.03147,35.8113,244.409],[37.04387,35.80482,247.2573],[37.06402,35.78895,244.198],[37.09306,35.77244,245.4335],[37.09803,35.768,245.7033],[37.10097,35.76386,246.6772],[37.10159,35.76019,247.5526],[37.10175,35.75627,248.9737],[37.10113,35.75218,248.7986],[37.09989,35.74834,249.1563],[37.09616,35.74242,248.5908],[37.09275,35.7389,250.7689],[37.0879,35.73467,247.0174],[37.0817,35.73048,247.6284],[37.07828,35.72872,249.324],[37.06697,35.72474,256.7236],[37.06077,35.72066,260.4599],[37.05565,35.71369,273.6598],[37.07022,35.67591,282.0482],[37.07906,35.66129,307.377],[37.08573,35.65369,291.5638],[37.08852,35.647,302.627],[37.09224,35.62912,316.7121],[37.09787,35.6223,329.6229],[37.12934,35.59157,327.3035],[37.13446,35.5892,330.0683],[37.14267,35.58687,318.9834],[37.14825,35.58431,314.5287],[37.15451,35.58059,307.0144],[37.16955,35.56848,282.9113],[37.17466,35.56566,281.9077],[37.21642,35.55147,278.8151],[37.30158,35.52713,285.9039],[37.33744,35.50745,313.594],[37.34612,35.50401,301.5395],[37.35341,35.50223,301.1374],[37.4116,35.50161,301.1646],[37.57593,35.51135,342.9549],[37.59515,35.50044,343.701],[37.59567,35.50013,340.9141],[37.66207,35.46215,368.3192],[37.67897,35.45603,379.7412],[37.72383,35.4452,396.3999],[37.80852,35.43494,460.5147],[38.2348,35.43587,417.0053],[38.04267,35.6031,402.6558],[38.02794,35.6186,395.0677],[38.02562,35.62217,396.7163],[38.02345,35.62646,394.3758],[38.02143,35.63307,387.0111],[38.02081,35.63816,385.7081],[38.02081,35.64297,383.9247],[38.02639,35.67844,377.8859],[38.05187,35.76913,355.8468],[38.07993,35.82489,347.4555],[38.08877,35.83688,348.4168],[38.09373,35.84231,350.2529],[38.09652,35.84469,352.1819],[38.13471,35.88954,356.6797],[38.1546,35.90597,359.4091],[38.15972,35.91114,360.7586],[38.16189,35.91414,358.9234],[38.16886,35.92809,359.7103],[38.17336,35.94013,356.4209],[38.17507,35.94277,333.5716],[38.17708,35.94706,326.7501],[38.17863,35.95207,299.5],[38.18018,35.96251,299.5],[38.17879,35.96819,299.5],[38.17522,35.97302,299.5],[38.13517,35.99995,299.5],[38.13455,36.00059,299.5],[38.12184,36.01858,299.5],[38.10866,36.0323,299.5],[38.09419,36.04421,299.5],[38.08505,36.05426,299.5],[38.07605,36.06865,299.5],[38.06381,36.09842,299.5],[38.05978,36.11446,299.5],[38.05838,36.12674,299.5],[38.05978,36.13402,299.5],[38.0621,36.14092,299.5],[38.06598,36.14772,299.5],[38.08784,36.17529,299.5],[38.10024,36.19877,299.5],[38.10944,36.21298,299.5],[38.12013,36.22513,299.5],[38.13114,36.23464,299.5],[38.13672,36.23831,299.5],[38.15336,36.2459,299.5],[38.1946,36.26295,299.5],[38.22225,36.26867,309.6476],[38.25961,36.26983,329.0297],[38.42518,36.29205,462.884],[38.50683,36.32858,428.5942],[38.57246,36.36592,394.9884],[38.58439,36.37483,413.7934],[38.59339,36.383,409.6351],[38.63142,36.42938,401.034],[38.64336,36.44909,372.8103],[38.64971,36.46625,378.6729],[38.65752,36.5003,411.3326],[38.65752,36.50041,411.3326],[38.65752,36.50098,411.1093],[38.66496,36.52986,435.0509],[38.66945,36.55808,414.9769],[38.671,36.62526,386.9497],[38.67038,36.62903,388.1595],[38.6693,36.63244,390.8242],[38.6679,36.63559,396.0383],[38.66542,36.63813,399.4585],[38.66217,36.64019,400.6421],[38.65793,36.64128,406.9061],[38.65374,36.64154,414.9688],[38.64956,36.64066,423.9887],[38.64243,36.63756,441.2568],[38.61824,36.62035,453.5008],[38.60832,36.61487,444.5119],[38.60021,36.61249,474.8214],[38.59587,36.61213,471.8694],[38.59153,36.61237,466.4594],[38.58796,36.61358,477.6467],[38.5847,36.61559,498.8786],[38.58145,36.62102,501.4601],[38.57788,36.62919,507.0562],[38.57277,36.64694,505.228],[38.57199,36.65539,526.486],[38.57323,36.66107,554.1943],[38.57664,36.66267,543.4668],[38.58067,36.66371,533.805],[38.63096,36.66939,442.8107],[38.63592,36.67156,440.6208],[38.64057,36.67549,448.7064],[38.6463,36.68456,428.903],[38.64832,36.69042,420.4379],[38.64878,36.69549,419.1406],[38.64816,36.69916,422.6369],[38.63519,36.74404,424.3719],[38.63519,36.74404,424.3719]]]}}