{"type":"Feature","properties":{"GID_1":"SYR.10_1","GID_0":"SYR","country":"Syria","province":"Idlib","VARNAME_1":"Adlib|Edleb|Idleb","NL_NAME_1":"NA","TYPE_1":"Muḥāfaẓah","ENGTYPE_1":"Governorate","CC_1":"NA","HASC_1":"SY.ID","ISO_1":"SY-ID","name":"Idlib.province"},
"geometry":{"type": "MultiPolygon","coordinates": [[[[37.0763,35.664,309.5479],[37.0868,35.6764,277.3244],[37.1097,35.6975,258.1974],[37.1176,35.7098,250.931],[37.1176,35.76,248.6585],[37.1123,35.782,249.9829],[37.1044,35.8013,245.3148],[37.0719,35.8189,244.4944],[37.0472,35.8269,250.1816],[37.0314,35.8269,246.6452],[37.0287,35.8189,247.3284],[37.027,35.8013,244.92],[37.0217,35.7987,245.3495],[36.9918,35.8004,253.9873],[36.9794,35.8084,246.1527],[36.9662,35.8216,248.4635],[36.9618,35.8365,251.3458],[36.9539,35.8524,268.5851],[36.9469,35.877,280.7047],[36.9398,35.8876,279.0915],[36.9134,35.8999,297.7584],[36.8853,35.9228,312.6423],[36.8782,35.9307,321.0925],[36.8747,35.943,325.6631],[36.8756,35.9536,312.727],[36.8818,35.9597,300.3834],[36.8888,35.9791,302.3874],[36.8906,35.9905,304.4842],[36.8941,35.9958,304.668],[36.8913,36.0115,312.2999],[36.8831,36.028,319.4899],[36.8702,36.035,355.8187],[36.8549,36.0397,356.9716],[36.8408,36.0514,339.6768],[36.8338,36.0655,316.9427],[36.7716,36.0667,298.8194],[36.7599,36.0702,305.6493],[36.7587,36.1136,304.8682],[36.754,36.1207,304.4689],[36.7481,36.1218,306.6913],[36.7359,36.1287,318.7541],[36.7406,36.1311,319.414],[36.7433,36.1408,336.9288],[36.7503,36.1478,353.4934],[36.7706,36.1584,366.526],[36.7864,36.1645,353.4139],[36.7926,36.1724,394.7479],[36.7926,36.2006,406.149],[36.8014,36.2068,419.0385],[36.8075,36.2059,453.2986],[36.8155,36.2015,452.0331],[36.8375,36.1997,418.4585],[36.8471,36.2059,389.6169],[36.8515,36.2226,393.9115],[36.8507,36.2314,427.6258],[36.8137,36.2578,433.2917],[36.7943,36.2666,430.5345],[36.7547,36.2983,450.9608],[36.7359,36.3192,413.4255],[36.7231,36.3136,357.6284],[36.7117,36.3183,308.9344],[36.6993,36.3183,271.8302],[36.6899,36.3157,233.4649],[36.669,36.3143,182.364],[36.6711,36.3024,198.6375],[36.6948,36.2969,252.1601],[36.7003,36.2922,254.1515],[36.6991,36.2871,340.0065],[36.6923,36.2764,337.0468],[36.6928,36.2716,366.1776],[36.6958,36.266,349.9292],[36.706,36.2552,478.2561],[36.7007,36.2443,513.6249],[36.6842,36.2373,421.3891],[36.6749,36.2293,415.2628],[36.6406,36.2292,318.8383],[36.6274,36.2177,264.836],[36.6184,36.2166,241.47],[36.6093,36.2175,243.3973],[36.5839,36.2321,192.1818],[36.5782,36.2324,202.8499],[36.5574,36.2281,434.131],[36.5426,36.2381,271.0181],[36.5228,36.2381,125.2354],[36.5095,36.23,101.5648],[36.4954,36.2345,92.5804],[36.4924,36.2328,92.6396],[36.4892,36.2187,105.1939],[36.4817,36.2055,119.6891],[36.4773,36.2029,126.3426],[36.4711,36.2018,159.0377],[36.4575,36.2084,121.6406],[36.4353,36.2113,89.0687],[36.4267,36.2145,86.7178],[36.4128,36.2231,86.6795],[36.4034,36.2264,86.8373],[36.3975,36.2232,87.6106],[36.3976,36.2127,88.1078],[36.4031,36.1996,89.664],[36.4006,36.1915,92.4956],[36.3987,36.1898,91.0271],[36.3888,36.1885,90.628],[36.3817,36.1807,110.9795],[36.3767,36.1694,102.0369],[36.3883,36.1515,129.187],[36.392,36.1426,118.9163],[36.3812,36.1188,94.6366],[36.3852,36.1078,95.8111],[36.386,36.0994,95.0244],[36.3887,36.0948,98.0678],[36.3942,36.0906,100.8765],[36.3978,36.0838,157.1425],[36.3887,36.0682,148.1532],[36.3946,36.0525,214.501],[36.3951,36.046,120.0019],[36.3925,36.0398,109.5377],[36.3834,36.0314,98.6567],[36.3808,36.026,99.8498],[36.3823,36.0099,107.1602],[36.3786,36.001,100.9225],[36.3684,35.9948,152.3696],[36.3569,35.992,216.0689],[36.3442,35.9924,285.6889],[36.3172,36.0041,413.3493],[36.3028,35.9964,384.4626],[36.2979,35.9917,496.5135],[36.2946,35.9802,452.5306],[36.3061,35.9607,302.1564],[36.3025,35.9574,385.8677],[36.2897,35.9539,447.2129],[36.2789,35.9548,489.5311],[36.2634,35.9617,460.7715],[36.2546,35.9638,524.4713],[36.2444,35.9635,670.4055],[36.2288,35.9604,429.142],[36.2127,35.9515,320.7982],[36.1992,35.9356,627.5621],[36.1877,35.9185,574.8767],[36.1809,35.9017,527.6805],[36.1891,35.8844,604.611],[36.1831,35.8356,490.1706],[36.1701,35.8169,456.2967],[36.1786,35.8014,563.1826],[36.1865,35.7935,532.4745],[36.197,35.7873,443.7765],[36.2076,35.7873,517.0825],[36.2164,35.7847,559.2955],[36.2182,35.7812,638.5851],[36.2182,35.7706,619.3372],[36.2226,35.7601,755.6832],[36.2305,35.7539,917.8407],[36.241,35.7521,1049.4573],[36.2507,35.753,1033.3969],[36.2622,35.7574,801.4941],[36.271,35.7574,653.9623],[36.2886,35.7556,274.1014],[36.3167,35.7468,164.7328],[36.3748,35.7468,219.6949],[36.3757,35.7292,210.7125],[36.3801,35.7213,190.8174],[36.3889,35.7152,208.4867],[36.4074,35.7134,228.9016],[36.4179,35.7134,237.4969],[36.4205,35.7151,247.4393],[36.4364,35.7028,405.8432],[36.4408,35.6976,651.9017],[36.4408,35.6896,845.2041],[36.4382,35.6808,858.247],[36.4267,35.6641,754.9862],[36.4259,35.6544,802.9391],[36.4276,35.6421,777.9801],[36.4305,35.6386,772.8123],[36.4279,35.6249,646.439],[36.4279,35.5819,553.5211],[36.4263,35.5723,464.9568],[36.4224,35.5644,573.1792],[36.42,35.554,680.2911],[36.42,35.5437,757.0912],[36.4168,35.5317,677.2032],[36.4168,35.5054,554.8982],[36.4263,35.4792,305.7672],[36.4319,35.4712,302.5005],[36.4335,35.4497,288.7737],[36.4359,35.4393,289.0803],[36.4439,35.4322,265.0428],[36.4502,35.4282,287.8183],[36.459,35.4282,287.1532],[36.4709,35.4314,285.5019],[36.4821,35.4377,293.8472],[36.4901,35.4457,295.2669],[36.502,35.4457,322.2742],[36.5116,35.4433,303.8008],[36.5219,35.4377,277.0779],[36.5331,35.425,291.1411],[36.5354,35.4139,282.5912],[36.5354,35.4027,280.0074],[36.541,35.3947,263.4496],[36.553,35.3923,292.7757],[36.5713,35.3916,295.5832],[36.6,35.3931,330.3267],[36.6103,35.3923,339.4771],[36.6501,35.3764,328.8087],[36.674,35.3756,349.9056],[36.6812,35.378,382.2103],[36.6923,35.3844,379.6078],[36.7107,35.4003,375.2083],[36.7202,35.4035,362.5045],[36.764,35.4035,336.9276],[36.7784,35.4011,333.2867],[36.7935,35.3947,336.0509],[36.823,35.3931,354.6543],[36.8429,35.3876,368.3325],[36.8548,35.3876,378.2752],[36.8628,35.3916,376.9886],[36.8763,35.3916,410.9543],[36.8819,35.3876,382.6475],[36.8835,35.3788,408.9092],[36.8899,35.3756,384.9693],[36.8891,35.3613,401.4646],[36.8931,35.347,417.7141],[36.905,35.3366,421.3239],[36.9106,35.335,406.5671],[36.9193,35.3342,402.9922],[36.9568,35.339,429.3792],[36.9663,35.3462,425.0159],[36.9759,35.3669,445.1158],[36.9831,35.3716,441.6699],[36.9886,35.3685,430.8381],[36.9894,35.327,453.6875],[36.9926,35.3039,477.5616],[37.0062,35.2793,470.0873],[37.0165,35.2697,461.6492],[37.0348,35.2673,492.0199],[37.0539,35.2681,415.0241],[37.0842,35.2824,443.1071],[37.0962,35.2822,445.0587],[37.1019,35.294,402.6152],[37.1121,35.3033,398.5143],[37.1198,35.3134,399.0151],[37.1253,35.3259,389.3376],[37.1268,35.3469,376.118],[37.1237,35.3555,389.1489],[37.1183,35.3617,372.8911],[37.1113,35.3664,365.4163],[37.0833,35.3671,407.2639],[37.0747,35.371,409.5073],[37.0708,35.3773,433.3398],[37.0716,35.403,429.7805],[37.0801,35.4115,436.7867],[37.1331,35.4131,357.7253],[37.1416,35.4193,363.6626],[37.1455,35.4271,352.9694],[37.1455,35.4364,339.8551],[37.1502,35.4551,331.2489],[37.151,35.4855,324.5258],[37.1549,35.4894,317.6382],[37.1852,35.4894,304.0858],[37.1961,35.4917,293.2563],[37.2016,35.4948,300.9833],[37.2078,35.5088,293.1345],[37.2222,35.5228,287.3298],[37.21,35.5268,285.9435],[37.1933,35.5356,283.2311],[37.1616,35.5418,308.0154],[37.1467,35.5647,291.2248],[37.1405,35.57,313.68],[37.1308,35.57,317.2646],[37.1185,35.5743,332.2297],[37.1071,35.5919,346.8697],[37.0868,35.6052,387.1497],[37.0771,35.6148,331.3094],[37.0719,35.6298,317.9358],[37.0763,35.664,309.5479]]]]}}