{"type":"Feature","properties":{"ISO3166-1-Alpha-3":"SYR","country":"Syria","fill":"#F0F","id":"140","name":"Idlib"},
"geometry":{"type": "Polygon","coordinates": [[[37.21642,35.55147,278.8151],[37.17466,35.56566,281.9077],[37.16955,35.56848,282.9113],[37.15451,35.58059,307.0144],[37.14825,35.58431,314.5287],[37.14267,35.58687,318.9834],[37.13446,35.5892,330.0683],[37.12934,35.59157,327.3035],[37.09787,35.6223,329.6229],[37.09224,35.62912,316.7121],[37.08852,35.647,302.627],[37.08573,35.65369,291.5638],[37.07906,35.66129,307.377],[37.07022,35.67591,282.0482],[37.05565,35.71369,273.6598],[37.06077,35.72066,260.4599],[37.06697,35.72474,256.7236],[37.07828,35.72872,249.324],[37.0817,35.73048,247.6284],[37.0879,35.73467,247.0174],[37.09275,35.7389,250.7689],[37.09616,35.74242,248.5908],[37.09989,35.74834,249.1563],[37.10113,35.75218,248.7986],[37.10175,35.75627,248.9737],[37.10159,35.76019,247.5526],[37.10097,35.76386,246.6772],[37.09803,35.768,245.7033],[37.09306,35.77244,245.4335],[37.06402,35.78895,244.198],[37.04387,35.80482,247.2573],[37.03147,35.8113,244.409],[37.01622,35.81306,245.1116],[37.01142,35.8142,245.3145],[37.00723,35.81559,245.2791],[37.00087,35.82153,244.6916],[36.99297,35.83112,244.684],[36.94222,35.90546,276.0927],[36.88868,35.96923,302.8146],[36.88729,35.97287,304.5903],[36.88667,35.97682,304.1562],[36.88682,35.98525,302.135],[36.88481,36.01674,305.6423],[36.8831,36.024,314.5935],[36.88093,36.03075,329.5626],[36.87489,36.03532,348.1827],[36.86527,36.04103,370.9298],[36.78161,36.07258,291.1113],[36.77262,36.07723,289.9754],[36.76347,36.08384,307.967],[36.75427,36.09247,312.829],[36.74699,36.10446,310.157],[36.72621,36.12648,322.0535],[36.73862,36.14348,341.2459],[36.772,36.16549,385.6365],[36.77742,36.17048,417.4197],[36.78208,36.17604,461.6946],[36.78688,36.18079,405.4153],[36.78921,36.18244,381.8528],[36.79122,36.18358,381.566],[36.80099,36.1882,416.0741],[36.80378,36.19053,457.2688],[36.81122,36.19846,447.1692],[36.83127,36.21482,442.3126],[36.83623,36.22012,427.3122],[36.84042,36.22626,416.926],[36.84212,36.22988,446.3636],[36.84321,36.23394,444.6875],[36.84305,36.23934,455.7682],[36.83902,36.24616,472.6703],[36.81277,36.27339,693.9691],[36.78208,36.29675,518.825],[36.77665,36.30536,475.7518],[36.77448,36.32081,496.8303],[36.77324,36.32424,491.8565],[36.77153,36.32724,492.803],[36.76936,36.33003,476.9843],[36.76626,36.3322,399.8654],[36.76115,36.33267,346.9962],[36.75427,36.33122,438.2646],[36.73334,36.3183,376.178],[36.72823,36.31696,374.5094],[36.69578,36.31722,284.868],[36.6612,36.31117,188.8103],[36.64876,36.30572,192.0904],[36.65846,36.2905,212.8036],[36.66549,36.27401,272.2712],[36.66911,36.25986,350.4825],[36.67004,36.23732,363.634],[36.66425,36.229,449.7415],[36.59346,36.2181,455.813],[36.57444,36.21836,533.7245],[36.49858,36.22787,96.5129],[36.48018,36.22554,94.3927],[36.46892,36.22239,90.8703],[36.4653,36.21593,98.1522],[36.46395,36.2088,119.4976],[36.4592,36.20311,164.3491],[36.45073,36.19991,166.6204],[36.44525,36.19991,179.4601],[36.43925,36.20141,132.8631],[36.41186,36.20446,98.6732],[36.39812,36.20823,90.4277],[36.38561,36.21546,89.5112],[36.373,36.22761,88.606],[36.36143,36.21815,90.1004],[36.37579,36.20451,91.2402],[36.37445,36.19588,90.5995],[36.36629,36.18921,90.4487],[36.3605,36.18167,106.5507],[36.35864,36.16699,184.3164],[36.35554,36.0224,173.6932],[36.35802,35.99398,200.17],[36.33673,35.98824,170.5131],[36.29735,36.00075,401.2525],[36.27751,35.99424,513.1274],[36.27751,35.99419,513.1274],[36.2774,35.99403,513.1274],[36.2774,35.99398,513.1274],[36.26903,35.95874,415.7052],[36.25311,35.95564,607.4561],[36.22903,35.96117,496.5769],[36.19689,35.95171,422.171],[36.17488,35.92267,559.0633],[36.16878,35.85208,517.5916],[36.15762,35.82257,573.2908],[36.15531,35.82223,585.289],[36.15596,35.81843,505.4372],[36.15534,35.8173,546.8763],[36.15317,35.81172,397.1195],[36.15178,35.809,371.2606],[36.15023,35.80536,427.5388],[36.14945,35.80164,346.7847],[36.14976,35.79802,277.209],[36.15085,35.79471,329.4868],[36.15519,35.79187,426.0951],[36.16201,35.78981,600.8425],[36.17643,35.78867,503.9131],[36.18418,35.78898,517.1064],[36.18976,35.78986,471.9025],[36.19834,35.79254,464.0381],[36.20656,35.79404,449.5996],[36.27466,35.79689,620.4374],[36.27947,35.79575,533.6069],[36.2835,35.79358,485.8333],[36.28707,35.78973,475.1562],[36.28846,35.78588,413.8659],[36.28846,35.78177,351.2463],[36.28753,35.77789,302.9568],[36.27994,35.76981,606.9714],[36.25482,35.75593,1005.7467],[36.25963,35.74896,786.3088],[36.26195,35.74671,761.6353],[36.26583,35.74407,723.9034],[36.27001,35.7418,604.5181],[36.27761,35.73983,398.2324],[36.28536,35.73901,231.1674],[36.29823,35.73999,185.94],[36.31006,35.74332,172.7734],[36.31363,35.74505,172.5539],[36.31735,35.7464,164.7328],[36.32154,35.74709,171.008],[36.32588,35.74709,170.368],[36.32991,35.74578,169.137],[36.33363,35.74335,169.0643],[36.33921,35.73761,169.3666],[36.34184,35.73327,169.1014],[36.34386,35.72916,169.073],[36.34479,35.72573,168.938],[36.34603,35.72247,169.1756],[36.34789,35.71947,169.6989],[36.36153,35.71591,177.9805],[36.40515,35.71482,235.3793],[36.41228,35.71121,221.3317],[36.41383,35.69839,207.5],[36.40747,35.65452,435.7408],[36.39337,35.60046,233.7533],[36.39135,35.58269,195.4667],[36.39972,35.5152,464.6637],[36.39802,35.50987,458.9337],[36.39585,35.5059,448.1149],[36.39383,35.50367,445.1876],[36.3929,35.5006,476.5778],[36.3929,35.50013,520.4962],[36.41466,35.46001,307.1471],[36.41962,35.44259,280.0608],[36.42613,35.4366,284.4998],[36.44768,35.43158,278.8296],[36.48246,35.44551,286.1915],[36.48711,35.446,291.9377],[36.49377,35.44412,302.1061],[36.51145,35.43691,286.6091],[36.5147,35.43494,279.9812],[36.51734,35.43246,270.8572],[36.52075,35.42639,269.8975],[36.52338,35.41998,280.4802],[36.52509,35.41704,285.256],[36.5271,35.41417,284.5403],[36.52958,35.41174,283.3022],[36.53289,35.40962,277.944],[36.53708,35.40817,277.631],[36.54188,35.40735,284.4183],[36.55196,35.40673,298.6376],[36.57118,35.40776,316.0729],[36.58111,35.40668,308.9868],[36.64787,35.39159,342.6857],[36.69939,35.39009,385.4517],[36.8198,35.41704,342.1923],[36.82445,35.41727,346.4121],[36.82895,35.41704,352.1794],[36.83329,35.41587,360.5034],[36.83701,35.41432,362.1647],[36.86693,35.39228,384.1491],[36.87086,35.38655,386.4703],[36.87241,35.38332,393.0126],[36.87644,35.37758,393.0238],[36.87907,35.37526,394.4593],[36.88233,35.37324,392.9595],[36.89302,35.36774,390.0978],[36.89566,35.36528,402.3651],[36.89752,35.36242,418.6382],[36.89985,35.35986,410.4496],[36.90403,35.35841,418.9495],[36.91023,35.35867,409.375],[36.92036,35.36025,387.7267],[36.92765,35.36071,394.0056],[36.93447,35.36273,397.7635],[36.94052,35.36614,407.9652],[36.95803,35.38823,392.9853],[36.97979,35.40585,371.3112],[36.98336,35.40952,371.4322],[36.99157,35.42192,367.3228],[36.99436,35.4245,363.5228],[36.99762,35.4259,364.1138],[37.00258,35.425,360.4447],[37.00583,35.42298,365.2814],[37.00832,35.42037,364.5053],[37.01033,35.41753,368.932],[37.01204,35.41456,379.4126],[37.01343,35.41128,381.1078],[37.01421,35.40755,373.1626],[37.01498,35.39993,384.6306],[37.01483,35.39582,374.4589],[37.01421,35.39166,376.6338],[37.01297,35.38771,384.8848],[37.00335,35.37115,419.69],[37.00227,35.3673,414.7399],[37.00211,35.36332,421.4526],[37.00242,35.35955,419.1063],[37.00599,35.34549,407.3594],[37.00645,35.34162,412.0753],[37.00661,35.32937,429.5541],[37.00769,35.32601,432.0048],[37.00956,35.32317,435.5025],[37.0125,35.32087,432.6507],[37.01622,35.31898,432.8279],[37.02041,35.31764,448.8485],[37.02506,35.31684,458.9836],[37.03467,35.31686,474.9545],[37.0572,35.31908,413.6624],[37.07813,35.31836,381.0331],[37.08325,35.31908,380.2198],[37.08903,35.32079,380.782],[37.09317,35.3227,381.8354],[37.09632,35.32523,383.5],[37.10454,35.33673,379.3285],[37.11027,35.34265,374.8439],[37.11337,35.34469,375.1017],[37.11663,35.34652,374.0812],[37.12035,35.34779,377.7871],[37.12438,35.34844,375.8163],[37.12888,35.34797,377.6616],[37.13353,35.34702,378.9547],[37.1374,35.34585,380.0386],[37.1405,35.34601,380.0328],[37.14205,35.34885,387.7278],[37.14267,35.3905,414.032],[37.14143,35.39799,414.239],[37.14019,35.4013,377.257],[37.13833,35.40414,358.2284],[37.13554,35.40647,356.4008],[37.13229,35.40817,369.7333],[37.1281,35.4089,348.1109],[37.12423,35.40817,360.0743],[37.12112,35.40631,372.127],[37.11849,35.40394,385.8315],[37.11585,35.4012,380.9709],[37.10996,35.39148,389.5478],[37.10779,35.38869,395.9618],[37.105,35.38632,399.3392],[37.10144,35.38466,419.9325],[37.09741,35.38368,436.2468],[37.09275,35.38337,451.434],[37.0879,35.38391,448.9256],[37.08371,35.38518,444.8894],[37.08046,35.38719,433.0639],[37.07782,35.38973,426.0887],[37.07658,35.39298,425.0024],[37.07627,35.39691,432.9641],[37.07689,35.40115,440.0503],[37.07953,35.40797,445.4551],[37.0988,35.44226,391.6052],[37.10392,35.44954,407.6238],[37.10965,35.45437,387.1915],[37.12268,35.46091,360.8999],[37.14329,35.46843,326.5411],[37.15032,35.47181,315.0531],[37.15637,35.47833,310.2399],[37.18102,35.51421,294.8162],[37.19171,35.53517,284.6814],[37.19482,35.53979,280.6725],[37.19761,35.54295,279.8478],[37.21642,35.55147,278.8151]]]}}