{"type":"Feature","properties":{"ISO3166-1-Alpha-3":"SYR","country":"Syria","fill":"#000","id":"135","name":"Tartus"},
"geometry":{"type": "Polygon","coordinates": [[[36.02564,35.2195,327.4688],[36.01861,35.2209,185.0818],[35.98977,35.24147,172.0735],[35.97427,35.24958,60.1172],[35.93148,35.26141,1.9165],[35.9312,35.26149,0.2486],[35.9533,35.2248,9.9794],[35.96241,35.19794,40.5513],[35.94125,35.18057,15.5673],[35.89422,35.12108,0.0],[35.88787,35.1092,0.0],[35.88787,35.06135,5.0504],[35.89145,35.04995,6.6817],[35.89731,35.03657,8.2238],[35.90056,35.02192,7.3235],[35.89536,35.00678,0.0],[35.88738,35.00019,0.0],[35.8816,34.99287,0.0],[35.87355,34.97883,0.0],[35.87664,34.97167,3.2518],[35.87892,34.97016,6.6347],[35.87859,34.96955,6.6347],[35.87355,34.96516,0.0],[35.87355,34.95832,0.0],[35.87957,34.95189,0.3003],[35.88136,34.94497,1.0533],[35.87957,34.93806,0.3287],[35.87355,34.93163,0.0],[35.87289,34.92691,0.0],[35.86687,34.92422,0.0],[35.8991,34.85277,12.1937],[35.90455,34.83177,2.9513],[35.90846,34.82176,0.0],[35.92604,34.79694,4.9391],[35.92897,34.79072,9.7988],[35.92897,34.74982,0.0],[35.93116,34.74095,0.0],[35.94093,34.72622,7.2385],[35.94744,34.69953,0.0],[35.96567,34.66844,3.7079],[35.9699,34.64985,0.0],[35.98264,34.65024,1.6974],[35.99143,34.64822,3.7932],[35.99876,34.64538,4.7606],[36.01623,34.63365,6.5876],[36.03793,34.62843,7.5251],[36.06078,34.62791,11.3502],[36.08723,34.63101,12.5929],[36.11214,34.62953,25.3439],[36.11219,34.62977,25.3439],[36.11452,34.64011,28.6175],[36.11607,34.65995,21.0097],[36.11824,34.66682,31.8438],[36.1865,34.76873,208.7617],[36.20966,34.79472,275.5298],[36.21105,34.79589,299.424],[36.2126,34.79689,276.5407],[36.21446,34.79767,298.1017],[36.22097,34.79914,346.0412],[36.22438,34.80124,328.9435],[36.22857,34.80472,388.9882],[36.24423,34.82118,437.0307],[36.27017,34.83984,645.6359],[36.27342,34.8432,690.841],[36.27528,34.84619,698.0062],[36.27559,34.84826,672.1804],[36.27544,34.85493,791.1799],[36.27358,34.86454,690.6482],[36.27373,34.86795,742.2187],[36.27435,34.87245,674.2476],[36.27653,34.88123,732.7184],[36.27823,34.88534,743.3044],[36.27963,34.88813,746.3666],[36.28226,34.89064,743.5665],[36.28381,34.89167,758.1752],[36.28707,34.89358,775.0599],[36.29482,34.89627,840.5636],[36.31316,34.90092,885.423],[36.30944,34.90764,861.8788],[36.30459,34.91273,911.8791],[36.27901,34.92766,857.3955],[36.27513,34.93079,883.8851],[36.27311,34.93363,910.1971],[36.27017,34.93993,989.7624],[36.26614,34.95389,1037.0042],[36.26009,34.96629,1024.3973],[36.2542,34.96846,907.8233],[36.24536,34.97011,759.3143],[36.20687,34.96712,686.986],[36.19069,34.96774,812.478],[36.14403,34.97533,668.0917],[36.13684,35.0022,698.8762],[36.14728,35.00753,741.6699],[36.15736,35.00794,666.622],[36.16666,35.00639,697.4755],[36.171,35.00626,697.4087],[36.17488,35.00704,726.671],[36.17813,35.00872,742.7903],[36.18433,35.01277,811.1348],[36.1879,35.01425,718.9538],[36.19214,35.01523,677.338],[36.20113,35.01639,757.0106],[36.205,35.01763,826.9438],[36.21121,35.02148,854.9424],[36.21524,35.02267,790.9604],[36.22934,35.02368,830.8798],[36.23322,35.02541,797.4678],[36.24004,35.03202,747.389],[36.24361,35.03461,862.0287],[36.25043,35.03846,939.0332],[36.25389,35.0422,946.5636],[36.25699,35.04794,950.8817],[36.26521,35.07112,1037.5652],[36.26505,35.08649,1072.9698],[36.25358,35.20441,1272.7178],[36.25296,35.22343,1167.7927],[36.21446,35.23904,1006.4159],[36.20113,35.24007,888.7361],[36.18728,35.2332,749.6741],[36.17999,35.23036,632.5464],[36.17596,35.22922,746.7158],[36.02564,35.2195,327.4688]]]}}