{"type":"Feature","properties":{"GID_1":"SYR.14_1","GID_0":"SYR","country":"Syria","province":"Tartus","VARNAME_1":"Tartaus|Tartous","NL_NAME_1":"NA","TYPE_1":"Muḥāfaẓah","ENGTYPE_1":"Governorate","CC_1":"NA","HASC_1":"SY.TA","ISO_1":"SY-TA","name":"Tartus.province"},
"geometry":{"type": "MultiPolygon","coordinates": [[[[36.2859,34.8625,797.1898],[36.3033,34.8882,830.8657],[36.3033,34.9077,930.4401],[36.3049,34.9147,911.6838],[36.2951,34.9159,867.8945],[36.2746,34.9282,939.1235],[36.2602,34.9333,929.4119],[36.2161,34.9569,624.139],[36.2049,34.9743,855.1148],[36.1936,34.9989,460.9819],[36.1751,35.0317,785.1131],[36.1751,35.0492,508.1985],[36.1854,35.0492,580.4089],[36.2069,35.0533,683.2529],[36.2192,35.0687,892.6733],[36.2295,35.0851,898.9564],[36.2326,35.1025,1060.1992],[36.2326,35.1435,997.1546],[36.2285,35.1589,980.5473],[36.2172,35.1774,944.0521],[36.1936,35.2061,671.8695],[36.1936,35.2143,735.2025],[36.1996,35.2256,907.618],[36.1854,35.2296,654.054],[36.1727,35.239,910.9153],[36.13,35.2122,658.1146],[36.1044,35.2071,781.6831],[36.0429,35.2071,384.8988],[36.0275,35.2102,199.5782],[35.9998,35.2327,192.5018],[35.9885,35.2348,108.9379],[35.944,35.2354,4.5877],[35.9482,35.2276,3.595],[35.9493,35.2132,0.0],[35.9527,35.2041,0.0],[35.9531,35.1943,0.0],[35.9518,35.1906,0.0],[35.9493,35.1888,0.0],[35.9457,35.1888,0.0],[35.9432,35.1843,0.0],[35.9307,35.1805,0.0],[35.9255,35.1735,4.3465],[35.9238,35.1732,1.7385],[35.9271,35.1629,0.0],[35.9274,35.1565,20.5568],[35.9251,35.1554,0.0],[35.9226,35.1504,6.3538],[35.9162,35.1493,0.0],[35.9168,35.1454,1.8574],[35.9126,35.1421,0.0],[35.9115,35.1361,6.2344],[35.9068,35.129,1.6394],[35.9055,35.1204,3.907],[35.9007,35.1182,9.5393],[35.8957,35.119,0.0],[35.8927,35.1093,3.5956],[35.8871,35.106,0.0],[35.8868,35.0982,0.4335],[35.8909,35.0901,0.0],[35.8921,35.0801,0.0],[35.8907,35.0737,1.5431],[35.8854,35.0651,0.787],[35.8854,35.0529,0.0],[35.8885,35.0501,0.8145],[35.8926,35.041,4.5736],[35.8985,35.0127,2.1601],[35.8971,35.0049,1.8702],[35.8943,35.0032,2.6501],[35.8932,34.9996,3.8354],[35.8904,34.9993,0.0],[35.8776,34.9893,0.0],[35.8779,34.981,4.3329],[35.8754,34.9657,0.5636],[35.871,34.9685,0.0],[35.8715,34.966,0.0],[35.8749,34.964,2.234],[35.8781,34.954,1.9967],[35.8776,34.9404,0.0],[35.8801,34.9377,2.9178],[35.8796,34.9205,0.0],[35.8782,34.9182,2.8913],[35.8724,34.916,0.0],[35.8729,34.9151,1.1391],[35.8627,34.9135,0.0],[35.859,34.9099,0.0],[35.8599,34.9093,0.0],[35.866,34.9129,0.0],[35.8713,34.9137,0.0],[35.8626,34.9104,0.0],[35.8632,34.9087,0.0],[35.8671,34.9087,1.3179],[35.8626,34.9065,0.0],[35.8674,34.9057,1.6078],[35.8643,34.9024,0.0],[35.8699,34.9032,0.0],[35.8671,34.9015,0.0],[35.8713,34.9007,0.0],[35.871,34.8993,0.3899],[35.8593,34.901,0.0],[35.8563,34.9046,0.0],[35.8554,34.9101,0.0],[35.854,34.9093,0.0],[35.8582,34.9001,0.0],[35.8732,34.8968,3.3447],[35.8749,34.8927,4.0501],[35.8743,34.8896,-0.1211],[35.8773,34.8879,1.4794],[35.8813,34.8818,2.6856],[35.8843,34.8665,1.1102],[35.8909,34.8571,1.2098],[35.8982,34.8396,0.0],[35.8999,34.8385,0.0],[35.8996,34.8357,0.0],[35.9093,34.8187,1.4527],[35.9121,34.8099,0.0],[35.9169,34.8041,1.2447],[35.9162,34.8024,0.0],[35.9265,34.7843,0.0],[35.9307,34.7663,0.426],[35.931,34.7596,0.0],[35.9287,34.756,0.0],[35.9313,34.7496,1.3911],[35.9321,34.7365,0.2341],[35.9405,34.7176,0.3548],[35.9401,34.7157,0.0],[35.9435,34.711,0.0],[35.9465,34.6999,0.0],[35.9499,34.6968,0.8351],[35.9687,34.6521,1.2657],[35.9704,34.6443,3.4177],[35.9726,34.6449,4.4856],[35.9753,34.6398,3.042],[35.9749,34.6437,1.0208],[35.98,34.6452,0.7909],[35.9794,34.6498,1.4582],[35.9848,34.6483,2.7723],[35.9894,34.6503,3.4302],[35.9893,34.6432,3.8748],[35.9911,34.6428,4.0423],[35.992,34.6448,4.0857],[35.9953,34.6427,4.5592],[36.0062,34.6456,4.8726],[36.0047,34.6422,5.8748],[36.0179,34.636,6.9778],[36.0225,34.6354,6.6042],[36.0236,34.6321,7.0215],[36.0269,34.6297,7.3643],[36.033,34.6312,7.4142],[36.0318,34.6287,8.6652],[36.0336,34.6276,7.1005],[36.0415,34.63,8.0861],[36.0511,34.628,8.7462],[36.0532,34.6324,13.9325],[36.058,34.633,8.8957],[36.0619,34.636,10.6427],[36.0636,34.6354,11.0233],[36.0637,34.6318,12.0456],[36.0665,34.6341,10.7491],[36.0724,34.6318,11.9562],[36.0726,34.6283,15.2313],[36.075,34.6289,11.4099],[36.0771,34.6339,13.5775],[36.0786,34.6344,12.9063],[36.0801,34.6336,12.3316],[36.0799,34.6307,15.3185],[36.0844,34.6322,15.7265],[36.0883,34.6292,13.7905],[36.0894,34.6307,14.3415],[36.0912,34.6291,12.321],[36.0935,34.631,14.7524],[36.0929,34.6319,14.7524],[36.0963,34.6332,14.7288],[36.0966,34.6364,15.8353],[36.1001,34.6346,19.7508],[36.1038,34.6355,17.0844],[36.108,34.6328,18.5305],[36.1145,34.6336,27.2503],[36.1153,34.6374,25.54],[36.1213,34.6419,25.2786],[36.1258,34.6419,28.2499],[36.1291,34.639,30.9185],[36.1318,34.6395,32.0016],[36.1364,34.6357,39.6305],[36.1331,34.6467,35.303],[36.1331,34.6636,36.7296],[36.1273,34.6707,29.8711],[36.1372,34.6841,67.4076],[36.1464,34.6933,81.338],[36.1587,34.7149,100.3917],[36.1608,34.7405,148.1845],[36.1721,34.7487,218.4405],[36.1977,34.7621,244.9686],[36.2705,34.841,608.4138],[36.2777,34.8533,749.6064],[36.2859,34.8625,797.1898]]],
[[[35.8607,34.859,0.0],[35.856,34.8591,0.0],[35.8563,34.854,0.0],[35.8624,34.854,0.2518],[35.8626,34.8568,0.0],[35.8607,34.859,0.0]]]]}}