{"type":"Feature","properties":{"GID_2":"SYR.8.1_1","GID_0":"SYR","country":"Syria","GID_1":"SYR.8_1","province":"Hamah","NL_NAME_1":"NA","county":"As-Suqaylabiyah","VARNAME_2":"NA","NL_NAME_2":"NA","TYPE_2":"Mantika","ENGTYPE_2":"District","CC_2":"NA","HASC_2":"NA","name":"As-Suqaylabiyah.county"},
"geometry":{"type": "MultiPolygon","coordinates": [[[[36.447,35.2589,177.2548],[36.447,35.2665,178.2089],[36.463,35.2984,177.196],[36.4638,35.3087,176.7522],[36.4693,35.3223,178.5395],[36.4654,35.3621,189.2453],[36.4693,35.3724,203.4026],[36.4781,35.3828,226.5887],[36.4893,35.3876,240.5005],[36.5219,35.39,256.84],[36.5389,35.3978,274.545],[36.5354,35.4027,280.0074],[36.5354,35.4139,282.5912],[36.5331,35.425,291.1411],[36.5219,35.4377,277.0779],[36.5116,35.4433,303.8008],[36.502,35.4457,322.2742],[36.4901,35.4457,295.2669],[36.4821,35.4377,293.8472],[36.4709,35.4314,285.5019],[36.459,35.4282,287.1532],[36.4502,35.4282,287.8183],[36.4359,35.4393,289.0803],[36.4335,35.4497,288.7737],[36.4319,35.4712,302.5005],[36.4263,35.4792,305.7672],[36.4168,35.5054,554.8982],[36.4168,35.5317,677.2032],[36.42,35.5437,757.0912],[36.42,35.554,680.2911],[36.4224,35.5644,573.1792],[36.4263,35.5723,464.9568],[36.4279,35.5819,553.5211],[36.4279,35.6249,646.439],[36.4305,35.6386,772.8123],[36.4276,35.6421,777.9801],[36.4259,35.6544,802.9391],[36.4267,35.6641,754.9862],[36.4382,35.6808,858.247],[36.4408,35.6896,845.2041],[36.4408,35.6976,651.9017],[36.4364,35.7028,405.8432],[36.4205,35.7151,247.4393],[36.4179,35.7134,237.4969],[36.4074,35.7134,228.9016],[36.3889,35.7152,208.4867],[36.3801,35.7213,190.8174],[36.3757,35.7292,210.7125],[36.3748,35.7468,219.6949],[36.3167,35.7468,164.7328],[36.2886,35.7556,274.1014],[36.271,35.7574,653.9623],[36.2622,35.7574,801.4941],[36.2507,35.753,1033.3969],[36.2394,35.7524,1033.6272],[36.2274,35.7434,1032.2142],[36.2203,35.7321,923.3403],[36.2182,35.7208,890.5872],[36.2069,35.6931,1115.9174],[36.2069,35.6675,1213.7502],[36.212,35.6552,1315.3972],[36.2203,35.648,1306.6261],[36.2274,35.6316,1242.1357],[36.2336,35.6224,809.3296],[36.2336,35.6091,1002.2869],[36.2059,35.5373,1222.0011],[36.2059,35.4901,1258.1713],[36.1874,35.4491,1044.2097],[36.1813,35.444,1071.0426],[36.1765,35.444,947.4082],[36.1803,35.4358,1062.2345],[36.1803,35.4204,1102.9996],[36.1864,35.4081,1119.4304],[36.1915,35.3845,1175.2815],[36.1997,35.3732,1227.989],[36.2038,35.3445,1221.0632],[36.2049,35.3086,1337.0532],[36.2028,35.2922,1151.9012],[36.1967,35.2789,1097.8748],[36.1949,35.2783,1159.2739],[36.1936,35.2686,1173.6389],[36.1727,35.239,910.9153],[36.1854,35.2296,654.054],[36.2069,35.2235,731.1247],[36.2213,35.2143,1036.8801],[36.2746,35.2091,996.7809],[36.29,35.2091,784.1752],[36.306399999999996,35.2132,846.321],[36.3207,35.2266,888.1678],[36.3566,35.2471,200.5382],[36.3843,35.2502,193.6227],[36.4243,35.2614,176.4598],[36.447,35.2589,177.2548]]]]}}