{"type":"Feature","properties":{"GID_2":"SYR.3.1_1","GID_0":"SYR","country":"Syria","GID_1":"SYR.3_1","province":"ArRaqqah","NL_NAME_1":"NA","county":"Ar-Raqqah","VARNAME_2":"NA","NL_NAME_2":"NA","TYPE_2":"Mantika","ENGTYPE_2":"District","CC_2":"NA","HASC_2":"NA","name":"Ar-Raqqah.county"},
"geometry":{"type": "MultiPolygon","coordinates": [[[[38.4698,36.2934,424.299],[38.4803,36.2882,425.2881],[38.4932,36.2753,414.5376],[38.4932,36.2323,377.268],[38.4875,36.2251,373.3878],[38.4775,36.2165,386.014],[38.4732,36.1921,373.4217],[38.4732,36.1778,386.9282],[38.4875,36.1664,379.0682],[38.5133,36.1664,372.1434],[38.5133,36.1563,369.1434],[38.5061,36.1449,381.4202],[38.4918,36.1391,385.7538],[38.466,36.1133,390.7633],[38.4646,36.0804,389.1065],[38.4445,36.0316,378.1467],[38.4388,36.013,348.6486],[38.4345,36.0073,350.8026],[38.4288,35.9628,303.8748],[38.4288,35.9385,299.5],[38.4359,35.9242,299.5],[38.4474,35.9184,299.5],[38.4846,35.9184,337.7907],[38.5047,35.9156,310.5024],[38.5176,35.9113,341.045],[38.5205,35.9055,309.1021],[38.5119,35.8912,299.5],[38.499,35.8754,299.5],[38.499,35.864,299.5],[38.5334,35.8654,299.5],[38.5405,35.8554,299.5],[38.5377,35.8439,332.9431],[38.5276,35.8353,352.155],[38.5291,35.7909,354.8258],[38.519,35.7765,354.7731],[38.519,35.7579,364.1831],[38.5233,35.7507,352.0643],[38.5362,35.7479,346.4461],[38.5506,35.7493,336.1005],[38.5663,35.7608,329.6244],[38.5907,35.7866,321.1937],[38.6652,35.7837,304.2645],[38.6796,35.7851,294.8668],[38.7096,35.798,275.6358],[38.7197,35.8066,270.3962],[38.7354,35.8167,264.3576],[38.7354,35.821,261.991],[38.7268,35.8367,270.716],[38.7268,35.8425,269.5275],[38.7354,35.8511,269.7471],[38.7483,35.8568,258.7088],[38.7569,35.8539,268.9289],[38.7641,35.8482,264.7427],[38.7756,35.8468,264.8875],[38.7885,35.8568,277.7854],[38.7942,35.8683,306.1282],[38.8587,35.8711,322.5565],[38.8773,35.8697,336.0317],[38.8788,35.8654,340.1727],[38.8788,35.8554,347.0162],[38.8702,35.8539,340.953],[38.853,35.8453,330.9315],[38.8286,35.821,309.0938],[38.8286,35.8023,310.6361],[38.8171,35.7665,310.8163],[38.7856,35.7364,277.067],[38.7641,35.7292,276.7397],[38.7426,35.7034,285.0857],[38.7182,35.6948,283.714],[38.7068,35.6748,288.3003],[38.7039,35.6562,296.7833],[38.6982,35.639,297.0511],[38.6968,35.6175,298.8863],[38.6781,35.616,299.2184],[38.6595,35.6103,303.438],[38.6237,35.6046,303.2753],[38.5936,35.5931,312.6715],[38.5979,35.573,313.5656],[38.5993,35.5572,318.4794],[38.6093,35.5429,313.6393],[38.6093,35.5271,315.9296],[38.6036,35.5142,319.9075],[38.5692,35.477,329.5036],[38.5534,35.4282,346.3872],[38.5534,35.3795,364.3375],[38.605,35.3652,363.9947],[38.6681,35.3666,375.8656],[38.7211,35.3594,431.6498],[38.873,35.3265,519.4969],[38.9504,35.3079,521.2952],[39.1181,35.2763,589.0046],[39.2299,35.2477,718.0453],[39.2972,35.2376,693.1721],[39.3875,35.3265,724.5745],[39.5007,35.454,696.9305],[39.5624,35.52,602.5482],[39.6416,35.6446,326.9388],[39.6545,35.6475,325.146],[39.6775,35.6475,328.2278],[39.6975,35.6518,316.8932],[39.7133,35.659,309.852],[39.7362,35.6934,278.7253],[39.7391,35.7622,219.4613],[39.7434,35.7794,229.5672],[39.7405,35.7937,243.1883],[39.7348,35.8037,256.4345],[39.7334,35.8424,258.4333],[39.7276,35.8653,264.5863],[39.6889,35.9327,296.343],[39.6746,35.9528,321.3674],[39.6717,35.9671,323.6295],[39.6717,35.9886,331.0453],[39.6861,36.013,315.6901],[39.6961,36.0517,331.6818],[39.6975,36.0703,338.9877],[39.7319,36.1591,409.5156],[39.7391,36.1881,435.9934],[39.7377,36.1847,431.0628],[39.7119,36.1732,424.8],[39.6703,36.1847,433.6557],[39.6574,36.1861,436.7977],[39.6531,36.2062,434.5438],[39.6431,36.2148,438.5201],[39.6044,36.2377,458.6044],[39.5729,36.2535,453.7686],[39.4955,36.2807,435.8687],[39.441,36.2907,445.0701],[39.4281,36.2964,429.0909],[39.4267,36.3093,428.6928],[39.4224,36.3151,444.8727],[39.3765,36.3136,424.9732],[39.3436,36.3194,438.8672],[39.3321,36.3495,406.8431],[39.3163,36.3566,406.1879],[39.2447,36.3609,366.5663],[39.2017,36.3609,347.5158],[39.1945,36.348,350.7347],[39.1487,36.3251,332.1417],[39.1329,36.3222,328.4039],[39.1214,36.3222,323.763],[39.0612,36.3409,295.5032],[38.842,36.3394,344.2649],[38.819,36.3194,341.0289],[38.8076,36.3136,325.2039],[38.7746,36.3179,345.3815],[38.7646,36.3237,350.9337],[38.756,36.3437,353.6327],[38.7374,36.3595,347.1622],[38.7245,36.3638,340.472],[38.7015,36.3652,349.941],[38.6929,36.371,352.7066],[38.6829,36.3681,363.9161],[38.6729,36.3595,388.2827],[38.6585,36.3581,386.3496],[38.637,36.3681,400.136],[38.6313,36.3724,424.7381],[38.6238,36.3724,424.3936],[38.5549,36.3194,395.2061],[38.5176,36.3122,424.9771],[38.4698,36.2934,424.299]]]]}}