{"type":"Feature","properties":{"GID_2":"SYR.2.3_1","GID_0":"SYR","country":"Syria","GID_1":"SYR.2_1","province":"Aleppo","NL_NAME_1":"NA","county":"Afrin","VARNAME_2":"NA","NL_NAME_2":"NA","TYPE_2":"Mantika","ENGTYPE_2":"District","CC_2":"NA","HASC_2":"NA","name":"Afrin.county"},
"geometry":{"type": "MultiPolygon","coordinates": [[[[37.0542,36.6493,655.9335],[37.0485,36.6532,658.2103],[37.0314,36.6577,686.7491],[37.028,36.6606,723.9575],[37.0279,36.6655,701.8313],[37.0332,36.6784,641.9061],[37.0566,36.7127,782.9006],[37.0581,36.7207,731.1604],[37.056,36.7243,672.4379],[37.0518,36.7268,631.4276],[37.0199,36.737,464.2555],[37.0095,36.7431,447.8935],[36.9989,36.7553,369.4809],[36.9888,36.762,386.0444],[36.9444,36.7812,455.5566],[36.9027,36.7777,527.6586],[36.8796,36.7814,605.7],[36.8042,36.7986,1152.5178],[36.739,36.8242,619.7836],[36.6853,36.8348,432.5305],[36.6755,36.8456,376.5059],[36.6707,36.8427,373.841],[36.6684,36.8363,370.0619],[36.6776,36.8213,380.5074],[36.6782,36.8112,374.5406],[36.6703,36.7998,361.0656],[36.6328,36.7663,381.6332],[36.6271,36.7577,410.111],[36.624,36.7471,457.2238],[36.6252,36.7425,424.9373],[36.6351,36.728,312.0933],[36.6387,36.7116,418.0549],[36.6369,36.7051,445.7396],[36.6278,36.6953,379.8816],[36.6188,36.68,498.9282],[36.6064,36.6715,255.8933],[36.5919,36.6501,276.0569],[36.588,36.636,268.1547],[36.5879,36.6305,257.916],[36.6006,36.6005,465.4604],[36.6029,36.591,406.633],[36.6042,36.5791,401.5745],[36.5999,36.562,354.7589],[36.5961,36.5557,340.248],[36.5913,36.5375,320.631],[36.5833,36.5227,266.0782],[36.5734,36.5121,229.2959],[36.553,36.5011,195.6],[36.5529,36.497,192.705],[36.557,36.4918,191.3663],[36.555,36.4858,190.1137],[36.5678,36.4677,220.8588],[36.5685,36.445,219.7641],[36.5735,36.4423,209.9205],[36.5756,36.4386,196.3156],[36.5769,36.4248,177.1521],[36.585,36.4117,167.804],[36.5867,36.4019,152.647],[36.5891,36.3978,148.8355],[36.5932,36.3942,155.614],[36.5993,36.3923,219.315],[36.6067,36.3913,381.4556],[36.6157,36.3927,325.0516],[36.6226,36.3912,316.0129],[36.6235,36.388,274.8086],[36.6203,36.3749,236.9321],[36.6278,36.3597,174.7026],[36.6277,36.3542,163.4964],[36.612,36.3407,147.2487],[36.6077,36.3329,117.4663],[36.6078,36.3299,117.5951],[36.6116,36.3279,122.0929],[36.6215,36.3288,128.5151],[36.6394,36.3356,141.6467],[36.6502,36.3361,149.9147],[36.6593,36.334,170.4244],[36.6662,36.3302,202.8658],[36.6692,36.3262,223.0034],[36.669,36.3143,182.364],[36.6899,36.3157,233.4649],[36.6993,36.3183,271.8302],[36.7117,36.3183,308.9344],[36.7231,36.3136,357.6284],[36.7359,36.3192,413.4255],[36.7301,36.3317,395.1949],[36.7406,36.3361,414.0311],[36.7538,36.3388,409.4632],[36.7926,36.3265,457.6353],[36.819,36.3062,530.8067],[36.8287,36.3018,503.4454],[36.8885,36.3018,589.4436],[36.9219,36.2921,508.5815],[36.9668,36.2912,520.6793],[36.9809,36.2983,463.373],[36.9959,36.3088,446.9064],[37.0108,36.3326,398.2412],[37.0108,36.3409,437.3869],[37.0056,36.3409,417.7095],[36.9841,36.3466,452.6666],[36.9741,36.3652,441.2236],[36.9555,36.3853,504.1592],[36.9526,36.3996,478.2973],[36.9598,36.4125,528.1587],[37.0042,36.4125,445.6965],[37.0128,36.4154,428.6277],[37.0142,36.4312,446.0374],[37.0099,36.4455,483.6297],[36.9813,36.4713,495.2111],[36.9727,36.4871,490.7343],[36.9641,36.5229,553.049],[36.9626,36.5372,561.5215],[36.9641,36.5558,595.7946],[36.9827,36.5601,600.1912],[37.0056,36.573,540.9225],[37.0214,36.5874,573.7664],[37.0343,36.6074,596.0022],[37.04,36.6232,643.11],[37.0542,36.6493,655.9335]]]]}}