{"type":"Feature","properties":{"GID_2":"SYR.8.5_1","GID_0":"SYR","country":"Syria","GID_1":"SYR.8_1","province":"Hamah","NL_NAME_1":"NA","county":"Salamiyah","VARNAME_2":"NA","NL_NAME_2":"NA","TYPE_2":"Mantika","ENGTYPE_2":"District","CC_2":"NA","HASC_2":"NA","name":"Salamiyah.county"},
"geometry":{"type": "MultiPolygon","coordinates": [[[[37.6585,35.4439,370.8791],[37.6407,35.431,374.4791],[37.6251,35.4271,367.5402],[37.6087,35.4271,363.5964],[37.5877,35.4294,356.9058],[37.5683,35.4341,352.4711],[37.5441,35.4442,344.8959],[37.5052,35.445,344.6399],[37.4951,35.4411,344.9256],[37.4842,35.4333,340.0855],[37.4748,35.424,342.0349],[37.4709,35.4139,343.3305],[37.4709,35.3959,357.5941],[37.4741,35.3718,362.469],[37.4717,35.3391,380.0708],[37.4663,35.3298,385.7706],[37.4569,35.3197,393.2556],[37.4421,35.3064,413.0505],[37.4242,35.2955,418.5492],[37.3947,35.2909,428.3871],[37.2685,35.2916,434.2698],[37.2475,35.2877,437.742],[37.2366,35.2784,445.4888],[37.2125,35.2488,493.0616],[37.2031,35.2418,477.2366],[37.1899,35.2371,464.3169],[37.1486,35.2379,422.2941],[37.1323,35.2434,429.551],[37.1152,35.2535,420.4018],[37.1012,35.2652,429.8298],[37.0926,35.2745,433.5035],[37.0962,35.2822,445.0587],[37.0842,35.2824,443.1071],[37.0539,35.2681,415.0241],[37.0348,35.2673,492.0199],[37.0165,35.2697,461.6492],[37.0091,35.2766,478.3615],[36.9924,35.2573,506.0847],[36.9575,35.2491,527.5759],[36.9452,35.2389,526.5729],[36.9288,35.2286,508.722],[36.9196,35.2194,504.876],[36.9196,35.202,524.4513],[36.9216,35.1876,529.2183],[36.9278,35.1702,558.5433],[36.9309,35.1548,566.1022],[36.9309,35.1384,478.6367],[36.9268,35.121,424.1664],[36.9022,35.0943,364.0966],[36.9042,35.0799,363.7906],[36.9227,35.0471,362.6789],[36.9288,35.0297,386.6584],[36.9297,34.9969,419.6996],[36.9452,34.9876,484.4364],[36.9811,34.9518,479.5066],[36.9904,34.9312,490.8636],[36.9904,34.9138,497.6199],[36.9881,34.8996,505.3369],[36.9933,34.8933,514.0729],[37.0018,34.8833,516.5194],[37.0241,34.8663,529.7733],[37.041,34.8617,536.6244],[37.0579,34.861,557.0844],[37.071,34.8625,567.9014],[37.081,34.8679,571.5022],[37.0871,34.8748,559.3444],[37.0994,34.8825,576.9033],[37.1148,34.8863,584.2033],[37.1448,34.8979,588.4547],[37.1625,34.9071,601.837],[37.1786,34.9086,613.2679],[37.1948,34.9125,607.0629],[37.2017,34.9163,616.8214],[37.2086,34.9171,621.5756],[37.2294,34.9133,636.4064],[37.2525,34.9133,659.0602],[37.264,34.9317,636.8281],[37.2732,34.9379,635.0797],[37.2971,34.9363,647.2581],[37.314,34.9194,677.6765],[37.3255,34.9102,697.2781],[37.3394,34.9071,703.1246],[37.3663,34.9094,733.4153],[37.3755,34.9179,737.4156],[37.3871,34.9333,715.3477],[37.4017,34.9463,698.1628],[37.4201,34.9509,738.1024],[37.4324,34.9571,742.7382],[37.4386,34.9648,752.2567],[37.4432,34.9886,709.3462],[37.4824,35.0217,704.0174],[37.5293,35.0548,676.3011],[37.5693,35.0732,636.8847],[37.6432,35.0971,617.4944],[37.7262,35.1148,611.84],[37.7516,35.114,611.6313],[37.7916,35.1032,627.1317],[37.8254,35.0832,683.3652],[37.8447,35.0663,755.8071],[37.8585,35.0432,876.1815],[37.8639,35.0279,861.8403],[37.8739,35.0117,869.3442],[37.93,34.9517,1131.5886],[37.9454,34.9386,1184.3374],[37.9654,34.914,1206.3893],[37.9785,34.9056,1153.46],[37.993899999999996,34.9002,1117.1687],[38.0139,34.9033,1115.401],[38.0269,34.9163,1080.9548],[38.0339,34.931,1038.9681],[38.0385,34.9486,1005.2828],[38.0477,34.9725,941.9354],[38.0569,34.9925,888.006],[38.0785,35.0163,821.6962],[38.0962,35.0317,787.9602],[38.1508,35.0532,726.6468],[38.1846,35.0694,691.4996],[38.243,35.1255,581.6952],[38.263,35.154,556.4841],[38.3069,35.2509,507.2441],[38.3114,35.3313,420.1601],[38.3205,35.3611,392.8041],[38.3008,35.3737,388.7733],[38.2977,35.3894,378.1716],[38.2617,35.4176,381.9398],[38.2461,35.4269,398.8211],[38.2312,35.4395,409.9972],[38.2114,35.4318,414.557],[38.1727,35.4354,403.5984],[38.1105,35.426,441.2644],[38.0084,35.426,422.6361],[37.9357,35.4295,418.0369],[37.9075,35.433,423.2218],[37.8958,35.4283,428.0003],[37.8782,35.4248,433.7559],[37.8629,35.4154,438.0425],[37.8477,35.4095,442.4808],[37.8277,35.4084,443.5352],[37.789,35.4119,423.4269],[37.7749,35.4213,414.6866],[37.7717,35.4276,409.9207],[37.735,35.4295,400.8651],[37.667,35.4377,380.7021],[37.6585,35.4439,370.8791]]]]}}