{"type":"Feature","properties":{"GID_1":"SYR.4_1","GID_0":"SYR","country":"Syria","province":"AsSuwayda'","VARNAME_1":"DjebelDruze|JabalDruze|JebelD","NL_NAME_1":"NA","TYPE_1":"Muḥāfaẓah","ENGTYPE_1":"Governorate","CC_1":"NA","HASC_1":"SY.SU","ISO_1":"SY-SU","name":"As_Suwayda'.province"},
"geometry":{"type": "MultiPolygon","coordinates": [[[[37.4102,32.6353,863.1014],[37.5103,32.6888,800.8246],[37.4999,32.7103,762.6561],[37.4813,32.7314,727.149],[37.4465,32.7551,775.3224],[37.4067,32.7849,757.344],[37.3607,32.8272,689.14],[37.3421,32.847,642.417],[37.3358,32.8669,648.1745],[37.3358,32.898,631.4503],[37.3259,32.9142,608.7596],[37.3097,32.9278,605.9095],[37.2774,32.9303,611.9471],[37.2277,32.9303,615.9702],[37.2103,32.9378,597.7192],[37.1917,32.9502,604.188],[37.1842,32.9589,606.4304],[37.1805,32.9912,620.9569],[37.1767,33.0024,627.7131],[37.1606,33.0161,619.3741],[37.1407,33.0248,612.761],[37.1165,33.0209,600.7518],[37.1059,33.0323,599.9364],[37.0848,33.0347,598.4524],[37.04,33.0335,630.569],[37.0276,33.0347,646.6664],[37.0189,33.0385,637.248],[37.0176,33.0671,612.1273],[37.0127,33.0919,606.9756],[37.004,33.1106,621.1214],[36.9828,33.1292,625.7622],[36.953,33.1653,639.4032],[36.9219,33.1976,628.3696],[36.9033,33.22,628.9319],[36.8772,33.2274,616.9926],[36.7578,33.205,651.0876],[36.6932,33.1976,656.7],[36.5776,33.1802,675.7578],[36.5428,33.169,645.6296],[36.5229,33.1516,642.1065],[36.5105,33.1342,650.8351],[36.5105,33.0758,699.2383],[36.5217,33.0621,707.551],[36.5391,33.0546,713.756],[36.5801,33.0434,753.0604],[36.595,33.0323,761.4583],[36.5962,33.0198,787.4473],[36.5888,33.0037,772.9415],[36.5689,32.9912,775.1241],[36.5428,32.9912,769.2134],[36.5154,32.9863,764.9276],[36.4545,32.985,720.8429],[36.4409,32.9825,714.7462],[36.4259,32.9676,703.0374],[36.4094,32.9594,693.944],[36.4172,32.9428,716.1016],[36.4185,32.9365,716.5017],[36.3998,32.9365,692.0034],[36.3899,32.9229,680.7015],[36.3874,32.8359,692.2811],[36.3874,32.7377,694.563],[36.3911,32.7004,706.2537],[36.3961,32.6966,721.3034],[36.4334,32.6904,760.0414],[36.4496,32.6854,772.3419],[36.4694,32.6743,808.4547],[36.4744,32.6556,805.9677],[36.4732,32.6444,799.5299],[36.462,32.6357,803.2468],[36.4284,32.6245,764.908],[36.421,32.6146,773.0643],[36.4235,32.6084,772.166],[36.4483,32.5922,788.062],[36.4732,32.581,815.1835],[36.5067,32.5711,897.1393],[36.5291,32.5674,948.5342],[36.544,32.5599,953.5406],[36.5567,32.5301,969.1442],[36.5465,32.5238,956.5924],[36.5328,32.5089,938.6805],[36.5304,32.4965,928.8384],[36.5304,32.4878,939.7723],[36.5527,32.4592,984.2257],[36.5552,32.4493,968.8586],[36.5527,32.3971,933.5964],[36.5546,32.3521,913.8404],[36.6704,32.3423,1065.4742],[36.6921,32.3391,1111.6815],[36.7133,32.3252,1067.5044],[36.72,32.3251,1069.1648],[36.7384,32.3324,1119.79],[36.8254,32.3107,1057.6561],[36.8458,32.3125,1091.1351],[36.8893,32.3482,1152.6396],[36.9562,32.3908,1168.3003],[37.4102,32.6353,863.1014]]]]}}