{"type":"Feature","properties":{"ISO3166-1-Alpha-3":"SYR","country":"Syria","fill":"#FF0","id":"143","name":"As Suwayda'"},
"geometry":{"type": "Polygon","coordinates": [[[37.19637,32.94494,599.9756],[37.1835,32.94993,602.6504],[37.1326,32.97478,607.4949],[37.13074,32.98096,603.5078],[37.12903,32.98323,601.7234],[37.12655,32.98494,600.3026],[37.12438,32.98708,600.1613],[37.12345,32.98827,599.6618],[37.12283,32.98956,599.559],[37.12159,32.99101,600.4415],[37.12081,32.99248,599.5107],[37.11942,32.99535,599.5408],[37.11833,32.99677,599.8906],[37.1157,32.99902,599.751],[37.11399,33.00008,599.8007],[37.11384,33.00023,599.8007],[37.11368,33.00031,599.8007],[37.11244,33.0014,599.8254],[37.11043,33.00372,599.703],[37.10826,33.00651,599.3334],[37.10655,33.00943,599.4978],[37.10609,33.01078,602.4432],[37.10593,33.01194,602.4432],[37.10562,33.01767,599.2771],[37.1064,33.02119,600.2722],[37.10655,33.02385,600.4529],[37.1064,33.02556,600.516],[37.10593,33.02724,599.4771],[37.10531,33.02894,601.94],[37.10438,33.03052,603.1728],[37.1033,33.03189,599.4777],[37.1019,33.03302,603.4402],[37.0988,33.03499,603.3224],[37.08717,33.04062,603.6132],[37.08201,33.04395,600.4954],[37.07937,33.04615,598.1998],[37.07782,33.04718,598.1426],[37.0727,33.04982,598.305],[37.00769,33.06168,611.7823],[37.0018,33.06175,614.9536],[36.9846,33.06374,644.0554],[36.98118,33.06522,643.8508],[36.96067,33.07806,666.258],[36.95803,33.08046,663.8508],[36.9571,33.08188,663.8508],[36.95633,33.08348,662.2584],[36.95509,33.08721,659.915],[36.95431,33.09124,662.514],[36.95369,33.10007,653.2531],[36.9509,33.10839,638.1689],[36.94935,33.11183,630.5429],[36.94796,33.11397,630.36],[36.94594,33.11622,632.9343],[36.9107,33.1463,643.2454],[36.90837,33.14888,650.5478],[36.90682,33.15214,639.0134],[36.90465,33.16395,633.3433],[36.90357,33.16743,634.4213],[36.89954,33.17379,627.4316],[36.88837,33.18449,618.2354],[36.88527,33.1865,619.1902],[36.85623,33.19973,619.3919],[36.84755,33.20544,619.0485],[36.83933,33.21247,615.1992],[36.83484,33.21549,618.8377],[36.82554,33.22366,612.532],[36.82383,33.22469,613.2612],[36.57087,33.19397,658.2278],[36.5515,33.1857,650.0124],[36.54343,33.18423,635.6099],[36.51532,33.18707,622.499],[36.50897,33.18694,621.2948],[36.50478,33.1864,617.5014],[36.48773,33.17531,623.6279],[36.48199,33.17084,624.4565],[36.47718,33.16575,615.619],[36.47419,33.16118,619.1096],[36.47233,33.15648,621.976],[36.47109,33.15198,631.0417],[36.47098,33.14911,635.707],[36.47129,33.14671,636.9901],[36.47191,33.14485,639.5222],[36.47388,33.13973,645.952],[36.47481,33.13596,650.29],[36.47501,33.13371,657.2361],[36.47408,33.12744,661.7207],[36.47284,33.12204,664.0337],[36.47253,33.11891,666.1143],[36.47264,33.1164,668.4539],[36.47481,33.10912,671.6686],[36.47765,33.1024,678.2578],[36.48447,33.08992,688.0458],[36.48587,33.08638,685.6016],[36.48664,33.08258,686.6299],[36.48711,33.07852,684.4153],[36.48757,33.063,687.033],[36.48804,33.06111,688.7432],[36.48897,33.05943,690.0603],[36.49129,33.05687,695.9369],[36.49253,33.05573,695.9369],[36.49424,33.05486,690.9608],[36.49594,33.05418,690.806],[36.49796,33.05385,697.0553],[36.49966,33.0538,698.1069],[36.50106,33.05395,698.1069],[36.51656,33.05865,711.762],[36.51873,33.05907,712.6466],[36.52354,33.05938,706.0326],[36.52586,33.05927,704.3667],[36.52824,33.05876,707.0933],[36.52989,33.05798,707.7958],[36.53134,33.05687,710.7221],[36.53238,33.0555,712.1826],[36.53336,33.05395,711.0673],[36.53444,33.05046,721.1266],[36.53584,33.02664,729.0812],[36.5363,33.02478,731.776],[36.53677,33.02297,734.1707],[36.53847,33.01959,742.442],[36.54312,33.01163,756.0273],[36.54514,33.00636,759.1609],[36.54483,33.00383,758.2905],[36.54374,33.0022,763.3732],[36.54157,33.00171,765.8491],[36.53677,33.00127,764.9071],[36.4778,33.00463,726.6735],[36.43745,33.00248,695.8595],[36.42675,33.00008,697.9247],[36.41931,32.997,691.1084],[36.38856,32.97724,666.0632],[36.37476,32.96602,655.5624],[36.36277,32.96003,648.3554],[36.34681,32.94995,641.4363],[36.34324,32.94677,636.7284],[36.34122,32.94391,634.6256],[36.34107,32.94184,632.6599],[36.34138,32.93975,637.371],[36.34262,32.93631,633.7128],[36.34525,32.93163,644.0361],[36.34603,32.93001,646.8027],[36.34665,32.92815,648.9767],[36.34696,32.92634,651.975],[36.34712,32.92427,652.4661],[36.34681,32.92238,644.2931],[36.34634,32.92047,641.0482],[36.33812,32.90675,629.0034],[36.33688,32.90329,630.3792],[36.33642,32.90135,628.7926],[36.33626,32.89921,631.3796],[36.33704,32.89316,638.5878],[36.33967,32.88611,643.68],[36.34215,32.87577,645.1597],[36.35998,32.83986,663.1874],[36.3636,32.82939,666.9628],[36.36267,32.82616,671.1717],[36.36215,32.82528,671.3681],[36.36029,32.82288,668.9576],[36.36029,32.80699,677.6165],[36.3681,32.74009,677.7764],[36.3574,32.7317,668.8523],[36.35502,32.72674,665.5027],[36.35425,32.72033,663.7702],[36.35425,32.71599,666.0999],[36.35518,32.70981,671.4473],[36.3558,32.70741,675.5173],[36.35719,32.70467,671.9163],[36.35967,32.70033,672.7185],[36.36143,32.69826,670.5848],[36.36277,32.6971,670.5848],[36.36577,32.69607,669.0328],[36.37027,32.69527,674.4867],[36.37507,32.69516,685.0959],[36.3774,32.69488,689.3109],[36.37972,32.69441,694.5961],[36.39507,32.68899,729.4009],[36.39941,32.68798,731.2469],[36.41941,32.6864,750.9468],[36.42411,32.68478,758.6676],[36.43047,32.68188,766.3585],[36.44349,32.67434,775.7814],[36.44814,32.67018,781.2229],[36.45062,32.66677,779.5639],[36.45047,32.66243,786.2421],[36.4483,32.65501,786.7007],[36.44737,32.65349,776.6079],[36.44644,32.65214,776.6079],[36.44365,32.64982,780.7936],[36.4407,32.64772,781.9448],[36.43357,32.64465,777.2623],[36.43016,32.64276,773.0081],[36.42876,32.64163,768.0623],[36.42365,32.63659,757.3081],[36.42225,32.6355,754.6957],[36.4207,32.63465,752.8762],[36.41693,32.63325,750.9567],[36.40437,32.63,771.3221],[36.40236,32.6286,770.9351],[36.40019,32.62659,763.0583],[36.39879,32.62134,760.0015],[36.39972,32.61679,761.5601],[36.40561,32.6055,772.9424],[36.40639,32.60245,763.1381],[36.4053,32.59873,747.6426],[36.40205,32.59111,738.3143],[36.40112,32.58783,742.0479],[36.40003,32.58142,739.5226],[36.40065,32.5785,745.2847],[36.4022,32.57669,744.7219],[36.41869,32.57437,754.988],[36.43434,32.57416,768.212],[36.45326,32.57687,785.0702],[36.45558,32.57693,787.3774],[36.45806,32.57646,788.7296],[36.46039,32.57576,790.7944],[36.46458,32.57197,801.0939],[36.4669,32.5693,805.8943],[36.47067,32.56675,819.9752],[36.47419,32.56517,823.5703],[36.47625,32.56458,827.5236],[36.47858,32.5645,830.2127],[36.49501,32.56618,863.9252],[36.50664,32.55062,880.9655],[36.50819,32.54468,889.4154],[36.50726,32.54318,889.6106],[36.50075,32.53556,879.3577],[36.49548,32.52556,868.3948],[36.4947,32.52223,868.2842],[36.49501,32.51962,870.5635],[36.49997,32.51336,891.3956],[36.51377,32.50008,894.2746],[36.52369,32.48673,921.9553],[36.52607,32.48226,931.8197],[36.52731,32.47869,929.9351],[36.52648,32.47032,921.7897],[36.52555,32.46644,916.5739],[36.51873,32.44704,912.3395],[36.51811,32.44257,912.6074],[36.52106,32.39425,890.3859],[36.52028,32.39161,889.9155],[36.51625,32.36314,848.1985],[36.51667,32.35728,857.9491],[36.51668,32.35701,858.3297],[36.6535,32.34286,1052.4858],[36.68957,32.31966,1072.2499],[36.70694,32.32834,1083.9647],[36.72864,32.3278,1097.1611],[36.79251,32.31353,1062.1803],[36.80657,32.31304,1059.1581],[36.81939,32.31679,1065.5844],[36.9801,32.41004,1173.1155],[37.13316,32.49448,799.0432],[37.13316,32.49453,799.0432],[37.13337,32.49453,799.0432],[37.13337,32.49458,799.0432],[37.24406,32.5544,737.9736],[37.41521,32.64713,856.4934],[37.49461,32.69006,799.4177],[37.49433,32.69036,799.4177],[37.47754,32.7088,769.1584],[37.46855,32.71697,754.3345],[37.41981,32.74715,758.6119],[37.28391,32.86259,623.3297],[37.28127,32.86629,623.0887],[37.28065,32.86717,632.4071],[37.28018,32.86864,632.4071],[37.27925,32.87236,630.2916],[37.27476,32.91815,619.2919],[37.27166,32.92799,614.3346],[37.27026,32.93132,614.0839],[37.2684,32.93445,610.9909],[37.26422,32.94006,603.1792],[37.25719,32.94631,604.6414],[37.24138,32.95073,594.7853],[37.2127,32.95174,596.2958],[37.20789,32.9507,600.0667],[37.2052,32.94833,602.0117],[37.20365,32.94734,602.5276],[37.202,32.94649,601.8273],[37.19823,32.94525,600.6481],[37.19637,32.94494,599.9756]]]}}