{"type":"Feature","properties":{"GID_2":"SYR.13.1_1","GID_0":"SYR","country":"Syria","GID_1":"SYR.13_1","province":"RifDimashq","NL_NAME_1":"NA","county":"Al-Qutayfah","VARNAME_2":"NA","NL_NAME_2":"NA","TYPE_2":"Mantika","ENGTYPE_2":"District","CC_2":"NA","HASC_2":"NA","name":"Al-Qutayfah.county"},
"geometry":{"type": "MultiPolygon","coordinates": [[[[37.005,34.1015,1014.7903],[36.9905,34.1023,1096.9431],[36.9794,34.0985,1108.7992],[36.9691,34.0911,1134.146],[36.9505,34.0892,1261.6881],[36.9318,34.0817,1462.9338],[36.9001,34.0799,1737.3925],[36.8628,34.0734,1574.1069],[36.847,34.064,1673.2352],[36.8376,34.0528,1655.3745],[36.8283,34.0351,1520.6549],[36.8227,34.0137,1395.0537],[36.8134,33.995,1368.1486],[36.7593,33.9382,1439.2275],[36.736,33.9214,1452.0583],[36.7109,33.9111,1406.9594],[36.6959,33.9009,1447.3857],[36.667,33.8869,1410.8885],[36.6512,33.8804,1394.3689],[36.6372,33.8794,1424.3538],[36.6223,33.8757,1457.6819],[36.6074,33.8869,1513.5425],[36.6018,33.8953,1621.6431],[36.6008,33.9121,1481.8452],[36.5984,33.9242,1485.2817],[36.5747,33.9214,1471.0562],[36.5617,33.9149,1530.7998],[36.5449,33.9111,1476.0264],[36.5337,33.9009,1486.2729],[36.516,33.8748,1617.2231],[36.5011,33.8347,1644.5945],[36.4955,33.8235,1664.3717],[36.4997,33.823,1596.0007],[36.5063,33.8155,1530.9092],[36.5091,33.7997,1352.4175],[36.5063,33.7838,1262.5358],[36.496,33.7726,1231.7164],[36.4802,33.7624,1227.7775],[36.4718,33.7493,1233.8772],[36.4671,33.7372,1218.8038],[36.4671,33.7009,1150.1187],[36.4662,33.6887,1245.3414],[36.4638,33.6836,1102.1785],[36.489,33.666,1242.1941],[36.4964,33.6585,1155.995],[36.5235,33.6557,765.3757],[36.5719,33.6557,666.2566],[36.5841,33.6613,718.9767],[36.599,33.6715,811.8946],[36.626,33.6846,929.7273],[36.6913,33.6893,797.5595],[36.7146,33.7051,781.7667],[36.764,33.7443,840.9678],[36.7873,33.7536,822.4795],[36.8162,33.762,814.8071],[36.8442,33.776,858.1652],[36.8647,33.7899,887.3439],[36.9001,33.8207,886.4772],[36.929,33.8347,870.9894],[36.9579,33.8589,861.9089],[37.0157,33.8841,885.3992],[37.0465,33.8925,881.3522],[37.0698,33.9037,891.6387],[37.1043,33.9065,914.1945],[37.1518,33.9512,943.621],[37.1546,33.9643,921.0015],[37.1453,33.9783,924.2499],[37.1313,33.9876,918.756],[37.1108,34.0044,922.637],[37.0782,34.0379,1142.1472],[37.0614,34.0584,866.1058],[37.0362,34.0827,915.5792],[37.005,34.1015,1014.7903]]]]}}