{"type":"Feature","properties":{"GID_2":"SYR.2.5_1","GID_0":"SYR","country":"Syria","GID_1":"SYR.2_1","province":"Aleppo","NL_NAME_1":"NA","county":"As-Safirah","VARNAME_2":"NA","NL_NAME_2":"NA","TYPE_2":"Mantika","ENGTYPE_2":"District","CC_2":"NA","HASC_2":"NA","name":"As-Safirah.county"},
"geometry":{"type": "MultiPolygon","coordinates": [[[[37.336,36.2143,411.2729],[37.3231,36.1993,395.8096],[37.3032,36.1875,392.4126],[37.3008,36.1735,380.9065],[37.2961,36.1606,370.8919],[37.2785,36.1512,378.312],[37.2703,36.1441,382.5986],[37.2586,36.1207,390.2982],[37.2515,36.1148,400.234],[37.2187,36.1148,430.6902],[37.1858,36.1183,398.516],[37.1717,36.1171,377.5763],[37.1635,36.1066,368.7843],[37.1647,36.0901,376.9511],[37.1753,36.0772,457.6805],[37.2422,36.0326,433.2291],[37.2539,36.0174,457.0554],[37.2598,35.9963,538.7571],[37.2621,35.9083,443.8568],[37.2668,35.8907,419.0024],[37.2785,35.8789,408.0654],[37.2891,35.8613,361.949],[37.295,35.8414,398.0666],[37.302,35.8296,401.8428],[37.3137,35.8202,417.9812],[37.3255,35.8062,404.3555],[37.3255,35.7757,314.5289],[37.3384,35.7592,308.0495],[37.3501,35.7487,307.7911],[37.3583,35.7334,347.7511],[37.3607,35.7182,310.4663],[37.3607,35.6994,273.8511],[37.3701,35.69,267.5023],[37.3841,35.6794,270.6576],[37.4029,35.6736,268.3941],[37.4076,35.6654,268.1826],[37.4076,35.6466,271.0481],[37.4053,35.6266,279.444],[37.3935,35.5985,279.9016],[37.3888,35.5726,285.5676],[37.3865,35.5245,297.5303],[37.39,35.5128,297.485],[37.4053,35.5058,299.6875],[37.424,35.5046,302.6435],[37.4722,35.5034,313.8551],[37.5437,35.5058,330.076],[37.5672,35.5081,341.0801],[37.5836,35.5069,343.0009],[37.6224,35.4776,352.8591],[37.654,35.4471,369.7046],[37.667,35.4377,380.7021],[37.735,35.4295,400.8651],[37.7717,35.4276,409.9207],[37.7702,35.4307,407.5289],[37.7702,35.4424,406.5118],[37.7796,35.4553,408.9605],[37.7843,35.4858,386.2386],[37.7808,35.5222,367.3844],[37.7808,35.5421,367.9323],[37.7749,35.5703,357.2704],[37.7726,35.6618,365.7152],[37.7632,35.6923,368.1536],[37.7597,35.7111,364.0795],[37.7467,35.7264,359.8014],[37.7303,35.751,348.7079],[37.7127,35.7827,357.4509],[37.6904,35.8167,366.8752],[37.6658,35.8613,321.0337],[37.6506,35.8803,312.0],[37.6448,35.878,312.0],[37.6262,35.8794,324.4824],[37.6147,35.8823,311.0],[37.6133,35.9023,311.0],[37.6104,35.9095,311.0],[37.6033,35.9152,311.0],[37.5904,35.9066,311.9888],[37.5818,35.8923,329.1468],[37.5789,35.8808,335.8255],[37.5674,35.8851,360.1006],[37.566,35.9482,435.728],[37.556,35.9683,344.3044],[37.5173,35.9912,339.7611],[37.5044,36.0098,319.1935],[37.4843,36.0227,322.1659],[37.4384,36.0657,317.2953],[37.4342,36.0901,319.6832],[37.4456,36.1058,324.8113],[37.4485,36.1187,330.0809],[37.4428,36.1288,336.7154],[37.4313,36.1402,342.4085],[37.4256,36.1488,347.0457],[37.4241,36.1675,354.8535],[37.4127,36.1861,365.1221],[37.3783,36.2119,387.2322],[37.336,36.2143,411.2729]]]]}}