{"type":"Feature","properties":{"GID_2":"SYR.13.8_1","GID_0":"SYR","country":"Syria","GID_1":"SYR.13_1","province":"RifDimashq","NL_NAME_1":"NA","county":"Yabrud","VARNAME_2":"NA","NL_NAME_2":"NA","TYPE_2":"Mantika","ENGTYPE_2":"District","CC_2":"NA","HASC_2":"NA","name":"Yabrud.county"},
"geometry":{"type": "MultiPolygon","coordinates": [[[[36.2954,33.9291,2251.0735],[36.2882,33.9173,2159.4438],[36.2767,33.9034,2302.2021],[36.336,33.8746,1987.5808],[36.342,33.8762,1985.1902],[36.3572,33.8702,1865.7521],[36.368,33.8683,1728.6622],[36.3897,33.8548,1688.356],[36.3923,33.8488,1659.3477],[36.3937,33.8336,1614.8732],[36.3924,33.8309,1611.0892],[36.3981,33.8286,1604.4833],[36.4955,33.8235,1664.3717],[36.5011,33.8347,1644.5945],[36.516,33.8748,1617.2231],[36.5337,33.9009,1486.2729],[36.5449,33.9111,1476.0264],[36.5617,33.9149,1530.7998],[36.5747,33.9214,1471.0562],[36.6064,33.9251,1441.7695],[36.6204,33.9419,1412.0428],[36.6316,33.9606,1413.8914],[36.6363,33.9745,1399.9257],[36.6363,33.9839,1439.3892],[36.6307,33.9969,1473.5515],[36.6186,34.01,1560.5354],[36.598,34.0137,1642.4158],[36.5719,34.0146,1789.7704],[36.5225,34.0258,2169.2231],[36.5067,34.037,2223.3704],[36.4897,34.0459,2492.7749],[36.4837,34.0432,2569.7998],[36.4802,34.0386,2581.1719],[36.4669,34.0422,2435.5713],[36.4616,34.0448,2356.5203],[36.4612,34.0474,2277.4658],[36.4492,34.0516,2326.8772],[36.4451,34.0518,2321.4587],[36.454,34.044,2388.0662],[36.4419,34.0497,2322.5752],[36.4249,34.0547,2300.0059],[36.4158,34.0419,2338.9004],[36.4097,34.0454,2348.3975],[36.4011,34.0416,2340.7849],[36.4051,34.0276,2380.8169],[36.3903,34.0289,2430.0491],[36.3846,34.0188,2426.0376],[36.3828,34.0102,2324.72],[36.3698,34.0045,2409.4392],[36.3624,33.9831,2395.7095],[36.3556,33.9849,2374.6216],[36.3483,33.9782,2323.9932],[36.3405,33.9776,2314.7017],[36.3219,33.9642,2246.7053],[36.3125,33.9555,2256.7468],[36.2954,33.9291,2251.0735]]]]}}