{"type":"Feature","properties":{"GID_2":"SYR.13.7_1","GID_0":"SYR","country":"Syria","GID_1":"SYR.13_1","province":"RifDimashq","NL_NAME_1":"NA","county":"Qatana","VARNAME_2":"NA","NL_NAME_2":"NA","TYPE_2":"Mantika","ENGTYPE_2":"District","CC_2":"NA","HASC_2":"NA","name":"Qatana.county"},
"geometry":{"type": "MultiPolygon","coordinates": [[[[35.8424,33.3284,1525.9575],[35.8709,33.3209,1181.1799],[35.8706,33.3238,1192.0826],[35.9014,33.3095,1147.7726],[35.915,33.2983,1031.7969],[35.9163,33.2747,1007.4712],[35.93,33.2548,958.1832],[35.9623,33.251,923.8589],[35.9722,33.2398,911.7386],[35.9784,33.2187,913.7992],[35.9747,33.2075,928.5646],[35.9775,33.1888,929.6581],[36.001,33.19,900.7529],[36.0215,33.1834,870.2186],[36.0327,33.1816,861.3844],[36.0541,33.1816,822.9816],[36.0728,33.1881,801.071],[36.0839,33.1937,799.6541],[36.0914,33.2002,806.3408],[36.0989,33.204,799.019],[36.0979,33.2403,797.4402],[36.0895,33.2543,827.8002],[36.0914,33.2627,832.0365],[36.097,33.2673,829.4883],[36.1091,33.272,812.275],[36.1203,33.2841,801.9042],[36.1222,33.2916,793.5723],[36.1194,33.3,796.272],[36.1007,33.3196,819.4084],[36.0989,33.327,808.6216],[36.1035,33.3326,788.368],[36.1287,33.3326,789.9152],[36.139,33.3373,772.0931],[36.1557,33.3615,754.5767],[36.1669,33.3652,751.9984],[36.1856,33.3662,744.1754],[36.2033,33.3709,761.5788],[36.2033,33.3783,864.5253],[36.1902,33.3923,819.1157],[36.1734,33.4025,754.5662],[36.1604,33.4128,761.3782],[36.1595,33.4305,761.9992],[36.152,33.4463,799.2909],[36.1445,33.4566,870.1345],[36.1445,33.465,900.7121],[36.1473,33.4771,964.1976],[36.1707,33.5041,1122.979],[36.1762,33.5144,1108.0015],[36.1753,33.5331,908.7968],[36.1632,33.5647,898.8793],[36.1445,33.5815,1008.1551],[36.0627,33.5813,1312.7915],[36.0653,33.58,1337.3157],[36.0639,33.5762,1364.3861],[36.0519,33.5674,1595.5006],[36.0263,33.5415,1454.4001],[36.0145,33.5426,1457.9546],[35.9882,33.5338,1576.79],[35.9681,33.533,1531.6329],[35.9437,33.5242,1712.8372],[35.9412,33.521,1695.7771],[35.9436,33.5092,1610.3918],[35.9579,33.4999,1543.2202],[35.9553,33.4993,1527.6599],[35.9536,33.495,1505.8308],[35.9531,33.4797,1901.9885],[35.9484,33.4722,2019.1306],[35.9337,33.4597,2127.6489],[35.9141,33.4475,2251.9563],[35.8997,33.4353,2328.7944],[35.875,33.4223,2637.207],[35.8634,33.4184,2734.4485],[35.8283,33.3989,2502.1484],[35.8215,33.3925,2398.4258],[35.8182,33.3847,2305.4282],[35.8174,33.3751,2208.2271],[35.815,33.3713,2255.1685],[35.8172,33.364,2141.4148],[35.8238,33.3615,2069.116],[35.821,33.3543,2275.5544],[35.813,33.3463,2230.3521],[35.8424,33.3284,1525.9575]]]]}}