{"type":"Feature","properties":{"GID_2":"SYR.1.2_1","GID_0":"SYR","country":"Syria","GID_1":"SYR.1_1","province":"AlḤasakah","NL_NAME_1":"NA","county":"Al-Malikiyah","VARNAME_2":"NA","NL_NAME_2":"NA","TYPE_2":"Mantika","ENGTYPE_2":"District","CC_2":"NA","HASC_2":"NA","name":"Al-Malikiyah.county"},
"geometry":{"type": "MultiPolygon","coordinates": [[[[42.3637,37.1093,338.6778],[42.3628,37.1269,341.1723],[42.36,37.1352,377.0893],[42.3494,37.1483,346.6935],[42.3371,37.1749,346.4636],[42.3353,37.1857,348.4503],[42.3402,37.1996,361.7968],[42.3552,37.2106,360.401],[42.3587,37.2181,352.8373],[42.3574,37.2275,386.8593],[42.3498,37.2365,414.563],[42.3351,37.2403,356.9771],[42.3275,37.2451,365.6512],[42.3211,37.2568,407.515],[42.3073,37.2613,353.9674],[42.3032,37.2651,359.4638],[42.3001,37.2746,417.3378],[42.295,37.2809,482.823],[42.2756,37.2711,374.4026],[42.267,37.2718,384.446],[42.2559,37.2788,367.4932],[42.2473,37.2804,356.1273],[42.235,37.2805,358.8217],[42.2271,37.2766,366.353],[42.2208,37.2775,357.0501],[42.2181,37.2805,366.2106],[42.2188,37.284,365.8875],[42.2286,37.2984,423.2805],[42.2349,37.3157,438.821],[42.2249,37.3191,375.3323],[42.2165,37.3152,364.6884],[42.2078,37.3002,363.3661],[42.1939,37.2822,462.2698],[42.1839,37.2751,474.0313],[42.1538,37.2598,475.0105],[42.1392,37.2494,481.5098],[42.1224,37.2354,481.5253],[42.1128,37.2191,494.8857],[42.1061,37.2129,504.7414],[42.0793,37.2016,542.0874],[42.0573,37.1889,564.0518],[42.0163,37.1774,568.6058],[41.9751,37.1596,603.1892],[41.7586,37.1175,574.5923],[41.7284,37.1135,547.2296],[41.6869,37.1145,537.1781],[41.6507,37.1108,530.9564],[41.6445,37.1016,512.3221],[41.6383,37.0814,471.0381],[41.6383,37.0566,466.689],[41.6461,37.0442,444.9099],[41.6507,37.0209,433.5752],[41.6507,36.9945,424.8273],[41.6554,36.9696,417.1253],[41.6694,36.9494,408.9702],[41.674,36.9308,405.0544],[41.6709,36.9013,398.76],[41.6616,36.8904,397.1179],[41.6569,36.8687,380.4733],[41.6585,36.8377,362.9513],[41.6678,36.8206,365.2991],[41.6802,36.8082,359.816],[41.6911,36.7926,357.0569],[41.7051,36.7787,355.3337],[41.7066,36.7507,353.8763],[41.6973,36.7212,351.3519],[41.6973,36.7073,352.3197],[41.7035,36.6793,352.2387],[41.7128,36.6591,354.5531],[41.7206,36.6374,359.6132],[41.7423,36.5939,381.1893],[41.7542,36.5775,387.727],[41.8283,36.5932,379.2743],[41.8649,36.6188,370.9742],[41.8817,36.6234,370.5068],[41.904,36.6462,368.5302],[41.9385,36.6703,375.019],[41.9908,36.723,374.0772],[42.0344,36.7638,385.3893],[42.0924,36.8143,391.6592],[42.1348,36.8577,418.4918],[42.1769,36.8904,449.9749],[42.2492,36.9577,451.9008],[42.3847,37.0672,360.3941],[42.385,37.0741,404.0766],[42.3811,37.082,404.1719],[42.3736,37.0868,350.6526],[42.366,37.0891,369.1694],[42.3622,37.095,359.0817],[42.3637,37.1093,338.6778]]]]}}