{"type":"Feature","properties":{"GID_2":"SYR.10.4_1","GID_0":"SYR","country":"Syria","GID_1":"SYR.10_1","province":"Idlib","NL_NAME_1":"NA","county":"Jisrash-Shugur","VARNAME_2":"NA","NL_NAME_2":"NA","TYPE_2":"Mantika","ENGTYPE_2":"District","CC_2":"NA","HASC_2":"NA","name":"Jisrash-Shugur.county"},
"geometry":{"type": "MultiPolygon","coordinates": [[[[36.4205,35.7151,247.4393],[36.4232,35.7169,247.8858],[36.4241,35.7363,292.8657],[36.4338,35.7407,296.8451],[36.4584,35.7424,384.3125],[36.4611,35.7521,319.4858],[36.4373,35.7838,236.3613],[36.4373,35.7873,231.8659],[36.4391,35.7935,228.9752],[36.4452,35.8023,226.9946],[36.454,35.8111,225.222],[36.4611,35.8234,224.9874],[36.4611,35.8569,218.7086],[36.4707,35.8885,216.8218],[36.4707,35.929,217.1463],[36.4786,35.9521,217.3522],[36.4722,35.9577,218.8389],[36.4713,35.9647,220.2832],[36.4793,35.9841,224.3287],[36.4801,35.9947,227.1098],[36.4687,36.0087,236.3942],[36.43,36.0422,272.4637],[36.4115,36.0519,229.2282],[36.3941,36.0539,189.2749],[36.3951,36.046,120.0019],[36.3925,36.0398,109.5377],[36.3834,36.0314,98.6567],[36.3808,36.026,99.8498],[36.3823,36.0099,107.1602],[36.3786,36.001,100.9225],[36.3742,35.9977,103.7741],[36.3569,35.992,216.0689],[36.3442,35.9924,285.6889],[36.3172,36.0041,413.3493],[36.3028,35.9964,384.4626],[36.2979,35.9917,496.5135],[36.2946,35.9802,452.5306],[36.3061,35.9607,302.1564],[36.3025,35.9574,385.8677],[36.2897,35.9539,447.2129],[36.2789,35.9548,489.5311],[36.2634,35.9617,460.7715],[36.2546,35.9638,524.4713],[36.2444,35.9635,670.4055],[36.2288,35.9604,429.142],[36.2127,35.9515,320.7982],[36.1992,35.9356,627.5621],[36.1877,35.9185,574.8767],[36.1809,35.9017,527.6805],[36.1891,35.8844,604.611],[36.1831,35.8356,490.1706],[36.1701,35.8169,456.2967],[36.1786,35.8014,563.1826],[36.1865,35.7935,532.4745],[36.197,35.7873,443.7765],[36.2076,35.7873,517.0825],[36.2164,35.7847,559.2955],[36.2182,35.7812,638.5851],[36.2182,35.7706,619.3372],[36.2226,35.7601,755.6832],[36.2305,35.7539,917.8407],[36.241,35.7521,1049.4573],[36.2507,35.753,1033.3969],[36.2622,35.7574,801.4941],[36.271,35.7574,653.9623],[36.2886,35.7556,274.1014],[36.3167,35.7468,164.7328],[36.3748,35.7468,219.6949],[36.3757,35.7292,210.7125],[36.3801,35.7213,190.8174],[36.3889,35.7152,208.4867],[36.4074,35.7134,228.9016],[36.4179,35.7134,237.4969],[36.4205,35.7151,247.4393]]]]}}