{"type":"Feature","properties":{"GID_2":"SYR.10.5_1","GID_0":"SYR","country":"Syria","GID_1":"SYR.10_1","province":"Idlib","NL_NAME_1":"NA","county":"Ma'arratal-Numan","VARNAME_2":"NA","NL_NAME_2":"NA","TYPE_2":"Mantika","ENGTYPE_2":"District","CC_2":"NA","HASC_2":"NA","name":"Ma'arratal-Numan.county"},
"geometry":{"type": "MultiPolygon","coordinates": [[[[37.0928,35.681399999999996,292.6815],[37.0807,35.6888,278.7122],[37.0604,35.694,288.9606],[37.0076,35.6949,326.0168],[36.9803,35.7152,330.8995],[36.9706,35.7152,313.0758],[36.9442,35.724,309.0454],[36.9222,35.724,355.1253],[36.9108,35.7213,370.362],[36.9029,35.7125,376.3416],[36.8888,35.716,393.1213],[36.8765,35.7257,395.5015],[36.8554,35.7301,415.6299],[36.8369,35.7275,396.8736],[36.814,35.7275,428.3911],[36.7973,35.724,431.2422],[36.7717,35.7231,418.5858],[36.7361,35.7292,447.6833],[36.7216,35.7213,483.6482],[36.7013,35.7178,503.8713],[36.6811,35.694,514.9594],[36.6732,35.6817,509.3491],[36.6705,35.6729,527.8911],[36.6652,35.6668,538.9397],[36.6318,35.6668,574.8518],[36.6204,35.665,561.1793],[36.616,35.6562,575.7809],[36.616,35.6509,591.6514],[36.6124,35.6412,540.3263],[36.6072,35.6377,542.8438],[36.5948,35.6342,584.0447],[36.5614,35.6324,648.2716],[36.5332,35.6333,620.048],[36.5253,35.6289,650.8066],[36.4972,35.628,718.5274],[36.476,35.6351,718.0027],[36.4417,35.6351,777.2717],[36.432,35.6368,775.349],[36.4305,35.6386,772.8123],[36.4279,35.6249,646.439],[36.4279,35.5819,553.5211],[36.4263,35.5723,464.9568],[36.4224,35.5644,573.1792],[36.42,35.554,680.2911],[36.42,35.5437,757.0912],[36.4168,35.5317,677.2032],[36.4168,35.5054,554.8982],[36.4263,35.4792,305.7672],[36.4319,35.4712,302.5005],[36.4335,35.4497,288.7737],[36.4359,35.4393,289.0803],[36.4502,35.4282,287.8183],[36.459,35.4282,287.1532],[36.4709,35.4314,285.5019],[36.4821,35.4377,293.8472],[36.4901,35.4457,295.2669],[36.502,35.4457,322.2742],[36.5116,35.4433,303.8008],[36.5219,35.4377,277.0779],[36.5331,35.425,291.1411],[36.5354,35.4139,282.5912],[36.5354,35.4027,280.0074],[36.541,35.3947,263.4496],[36.553,35.3923,292.7757],[36.5713,35.3916,295.5832],[36.6,35.3931,330.3267],[36.6103,35.3923,339.4771],[36.6501,35.3764,328.8087],[36.674,35.3756,349.9056],[36.6812,35.378,382.2103],[36.6923,35.3844,379.6078],[36.7107,35.4003,375.2083],[36.7202,35.4035,362.5045],[36.764,35.4035,336.9276],[36.7784,35.4011,333.2867],[36.7935,35.3947,336.0509],[36.823,35.3931,354.6543],[36.8429,35.3876,368.3325],[36.8548,35.3876,378.2752],[36.8628,35.3916,376.9886],[36.8763,35.3916,410.9543],[36.8819,35.3876,382.6475],[36.8835,35.3788,408.9092],[36.8899,35.3756,384.9693],[36.8891,35.3613,401.4646],[36.8931,35.347,417.7141],[36.905,35.3366,421.3239],[36.9106,35.335,406.5671],[36.9193,35.3342,402.9922],[36.9568,35.339,429.3792],[36.9663,35.3462,425.0159],[36.9759,35.3669,445.1158],[36.9831,35.3716,441.6699],[36.9886,35.3685,430.8381],[36.9894,35.327,453.6875],[36.9926,35.3039,477.5616],[37.0062,35.2793,470.0873],[37.0165,35.2697,461.6492],[37.0348,35.2673,492.0199],[37.0539,35.2681,415.0241],[37.0842,35.2824,443.1071],[37.0962,35.2822,445.0587],[37.1019,35.294,402.6152],[37.1121,35.3033,398.5143],[37.1198,35.3134,399.0151],[37.1253,35.3259,389.3376],[37.1268,35.3469,376.118],[37.1237,35.3555,389.1489],[37.1183,35.3617,372.8911],[37.1113,35.3664,365.4163],[37.0833,35.3671,407.2639],[37.0747,35.371,409.5073],[37.0708,35.3773,433.3398],[37.0716,35.403,429.7805],[37.0801,35.4115,436.7867],[37.1331,35.4131,357.7253],[37.1416,35.4193,363.6626],[37.1455,35.4271,352.9694],[37.1455,35.4364,339.8551],[37.1502,35.4551,331.2489],[37.151,35.4855,324.5258],[37.1549,35.4894,317.6382],[37.1852,35.4894,304.0858],[37.1961,35.4917,293.2563],[37.2016,35.4948,300.9833],[37.2078,35.5088,293.1345],[37.2222,35.5228,287.3298],[37.21,35.5268,285.9435],[37.1933,35.5356,283.2311],[37.1616,35.5418,308.0154],[37.1467,35.5647,291.2248],[37.1405,35.57,313.68],[37.1308,35.57,317.2646],[37.1185,35.5743,332.2297],[37.1071,35.5919,346.8697],[37.0868,35.6052,387.1497],[37.0771,35.6148,331.3094],[37.0719,35.6298,317.9358],[37.0763,35.664,309.5479],[37.0928,35.681399999999996,292.6815]]]]}}