{"type":"Feature","properties":{"GID_2":"SYR.9.2_1","GID_0":"SYR","country":"Syria","GID_1":"SYR.9_1","province":"Hims","NL_NAME_1":"NA","county":"Al-Qusayr","VARNAME_2":"NA","NL_NAME_2":"NA","TYPE_2":"Mantika","ENGTYPE_2":"District","CC_2":"NA","HASC_2":"NA","name":"Al-Qusayr.county"},
"geometry":{"type": "MultiPolygon","coordinates": [[[[36.3473,34.5099,1321.4222],[36.3616,34.5034,1291.4755],[36.3748,34.5035,1208.7551],[36.3754,34.4983,1223.9943],[36.3784,34.5019,1213.563],[36.3827,34.5031,1169.4241],[36.3863,34.4963,978.8575],[36.3957,34.4995,1040.0475],[36.4074,34.4975,994.5987],[36.4166,34.4935,836.4875],[36.4283,34.5007,645.3282],[36.4381,34.502,572.2814],[36.444,34.4938,562.054],[36.4453,34.4885,566.2036],[36.4548,34.4724,559.1581],[36.4639,34.4628,556.4282],[36.4671,34.4629,555.0416],[36.4702,34.4602,557.4451],[36.4792,34.4603,556.2432],[36.4825,34.4581,556.9777],[36.4878,34.4579,555.2103],[36.4964,34.4548,546.809],[36.492,34.4526,550.0569],[36.4949,34.4496,558.2119],[36.5076,34.4483,556.4698],[36.5125,34.4441,556.0312],[36.5076,34.4393,557.7975],[36.5117,34.4409,552.7874],[36.5132,34.4376,555.7904],[36.5119,34.4361,555.8125],[36.514,34.4339,554.383],[36.5161,34.4368,553.4327],[36.5205,34.4349,553.0693],[36.5229,34.4268,559.9086],[36.5262,34.4284,552.7512],[36.5266,34.4317,550.8644],[36.5324,34.4295,550.0969],[36.5308,34.4251,555.7328],[36.5352,34.426,552.0613],[36.5407,34.422,552.0647],[36.549,34.4244,552.0969],[36.5544,34.4177,555.3622],[36.5537,34.4157,556.1929],[36.5605,34.3967,594.7267],[36.5453,34.3821,618.9556],[36.5598,34.384,641.1219],[36.5974,34.4098,613.6601],[36.668,34.4742,703.3632],[36.6915,34.4871,702.5532],[36.7066,34.491,671.9531],[36.7246,34.4983,686.2313],[36.7565,34.4994,715.8329],[36.7918,34.5196,745.355],[36.8052,34.5314,750.259],[36.8125,34.542,733.6329],[36.8125,34.5599,732.3098],[36.798,34.5667,704.3245],[36.7784,34.5667,695.9591],[36.7688,34.5622,693.71],[36.738,34.561,665.7932],[36.7094,34.5655,630.09],[36.6988,34.57,617.8533],[36.6792,34.5829,594.2433],[36.6764,34.5907,587.6775],[36.6758,34.5997,581.8805],[36.6797,34.6064,580.4963],[36.6966,34.6227,580.0905],[36.6982,34.6283,577.1831],[36.6971,34.6395,565.1798],[36.682,34.6434,549.1887],[36.6685,34.644,535.085],[36.6607,34.6406,531.1633],[36.6473,34.6238,537.2407],[36.6366,34.6249,529.3858],[36.626,34.6288,519.1536],[36.6159,34.6283,514.4669],[36.608,34.6249,514.6304],[36.6007,34.6249,511.2229],[36.5907,34.6221,509.0958],[36.5834,34.6188,508.2333],[36.5795,34.6188,505.9418],[36.5699,34.6227,498.5132],[36.4723,34.6242,513.9645],[36.4731,34.6268,516.5264],[36.4713,34.6302,512.9316],[36.4607,34.6319,512.6071],[36.4584,34.6298,516.8952],[36.4602,34.6261,523.1432],[36.4573,34.6254,520.2983],[36.4556,34.6216,519.3561],[36.4596,34.6158,520.0476],[36.458,34.6138,517.7546],[36.4596,34.6105,515.5039],[36.4567,34.606,522.2012],[36.4576,34.6043,524.3538],[36.4562,34.599,524.1013],[36.455,34.5995,525.9659],[36.451,34.5923,533.9729],[36.431399999999996,34.5926,555.0931],[36.4297,34.6001,557.5356],[36.4251,34.6048,538.8993],[36.4192,34.6065,557.9368],[36.4134,34.6061,562.1296],[36.4138,34.6123,547.577],[36.4095,34.6105,551.0301],[36.4063,34.611,546.8785],[36.4036,34.6085,452.4247],[36.4026,34.6038,463.7712],[36.4061,34.6006,498.5277],[36.4011,34.593,522.631],[36.4015,34.5823,550.446],[36.395,34.5761,588.2618],[36.398,34.5723,635.2125],[36.4027,34.5715,627.8139],[36.414,34.5637,635.6981],[36.4109,34.5537,652.1787],[36.408,34.5511,658.7922],[36.387,34.5475,755.6571],[36.3833,34.5437,829.7506],[36.3827,34.5376,857.6995],[36.3705,34.534,996.8936],[36.3597,34.5221,1160.7507],[36.3533,34.5201,1300.822],[36.349,34.5168,1328.108],[36.3473,34.5099,1321.4222]]]]}}