{"type":"Feature","properties":{"GID_2":"SYR.2.1_1","GID_0":"SYR","country":"Syria","GID_1":"SYR.2_1","province":"Aleppo","NL_NAME_1":"NA","county":"'Aynal-'Arab","VARNAME_2":"NA","NL_NAME_2":"NA","TYPE_2":"Mantika","ENGTYPE_2":"District","CC_2":"NA","HASC_2":"NA","name":"'Aynal-'Arab.county"},
"geometry":{"type": "MultiPolygon","coordinates": [[[[38.1386,36.2358,299.5],[38.1507,36.2334,376.3343],[38.1651,36.2334,348.0067],[38.1808,36.2463,299.5],[38.1937,36.2477,299.5],[38.3428,36.2563,415.0919],[38.3815,36.2735,480.6775],[38.4631,36.2907,428.7357],[38.5176,36.3122,424.9771],[38.5549,36.3194,395.2061],[38.6238,36.3724,424.3936],[38.6227,36.3753,435.4044],[38.6485,36.4154,373.7687],[38.66,36.4426,366.9704],[38.6671,36.4742,399.403],[38.6786,36.4942,428.3387],[38.6843,36.5487,397.8675],[38.6843,36.5845,387.1238],[38.6772,36.596,383.1426],[38.6686,36.6003,384.1306],[38.6227,36.6003,417.8715],[38.6069,36.6017,431.9062],[38.5998,36.6074,446.9761],[38.5969,36.6203,489.471],[38.6012,36.6318,495.4213],[38.617,36.639,467.4611],[38.6342,36.6433,452.8295],[38.6428,36.649,429.386],[38.6499,36.6633,414.9455],[38.6499,36.7006,420.6555],[38.637,36.7221,505.6422],[38.6284,36.7407,425.6309],[38.6284,36.7594,452.5297],[38.635,36.7779,423.6219],[38.6229,36.7903,425.6268],[38.6006,36.806,448.6061],[38.591,36.8174,438.3826],[38.5796,36.8238,444.8663],[38.5681,36.836,478.761],[38.5216,36.8541,459.3536],[38.493,36.8627,462.8027],[38.4494,36.8818,470.0699],[38.4078,36.8954,481.716],[38.3985,36.8972,485.3984],[38.3425,36.9004,510.0262],[38.3163,36.9054,523.7817],[38.2956,36.907,534.8881],[38.2652,36.9135,555.5367],[38.2528,36.9135,584.625],[38.2305,36.9059,583.8564],[38.2005,36.908,567.7017],[38.1943,36.9069,555.4047],[38.1878,36.9046,561.061],[38.1728,36.8946,587.8556],[38.1264,36.8811,509.0163],[38.0705,36.8586,407.3441],[38.0583,36.8487,395.3411],[38.054,36.8435,384.6877],[38.0517,36.8364,384.1179],[38.0409,36.8286,381.6459],[38.0312,36.8275,326.9012],[38.0318,36.8081,326.8317],[38.026,36.7923,326.6664],[38.0174,36.7808,327.0074],[38.0174,36.7522,326.6504],[38.0375,36.7293,323.0],[38.0475,36.7207,323.0],[38.0461,36.7078,367.8779],[38.0389,36.6949,397.8344],[38.0432,36.6834,376.6491],[38.0676,36.6662,344.2808],[38.1006,36.6476,375.3901],[38.135,36.6461,343.115],[38.1722,36.6275,495.3012],[38.2023,36.6046,420.6901],[38.2224,36.5917,379.4268],[38.2338,36.5802,397.455],[38.2381,36.5687,344.4828],[38.2496,36.5501,356.4767],[38.2668,36.5401,347.7233],[38.2668,36.5071,351.5042],[38.2568,36.4914,348.119],[38.2496,36.4727,320.0],[38.241,36.4598,335.939],[38.2396,36.4455,320.0],[38.2281,36.4369,320.0],[38.1966,36.4283,320.0],[38.1837,36.4111,339.7464],[38.1794,36.3824,326.4161],[38.1722,36.3581,376.7295],[38.1593,36.3007,317.9614],[38.1593,36.2778,315.0381],[38.1536,36.2664,319.2592],[38.1421,36.2592,299.5],[38.1364,36.2492,299.5],[38.1364,36.2363,299.5],[38.1386,36.2358,299.5]]]]}}