{"type":"Feature","properties":{"GID_2":"SYR.1.4_1","GID_0":"SYR","country":"Syria","GID_1":"SYR.1_1","province":"AlḤasakah","NL_NAME_1":"NA","county":"Ra'sal-'Ayn","VARNAME_2":"NA","NL_NAME_2":"NA","TYPE_2":"Mantika","ENGTYPE_2":"District","CC_2":"NA","HASC_2":"NA","name":"Ra'sal-'Ayn.county"},
"geometry":{"type": "MultiPolygon","coordinates": [[[[40.7923,36.7173,345.0392],[40.7844,36.7274,354.7146],[40.7875,36.774,375.1122],[40.8062,36.8454,391.3005],[40.8108,36.8734,398.9913],[40.8201,36.9013,390.1072],[40.8357,36.9199,392.6885],[40.8527,36.9277,402.1767],[40.8574,36.9448,407.4121],[40.8574,36.9541,410.3177],[40.8543,36.965,416.7359],[40.8527,36.9789,419.9036],[40.8527,36.9914,422.0086],[40.8419,37.0209,426.4678],[40.8419,37.0566,445.8869],[40.8465,37.069,440.4205],[40.8543,37.1075,472.1392],[40.8505,37.1066,468.893],[40.8341,37.1094,491.9637],[40.8282,37.1161,497.0948],[40.8225,37.1197,494.1361],[40.7817,37.1206,501.0972],[40.7527,37.1059,498.7675],[40.7406,37.1024,492.6214],[40.7208,37.1011,491.1506],[40.7078,37.0977,499.8391],[40.6884,37.0876,490.3229],[40.6748,37.0784,487.907],[40.6352,37.0629,471.0393],[40.6022,37.0541,474.3512],[40.5824,37.0412,486.7491],[40.5463,37.0267,472.1411],[40.5326,37.0238,462.7578],[40.4618,37.0149,438.866],[40.4381,37.0088,428.335],[40.4191,36.9992,407.262],[40.3975,36.9813,402.0872],[40.386,36.9747,402.2865],[40.3696,36.9674,395.4304],[40.3259,36.952,405.8755],[40.2784,36.9261,379.3016],[40.2602,36.92,368.9903],[40.2383,36.9032,354.3448],[40.208,36.8878,391.8504],[40.1809,36.8787,386.9088],[40.1327,36.8718,356.4197],[40.087,36.8607,364.6718],[40.0801,36.8565,360.5463],[40.0728,36.8491,355.911],[40.0519,36.8361,352.7125],[40.0158,36.824,354.3087],[39.9632,36.7984,375.4106],[39.9291,36.787,377.3576],[39.8905,36.7771,393.1517],[39.856,36.7605,424.0466],[39.8418,36.7553,427.6898],[39.8073,36.7495,432.4945],[39.7227,36.7438,437.7241],[39.712,36.7416,437.3523],[39.6648,36.7258,411.2558],[39.5966,36.7196,417.7653],[39.5457,36.7078,404.8825],[39.4983,36.7013,399.0001],[39.4671,36.6979,412.8849],[39.4504,36.699,411.9393],[39.4435,36.6824,406.7283],[39.4435,36.6514,391.1997],[39.4482,36.6312,389.9816],[39.4606,36.6079,377.543],[39.4761,36.5862,374.0686],[39.5119,36.5473,362.5812],[39.5227,36.538,359.9303],[39.546,36.5334,366.6186],[39.5833,36.5318,372.7008],[39.6267,36.5272,379.3453],[39.6966,36.5272,397.6788],[39.7214,36.5194,407.2545],[39.7401,36.5023,416.583],[39.7851,36.4899,440.3318],[39.8006,36.4837,459.8551],[39.8099,36.4713,464.9871],[39.813,36.4418,466.8285],[39.8224,36.4356,475.2321],[39.8394,36.4325,488.8057],[39.8689,36.4216,502.2849],[39.8736,36.4169,505.4472],[39.8736,36.3719,517.2336],[39.8767,36.361,520.7318],[39.8845,36.3517,512.1161],[39.886,36.3409,511.5935],[39.8969,36.3315,521.5671],[39.9124,36.3284,535.5012],[39.931,36.33,551.2985],[39.9435,36.3362,560.5579],[39.9574,36.3471,563.1549],[39.9636,36.3595,576.0762],[39.9652,36.3735,587.7916],[39.9714,36.3843,595.2398],[39.9745,36.3936,578.5506],[39.9869,36.4045,554.4368],[40.0087,36.4123,564.0777],[40.0335,36.4309,561.4077],[40.0397,36.4418,525.4349],[40.0428,36.4526,510.1032],[40.0428,36.479,479.3683],[40.0475,36.493,468.504],[40.0646,36.5178,445.7166],[40.0816,36.5194,441.3234],[40.1142,36.4992,434.9811],[40.1453,36.4992,426.5613],[40.1577,36.5054,427.6819],[40.1872,36.5396,406.215],[40.2012,36.5629,392.9923],[40.2043,36.5799,385.2794],[40.2074,36.6157,359.4713],[40.212,36.6358,355.8046],[40.2152,36.6451,352.0902],[40.226,36.6514,339.0977],[40.2757,36.6514,334.6126],[40.2912,36.6467,339.1662],[40.3192,36.6483,337.0802],[40.3378,36.6514,333.8475],[40.3626,36.6778,330.7227],[40.3968,36.7057,354.2394],[40.4201,36.7088,342.6367],[40.4542,36.7088,390.6238],[40.4822,36.7057,402.8159],[40.5427,36.7057,416.1333],[40.566,36.701,367.5483],[40.5971,36.701,351.2147],[40.6126,36.6979,357.2657],[40.6514,36.6964,358.7481],[40.6933,36.7026,358.1876],[40.7399,36.7057,350.9823],[40.7923,36.7173,345.0392]]]]}}