{"type":"Feature","properties":{"GID_2":"SYR.6.3_1","GID_0":"SYR","country":"Syria","GID_1":"SYR.6_1","province":"Dar`a","NL_NAME_1":"NA","county":"Izra'","VARNAME_2":"NA","NL_NAME_2":"NA","TYPE_2":"Mantika","ENGTYPE_2":"District","CC_2":"NA","HASC_2":"NA","name":"Izra'.county"},
"geometry":{"type": "MultiPolygon","coordinates": [[[[36.4185,32.9365,716.5017],[36.4172,32.9428,716.1016],[36.4073,32.9639,679.9701],[36.3911,32.9788,664.7515],[36.3625,32.9888,638.3784],[36.3402,32.985,628.5509],[36.3116,32.99,611.345],[36.2855,32.9999,608.8196],[36.2668,33.0124,605.6608],[36.2333,33.0223,603.1403],[36.2084,33.0273,604.1942],[36.1512,33.026,621.0318],[36.1413,33.0149,619.6942],[36.1289,33.0124,617.9492],[36.1139,33.0161,630.075],[36.1052,33.0285,651.8337],[36.1003,33.041,671.9967],[36.0816,33.0695,712.1166],[36.0679,33.0745,728.7039],[36.0356,33.0745,756.5049],[36.0058,33.0633,829.6418],[35.9809,33.0484,812.4935],[35.9772,33.041,788.2424],[35.9859,33.0323,754.0641],[35.9909,33.0173,710.1782],[35.9909,32.9962,666.7566],[35.9809,32.9838,650.7534],[35.9461,32.9316,586.1598],[35.9312,32.903,554.658],[35.9173,32.8954,534.0084],[35.9032,32.8746,514.2271],[35.9188,32.8607,507.0437],[35.961,32.816,481.2522],[35.971,32.801,468.4102],[35.9809,32.7973,467.2984],[35.9996,32.7973,465.2533],[36.0132,32.8023,470.5015],[36.0331,32.8023,475.6993],[36.0493,32.8048,486.1312],[36.0891,32.8234,510.3637],[36.1338,32.8234,524.988],[36.1985,32.7973,565.2976],[36.2295,32.7799,588.0732],[36.2619,32.7675,598.5239],[36.2755,32.7563,608.186],[36.2805,32.7439,615.9855],[36.283,32.724,621.3293],[36.288,32.7103,627.1994],[36.2967,32.6991,628.3708],[36.37,32.6979,672.5902],[36.3911,32.7009,705.9067],[36.3874,32.7377,694.563],[36.3874,32.8359,692.2811],[36.3899,32.9229,680.7015],[36.3998,32.9365,692.0034],[36.4185,32.9365,716.5017]]]]}}