{"type":"Feature","properties":{"GID_2":"SYR.2.6_1","GID_0":"SYR","country":"Syria","GID_1":"SYR.2_1","province":"Aleppo","NL_NAME_1":"NA","county":"JabalSam'an","VARNAME_2":"NA","NL_NAME_2":"NA","TYPE_2":"Mantika","ENGTYPE_2":"District","CC_2":"NA","HASC_2":"NA","name":"Jabal_Sam'an.county"},
"geometry":{"type": "MultiPolygon","coordinates": [[[[37.0108,36.3409,437.3869],[37.0108,36.3326,398.2412],[36.9959,36.3088,446.9064],[36.9809,36.2983,463.373],[36.9668,36.2912,520.6793],[36.9219,36.2921,508.5815],[36.8885,36.3018,589.4436],[36.8287,36.3018,503.4454],[36.819,36.3062,530.8067],[36.7926,36.3265,457.6353],[36.7688,36.3344,452.3818],[36.7538,36.3388,409.4632],[36.7406,36.3361,414.0311],[36.7301,36.3317,395.1949],[36.7362,36.3185,440.1633],[36.7547,36.2983,450.9608],[36.7943,36.2666,430.5345],[36.8137,36.2578,433.2917],[36.8507,36.2314,427.6258],[36.8515,36.2226,393.9115],[36.8471,36.2059,389.6169],[36.8375,36.1997,418.4585],[36.8278,36.1997,443.9196],[36.8155,36.2015,452.0331],[36.8075,36.2059,453.2986],[36.8014,36.2068,419.0385],[36.7926,36.2006,406.149],[36.7926,36.1724,394.7479],[36.7864,36.1645,353.4139],[36.7706,36.1584,366.526],[36.7503,36.1478,353.4934],[36.7433,36.1408,336.9288],[36.7406,36.1311,319.414],[36.7359,36.1287,318.7541],[36.7481,36.1218,306.6913],[36.754,36.1207,304.4689],[36.7587,36.1136,304.8682],[36.7599,36.0702,305.6493],[36.7716,36.0667,298.8194],[36.8338,36.0655,316.9427],[36.8408,36.0514,339.6768],[36.8549,36.0397,356.9716],[36.8702,36.035,355.8187],[36.8831,36.028,319.4899],[36.8913,36.0115,312.2999],[36.8941,35.9958,304.668],[36.8906,35.9905,304.4842],[36.8888,35.9791,302.3874],[36.8818,35.9597,300.3834],[36.8756,35.9536,312.727],[36.8747,35.943,325.6631],[36.8782,35.9307,321.0925],[36.8853,35.9228,312.6423],[36.9134,35.8999,297.7584],[36.9398,35.8876,279.0915],[36.9469,35.877,280.7047],[36.9539,35.8524,268.5851],[36.9618,35.8365,251.3458],[36.9662,35.8216,248.4635],[36.9794,35.8084,246.1527],[36.9918,35.8004,253.9873],[37.0217,35.7987,245.3495],[37.027,35.8013,244.92],[37.0287,35.8189,247.3284],[37.0314,35.8269,246.6452],[37.0472,35.8269,250.1816],[37.0719,35.8189,244.4944],[37.1044,35.8013,245.3148],[37.1123,35.782,249.9829],[37.1176,35.76,248.6585],[37.1176,35.7098,250.931],[37.1097,35.6975,258.1974],[37.0868,35.6764,277.3244],[37.0763,35.664,309.5479],[37.0719,35.6298,317.9358],[37.0771,35.6148,331.3094],[37.0868,35.6052,387.1497],[37.1071,35.5919,346.8697],[37.1185,35.5743,332.2297],[37.1308,35.57,317.2646],[37.1405,35.57,313.68],[37.1467,35.5647,291.2248],[37.1616,35.5418,308.0154],[37.1933,35.5356,283.2311],[37.21,35.5268,285.9435],[37.284,35.5048,316.4754],[37.3192,35.4987,310.9547],[37.3552,35.4995,307.8456],[37.3995,35.5084,298.5188],[37.39,35.5128,297.485],[37.3865,35.5245,297.5303],[37.3888,35.5726,285.5676],[37.3935,35.5985,279.9016],[37.4053,35.6266,279.444],[37.4076,35.6466,271.0481],[37.4076,35.6654,268.1826],[37.4029,35.6736,268.3941],[37.3841,35.6794,270.6576],[37.3701,35.69,267.5023],[37.3607,35.6994,273.8511],[37.3607,35.7182,310.4663],[37.3583,35.7334,347.7511],[37.3501,35.7487,307.7911],[37.3384,35.7592,308.0495],[37.3255,35.7757,314.5289],[37.3255,35.8062,404.3555],[37.3137,35.8202,417.9812],[37.302,35.8296,401.8428],[37.295,35.8414,398.0666],[37.2891,35.8613,361.949],[37.2785,35.8789,408.0654],[37.2668,35.8907,419.0024],[37.2621,35.9083,443.8568],[37.2598,35.9963,538.7571],[37.2539,36.0174,457.0554],[37.2422,36.0326,433.2291],[37.1753,36.0772,457.6805],[37.1647,36.0901,376.9511],[37.1635,36.1066,368.7843],[37.1717,36.1171,377.5763],[37.1858,36.1183,398.516],[37.2187,36.1148,430.6902],[37.2515,36.1148,400.234],[37.2586,36.1207,390.2982],[37.2703,36.1441,382.5986],[37.2785,36.1512,378.312],[37.2961,36.1606,370.8919],[37.3008,36.1735,380.9065],[37.3032,36.1875,392.4126],[37.3231,36.1993,395.8096],[37.336,36.2143,411.2729],[37.3238,36.2305,456.7054],[37.3209,36.2807,545.6856],[37.3353,36.3208,541.6262],[37.3381,36.3437,529.2494],[37.3367,36.3667,548.9843],[37.3338,36.3738,541.3447],[37.3123,36.3771,502.8271],[37.3066,36.3552,484.1899],[37.288,36.3523,437.1464],[37.2665,36.3452,435.8608],[37.2478,36.3366,427.1404],[37.2378,36.3222,421.6567],[37.2421,36.3079,425.6216],[37.2392,36.2993,430.5956],[37.2263,36.2964,425.9403],[37.2077,36.2993,407.2145],[37.1991,36.3079,406.7603],[37.1948,36.3179,418.1288],[37.1948,36.3366,443.6617],[37.2063,36.3595,448.181],[37.1977,36.3695,463.233],[37.1805,36.3738,495.2574],[37.1662,36.3724,495.6424],[37.1576,36.3624,498.5057],[37.1576,36.3495,493.1168],[37.1533,36.3337,493.7095],[37.1461,36.3265,503.4571],[37.1303,36.3409,502.6998],[37.1146,36.3423,485.3839],[37.1045,36.3409,479.7489],[37.0945,36.3366,479.9081],[37.0759,36.3423,472.4756],[37.0572,36.3509,458.2708],[37.04,36.348,405.6467],[37.0243,36.3409,401.3924],[37.0108,36.3409,437.3869]]]]}}