{"type":"Feature","properties":{"GID_2":"SYR.13.9_1","GID_0":"SYR","country":"Syria","GID_1":"SYR.13_1","province":"RifDimashq","NL_NAME_1":"NA","county":"Zabadani","VARNAME_2":"NA","NL_NAME_2":"NA","TYPE_2":"Mantika","ENGTYPE_2":"District","CC_2":"NA","HASC_2":"NA","name":"Zabadani.county"},
"geometry":{"type": "MultiPolygon","coordinates": [[[[36.2485,33.8535,2043.3417],[36.239,33.8457,2102.6414],[36.237,33.8346,2162.332],[36.208,33.834,1861.6704],[36.2046,33.8324,1725.0813],[36.1978,33.8341,1669.0623],[36.1918,33.831,1781.6559],[36.1702,33.8333,1348.0885],[36.1647,33.8413,1517.1824],[36.1641,33.8471,1689.5625],[36.1453,33.8446,1508.9109],[36.137,33.8331,1631.1304],[36.124,33.8345,1375.6851],[36.1127,33.8337,1198.8768],[36.1159,33.8273,1274.7046],[36.1121,33.826,1265.3232],[36.1123,33.8224,1288.4258],[36.1106,33.8201,1282.553],[36.1025,33.8175,1332.3789],[36.0829,33.8155,1334.5544],[36.0761,33.8223,1222.8242],[36.0701,33.822,1419.7902],[36.0561,33.8046,1552.6587],[36.0469,33.7841,1641.6294],[36.0357,33.7732,1706.0503],[36.0304,33.7649,1660.389],[36.0269,33.764,1633.3134],[36.0174,33.7696,1580.2906],[36.0108,33.7698,1594.8446],[36.0085,33.7677,1588.8979],[36.0107,33.7627,1639.8737],[36.0037,33.7547,1612.1631],[35.9971,33.7412,1614.1514],[35.989,33.7336,1542.7336],[35.9869,33.7262,1460.5188],[35.98,33.7266,1421.2192],[35.976,33.7295,1446.989],[35.9738,33.7291,1437.0426],[35.9743,33.7242,1391.0948],[35.9707,33.7203,1450.8911],[35.969,33.7143,1442.8064],[35.9711,33.7065,1373.002],[35.9673,33.7006,1381.2554],[35.9681,33.6976,1374.2231],[35.9732,33.6938,1357.0972],[35.9742,33.6892,1377.3293],[35.9718,33.689,1373.4056],[35.9708,33.6849,1405.2548],[35.9682,33.6836,1392.2125],[35.9663,33.6764,1387.4357],[35.9557,33.6732,1386.0369],[35.9506,33.6747,1396.8699],[35.9465,33.6718,1429.916],[35.9446,33.6602,1437.3262],[35.9404,33.6546,1461.2659],[35.9334,33.6507,1479.5892],[35.9361,33.6478,1478.5823],[35.9345,33.6454,1499.526],[35.9365,33.6393,1589.3961],[35.9469,33.6373,1522.4375],[35.9499,33.6341,1471.7104],[35.9745,33.6331,1327.6907],[35.9753,33.637,1278.8567],[35.9783,33.6372,1273.7944],[35.9779,33.6353,1311.3792],[35.9813,33.632,1294.1538],[36.0049,33.6189,1351.937],[36.0315,33.6089,1158.3929],[36.0316,33.6047,1170.8517],[36.0361,33.6045,1223.4376],[36.0557,33.5922,1176.9573],[36.0599,33.5883,1249.0048],[36.0608,33.5833,1322.0699],[36.0627,33.5813,1312.7915],[36.1445,33.5815,1008.1551],[36.1616,33.5661,876.5576],[36.2266,33.6235,1181.3345],[36.2462,33.63,1174.8866],[36.2732,33.6785,1602.9059],[36.2909,33.6962,1842.824],[36.29,33.7223,1762.7192],[36.2863,33.7382,1931.0316],[36.2807,33.7512,1798.3171],[36.2797,33.7596,1798.502],[36.2723,33.7717,1846.6423],[36.2713,33.7838,1916.1296],[36.2769,33.7978,2029.566],[36.2788,33.8127,2120.8647],[36.2835,33.8277,1867.3479],[36.2898,33.8414,1843.2842],[36.2821,33.8452,1882.9916],[36.2789,33.8521,1924.2263],[36.2575,33.8553,2027.0251],[36.2521,33.8576,2082.2031],[36.25,33.8569,2077.7524],[36.2485,33.8535,2043.3417]]],
[[[36.1648,33.848,1689.5625],[36.1642,33.8476,1689.5625],[36.1649,33.848,1689.5625],[36.1648,33.848,1689.5625]]]]}}