{"type":"Feature","properties":{"GID_2":"SYR.12.1_1","GID_0":"SYR","country":"Syria","GID_1":"SYR.12_1","province":"Quneitra","NL_NAME_1":"NA","county":"Quneitra","VARNAME_2":"NA","NL_NAME_2":"NA","TYPE_2":"Mantika","ENGTYPE_2":"District","CC_2":"NA","HASC_2":"NA","name":"Quneitra.county"},
"geometry":{"type": "MultiPolygon","coordinates": [[[[35.869,32.9009,573.4866],[35.9032,32.8746,514.2271],[35.9173,32.8954,534.0084],[35.9312,32.903,554.658],[35.9461,32.9316,586.1598],[35.9809,32.9838,650.7534],[35.9909,32.9962,666.7566],[35.9909,33.0173,710.1782],[35.9859,33.0323,754.0641],[35.9772,33.041,788.2424],[35.9789,33.0444,801.6919],[35.9673,33.0596,819.2352],[35.9697,33.0758,830.0879],[35.9871,33.1006,829.6692],[36.0132,33.1131,810.4823],[36.0182,33.128,829.2308],[36.0157,33.1404,843.4128],[36.0095,33.1479,855.9237],[35.9971,33.1578,885.5592],[35.9884,33.1615,896.6732],[35.9797,33.169,932.8173],[35.9747,33.2075,928.5646],[35.9784,33.2187,913.7992],[35.9722,33.2398,911.7386],[35.9623,33.251,923.8589],[35.93,33.2548,958.1832],[35.9163,33.2747,1007.4712],[35.915,33.2983,1031.7969],[35.9014,33.3095,1147.7726],[35.8706,33.3238,1192.0826],[35.8709,33.3209,1181.1799],[35.8424,33.3284,1525.9575],[35.8511,33.3232,1495.2131],[35.8175,33.2858,1297.6118],[35.8222,33.2756,1228.2273],[35.8501,33.2532,1115.9259],[35.8473,33.2112,975.934],[35.8632,33.1972,952.6023],[35.8678,33.1767,938.6192],[35.866,33.1646,928.9892],[35.8511,33.145,916.7448],[35.8417,33.1226,932.5023],[35.8539,33.1133,907.3152],[35.8753,33.1021,875.8094],[35.8734,33.0657,908.6199],[35.8781,33.0172,842.3845],[35.8846,32.9743,749.5947],[35.8977,32.9639,700.024],[35.9009,32.9387,650.9813],[35.869,32.9009,573.4866]]]]}}