{"type":"Feature","properties":{"GID_1":"SYR.5_1","GID_0":"SYR","country":"Syria","province":"Damascus","VARNAME_1":"NA","NL_NAME_1":"NA","TYPE_1":"Muḥāfaẓah","ENGTYPE_1":"Governorate","CC_1":"NA","HASC_1":"SY.DI","ISO_1":"NA","name":"Damascus.province"},
"geometry":{"type": "MultiPolygon","coordinates": [[[[36.2891,33.5647,965.7411],[36.2895,33.5494,1019.097],[36.306399999999996,33.5343,705.4203],[36.3162,33.5147,679.2665],[36.3305,33.5084,666.5761],[36.4009,33.5102,645.3241],[36.4018,33.5905,657.389],[36.3019,33.5931,955.8749],[36.2886,33.586,939.3184],[36.2891,33.5647,965.7411]]]]}}