{"type":"Feature","properties":{"ISO3166-1-Alpha-3":"SYR","country":"Syria","fill":"#F0F","id":"4843","name":"Damascus"},
"geometry":{"type": "Polygon","coordinates": [[[36.31661,33.46069,668.6149],[36.32012,33.47299,673.0804],[36.3431,33.49244,679.4797],[36.35209,33.51435,683.958],[36.35013,33.53289,693.5821],[36.3511,33.54388,708.5474],[36.33495,33.56211,757.8843],[36.30714,33.56408,919.7029],[36.25151,33.55031,847.3091],[36.22163,33.54946,758.8511],[36.18316,33.53149,933.7893],[36.19075,33.51323,1009.1432],[36.20648,33.51491,919.9424],[36.23033,33.50522,855.8171],[36.20901,33.48654,783.8396],[36.21434,33.47642,741.5828],[36.23682,33.48907,740.9965],[36.2975,33.4635,678.7971],[36.31661,33.46069,668.6149]]]}}