{"type":"Feature","properties":{"GID_2":"SYR.8.3_1","GID_0":"SYR","country":"Syria","GID_1":"SYR.8_1","province":"Hamah","NL_NAME_1":"NA","county":"Masyaf","VARNAME_2":"NA","NL_NAME_2":"NA","TYPE_2":"Mantika","ENGTYPE_2":"District","CC_2":"NA","HASC_2":"NA","name":"Masyaf.county"},
"geometry":{"type": "MultiPolygon","coordinates": [[[[36.1996,35.2256,907.618],[36.1936,35.2143,735.2025],[36.1936,35.2061,671.8695],[36.2172,35.1774,944.0521],[36.2285,35.1589,980.5473],[36.2326,35.1435,997.1546],[36.2326,35.1025,1060.1992],[36.2295,35.0851,898.9564],[36.2192,35.0687,892.6733],[36.2069,35.0533,683.2529],[36.1854,35.0492,580.4089],[36.1751,35.0492,508.1985],[36.1751,35.0317,785.1131],[36.1936,34.9989,460.9819],[36.2049,34.9743,855.1148],[36.2161,34.9569,624.139],[36.2602,34.9333,929.4119],[36.2746,34.9282,939.1235],[36.2951,34.9159,867.8945],[36.3125,34.9138,835.2758],[36.3587,34.9138,584.2555],[36.3812,34.923,621.2083],[36.3946,34.9364,428.0035],[36.4007,34.9487,437.0429],[36.4028,34.9641,395.7194],[36.4018,35.0194,456.8191],[36.4294,35.0328,372.1856],[36.4335,35.0451,362.0782],[36.4346,35.0543,359.2399],[36.4387,35.0635,355.6051],[36.4479,35.0728,385.7476],[36.4551,35.0758,466.3068],[36.493,35.0799,373.605],[36.5053,35.0892,407.9899],[36.5063,35.0963,359.4253],[36.5053,35.1045,321.2843],[36.494,35.1169,406.0616],[36.4858,35.1292,383.2382],[36.4838,35.1415,318.4156],[36.4838,35.1538,332.2017],[36.4899,35.1681,274.8571],[36.5217,35.1907,254.0306],[36.5267,35.1965,260.6198],[36.5211,35.2004,248.508],[36.5116,35.2116,216.6266],[36.5004,35.2187,203.6723],[36.4869,35.2227,196.5969],[36.4709,35.2315,191.7619],[36.4534,35.2474,182.2181],[36.447,35.2562,177.2678],[36.447,35.2589,177.2548],[36.4243,35.2614,176.4598],[36.3843,35.2502,193.6227],[36.3566,35.2471,200.5382],[36.3207,35.2266,888.1678],[36.306399999999996,35.2132,846.321],[36.29,35.2091,784.1752],[36.2746,35.2091,996.7809],[36.2213,35.2143,1036.8801],[36.2069,35.2235,731.1247],[36.1996,35.2256,907.618]]]]}}