{"type":"Feature","properties":{"GID_2":"SYR.11.1_1","GID_0":"SYR","country":"Syria","GID_1":"SYR.11_1","province":"Lattakia","NL_NAME_1":"NA","county":"Al-Haffah","VARNAME_2":"NA","NL_NAME_2":"NA","TYPE_2":"Mantika","ENGTYPE_2":"District","CC_2":"NA","HASC_2":"NA","name":"Al-Haffah.county"},
"geometry":{"type": "MultiPolygon","coordinates": [[[[36.2394,35.7524,1033.6272],[36.2305,35.7539,917.8407],[36.2228,35.7599,755.6832],[36.211,35.7526,757.4108],[36.1915,35.7485,580.9807],[36.1618,35.7178,813.7741],[36.1485,35.7085,719.3139],[36.1259,35.7055,579.4726],[36.1126,35.7055,568.4476],[36.0993,35.6962,487.8104],[36.0869,35.6808,348.2185],[36.0623,35.6583,377.886],[36.0295,35.646,124.7305],[36.0141,35.6378,234.0903],[35.9936,35.6132,236.924],[35.9721,35.5773,95.2646],[35.9629,35.566,66.3426],[35.9301,35.5352,76.1344],[35.9267,35.5292,53.6951],[35.9536,35.5055,70.7439],[35.9752,35.4922,137.654],[36.0182,35.485,310.7676],[36.0521,35.484,378.3867],[36.0705,35.4788,378.4606],[36.1208,35.4706,554.4976],[36.1382,35.4634,935.4857],[36.169,35.444,843.4911],[36.1813,35.444,1071.0426],[36.1874,35.4491,1044.2097],[36.2059,35.4901,1258.1713],[36.2059,35.5373,1222.0011],[36.2336,35.6091,1002.2869],[36.2336,35.6224,809.3296],[36.2274,35.6316,1242.1357],[36.2203,35.648,1306.6261],[36.212,35.6552,1315.3972],[36.2069,35.6675,1213.7502],[36.2069,35.6931,1115.9174],[36.2182,35.7208,890.5872],[36.2203,35.7321,923.3403],[36.2274,35.7434,1032.2142],[36.2394,35.7524,1033.6272]]]]}}