{"type":"Feature","properties":{"GID_1":"SYR.6_1","GID_0":"SYR","country":"Syria","province":"Dar`a","VARNAME_1":"Dara'a|Dária|Dera`a|Derraa|Haura","NL_NAME_1":"NA","TYPE_1":"Muḥāfaẓah","ENGTYPE_1":"Governorate","CC_1":"NA","HASC_1":"SY.DR","ISO_1":"NA","name":"Dar`a.province"},
"geometry":{"type": "MultiPolygon","coordinates": [[[[35.7855,32.7597,320.8481],[35.7796,32.7519,60.8367],[35.8014,32.7596,164.4232],[35.8077,32.7565,250.1035],[35.8093,32.7511,198.9092],[35.8045,32.7427,94.7118],[35.8076,32.7384,-14.4326],[35.817,32.7396,118.0737],[35.8202,32.7346,-20.724],[35.8263,32.7311,53.0976],[35.8351,32.729,20.3458],[35.8413,32.7294,1.8767],[35.8619,32.7357,122.0242],[35.8784,32.7357,261.2971],[35.8864,32.7331,297.6025],[35.9013,32.7248,142.1609],[35.9091,32.7259,261.2307],[35.9204,32.7221,175.103],[35.9308,32.7246,301.8335],[35.9368,32.7241,333.6595],[35.9452,32.7177,405.5861],[35.948,32.707,410.5359],[35.9517,32.7034,414.4201],[35.9627,32.697,390.4483],[35.9746,32.6969,418.9087],[35.9827,32.6906,418.2696],[35.9829,32.682,433.6537],[35.9726,32.6735,426.4215],[35.9734,32.6711,428.59],[35.983,32.6651,432.9559],[35.9936,32.6614,433.5516],[36.0108,32.6628,451.3203],[36.0197,32.6619,469.0787],[36.0329,32.6579,474.7668],[36.0363,32.6543,470.9127],[36.0392,32.6425,497.8335],[36.0388,32.6308,513.9527],[36.0349,32.6071,519.6877],[36.0363,32.6039,515.2649],[36.0589,32.5878,583.6693],[36.0704,32.5758,583.1636],[36.0844,32.5491,617.6371],[36.0887,32.5367,616.0716],[36.0908,32.5179,645.8509],[36.1106,32.5231,663.0333],[36.1338,32.5239,659.367],[36.1647,32.5222,618.0822],[36.1784,32.5183,602.709],[36.2007,32.5285,576.0063],[36.2056,32.5284,574.7238],[36.2178,32.5218,579.5272],[36.2577,32.4929,618.491],[36.2961,32.4705,631.4237],[36.3365,32.4427,675.7753],[36.4006,32.3872,749.7374],[36.4097,32.3822,759.1365],[36.4636,32.3773,812.5013],[36.4802,32.3734,831.0593],[36.4928,32.3675,840.7064],[36.5033,32.3591,833.491],[36.5207,32.3549,861.6204],[36.5546,32.3521,913.8404],[36.5527,32.3971,933.5964],[36.5552,32.4493,968.8586],[36.5527,32.4592,984.2257],[36.5304,32.4878,939.7723],[36.5304,32.4965,928.8384],[36.5328,32.5089,938.6805],[36.5465,32.5238,956.5924],[36.5567,32.5301,969.1442],[36.544,32.5599,953.5406],[36.5291,32.5674,948.5342],[36.5067,32.5711,897.1393],[36.4732,32.581,815.1835],[36.4483,32.5922,788.062],[36.4235,32.6084,772.166],[36.421,32.6146,773.0643],[36.4284,32.6245,764.908],[36.462,32.6357,803.2468],[36.4732,32.6444,799.5299],[36.4744,32.6556,805.9677],[36.4694,32.6743,808.4547],[36.4496,32.6854,772.3419],[36.4334,32.6904,760.0414],[36.3961,32.6966,721.3034],[36.3911,32.7004,706.2537],[36.3874,32.7377,694.563],[36.3874,32.8359,692.2811],[36.3899,32.9229,680.7015],[36.3998,32.9365,692.0034],[36.4185,32.9365,716.5017],[36.4172,32.9428,716.1016],[36.4094,32.9594,693.944],[36.4259,32.9676,703.0374],[36.4409,32.9825,714.7462],[36.4545,32.985,720.8429],[36.5154,32.9863,764.9276],[36.5428,32.9912,769.2134],[36.5689,32.9912,775.1241],[36.5888,33.0037,772.9415],[36.5962,33.0198,787.4473],[36.595,33.0323,761.4583],[36.5801,33.0434,753.0604],[36.5391,33.0546,713.756],[36.5217,33.0621,707.551],[36.5105,33.0758,699.2383],[36.5105,33.1342,650.8351],[36.5229,33.1516,642.1065],[36.5428,33.169,645.6296],[36.5776,33.1802,675.7578],[36.6093,33.1848,677.7429],[36.6088,33.2207,628.1613],[36.5986,33.2347,615.4562],[36.5864,33.2459,612.8378],[36.5725,33.2673,603.7429],[36.565,33.2841,603.8618],[36.5473,33.2869,602.8229],[36.5193,33.286,613.5544],[36.5091,33.2757,623.4095],[36.4914,33.2636,619.4713],[36.4671,33.2543,623.3651],[36.4475,33.2403,637.4192],[36.4298,33.2179,611.7961],[36.4121,33.1993,609.0851],[36.3925,33.1965,605.8685],[36.3776,33.1965,608.682],[36.3711,33.203,610.2991],[36.3674,33.2142,617.0254],[36.3655,33.2412,628.182],[36.3618,33.2487,641.8965],[36.3347,33.2776,654.9639],[36.3012,33.299,722.2891],[36.2881,33.299,693.3989],[36.2667,33.2934,716.6205],[36.2434,33.2916,736.9658],[36.2285,33.2804,738.0341],[36.2191,33.2683,728.3864],[36.2182,33.2338,733.5237],[36.2154,33.2226,743.4082],[36.2079,33.2179,709.6577],[36.1949,33.2151,715.8008],[36.1893,33.2086,744.6552],[36.1147,33.2086,770.4995],[36.1026,33.2058,791.0502],[36.0728,33.1881,801.071],[36.0541,33.1816,822.9816],[36.0327,33.1816,861.3844],[36.0215,33.1834,870.2186],[36.001,33.19,900.7529],[35.9775,33.1888,929.6581],[35.9797,33.169,932.8173],[35.9884,33.1615,896.6732],[35.9971,33.1578,885.5592],[36.0095,33.1479,855.9237],[36.0157,33.1404,843.4128],[36.0182,33.128,829.2308],[36.0132,33.1131,810.4823],[35.9871,33.1006,829.6692],[35.9697,33.0758,830.0879],[35.9673,33.0596,819.2352],[35.9789,33.0444,801.6919],[35.9772,33.041,788.2424],[35.9859,33.0323,754.0641],[35.9909,33.0173,710.1782],[35.9909,32.9962,666.7566],[35.9809,32.9838,650.7534],[35.9461,32.9316,586.1598],[35.9312,32.903,554.658],[35.9173,32.8954,534.0084],[35.9032,32.8746,514.2271],[35.869,32.9009,573.4866],[35.8641,32.8951,554.1507],[35.8567,32.8708,494.7366],[35.8595,32.8559,470.6413],[35.8529,32.84,442.4403],[35.8249,32.8037,208.3155],[35.797,32.7748,260.8374],[35.7855,32.7597,320.8481]]]]}}