{"type":"Feature","properties":{"ISO3166-1-Alpha-3":"SYR","country":"Syria","fill":"#F00","id":"146","name":"Dar`a"},
"geometry":{"type": "Polygon","coordinates": [[[36.57087,33.19397,658.2278],[36.56855,33.20451,638.1511],[36.56793,33.22076,625.5127],[36.56746,33.2226,622.8894],[36.56684,33.22446,621.1115],[36.56622,33.22616,624.7817],[36.56436,33.22924,625.953],[36.56312,33.23087,625.5132],[36.52917,33.26391,605.7278],[36.5271,33.26681,605.5559],[36.5254,33.26996,605.547],[36.52106,33.28218,611.4009],[36.51951,33.28536,612.6807],[36.51765,33.28841,614.3601],[36.51625,33.29027,615.3484],[36.51439,33.29218,617.3867],[36.51083,33.29476,619.7821],[36.50664,33.29482,624.3746],[36.50323,33.29445,628.1877],[36.48649,33.28479,662.9865],[36.48106,33.27885,677.4633],[36.4778,33.27601,644.0529],[36.42845,33.25024,658.2925],[36.4283,33.25017,658.2925],[36.42814,33.25009,658.2925],[36.42411,33.24776,627.5744],[36.39399,33.22469,632.0724],[36.39073,33.22053,625.1592],[36.38995,33.2189,620.0682],[36.38949,33.21709,618.7103],[36.38856,33.20629,609.0895],[36.38809,33.20428,608.6666],[36.38747,33.2025,608.2223],[36.38654,33.2011,608.3571],[36.38577,33.20033,609.0693],[36.38344,33.19885,609.3357],[36.38158,33.19818,608.8784],[36.37616,33.19841,608.747],[36.36825,33.19955,609.9038],[36.34246,33.20588,634.9646],[36.33812,33.20784,639.0239],[36.33564,33.21038,644.2659],[36.3327,33.21265,642.7803],[36.32278,33.21797,651.7583],[36.32138,33.21921,644.411],[36.32045,33.22066,648.3146],[36.31626,33.22857,663.4373],[36.31518,33.22996,667.1793],[36.31394,33.23115,668.6423],[36.31099,33.23329,667.8284],[36.30913,33.23404,672.8651],[36.30479,33.235,668.2812],[36.28645,33.23709,771.1614],[36.28366,33.23787,771.7335],[36.2818,33.23872,757.7847],[36.28025,33.23965,765.8514],[36.2787,33.24074,801.5295],[36.27761,33.24211,802.9808],[36.27668,33.24363,875.924],[36.27606,33.24541,852.8944],[36.27497,33.25572,803.4182],[36.27435,33.25748,821.9161],[36.27342,33.25906,830.523],[36.27218,33.2603,842.96],[36.27079,33.26146,860.9677],[36.26924,33.26247,872.5667],[36.25854,33.26719,850.9725],[36.25684,33.2682,854.384],[36.25405,33.27037,838.988],[36.24919,33.27539,779.2365],[36.24113,33.28699,749.6661],[36.23989,33.2883,753.3016],[36.23849,33.28939,750.0585],[36.23679,33.29024,755.1177],[36.23493,33.29086,747.4181],[36.23198,33.28929,746.2894],[36.22888,33.2859,747.4227],[36.22407,33.27663,735.438],[36.22268,33.27221,731.7238],[36.22221,33.26903,731.938],[36.22578,33.25789,757.9342],[36.22624,33.25389,746.4269],[36.22609,33.252,738.9711],[36.22578,33.25045,738.9711],[36.22578,33.2503,736.0129],[36.22578,33.25017,736.0129],[36.22438,33.24621,727.4599],[36.22283,33.24288,722.5487],[36.2171,33.2342,735.5337],[36.21338,33.22627,744.3622],[36.20392,33.22237,716.7502],[36.16201,33.21048,738.2552],[36.14697,33.20379,746.3849],[36.14279,33.2027,750.7917],[36.06346,33.19725,823.3601],[36.06176,33.19637,820.8425],[36.04703,33.18539,843.1163],[36.04083,33.18159,852.2836],[36.03726,33.18015,856.1466],[36.03106,33.17834,856.9219],[36.02543,33.17759,860.925],[36.00621,33.1779,892.7126],[35.99969,33.17922,891.8604],[35.99613,33.18301,902.8147],[35.99008,33.1926,908.8676],[35.98605,33.1957,916.6797],[35.98342,33.19733,919.7463],[35.96166,33.20482,941.5424],[35.95375,33.16653,978.1537],[35.95298,33.15622,948.4819],[35.95406,33.15477,951.591],[35.96817,33.14601,904.0724],[35.97065,33.14387,902.1997],[35.97365,33.14051,895.6045],[35.9783,33.13281,879.9094],[35.9797,33.12878,887.113],[35.98001,33.12612,878.894],[35.96745,33.10909,850.2959],[35.96089,33.09625,829.9652],[35.9598,33.0948,828.6818],[35.94771,33.03214,762.6469],[35.94709,33.02463,749.8876],[35.95205,33.01512,719.5082],[35.96352,33.00065,682.8647],[35.96368,33.00023,681.0754],[35.96383,33.00008,681.0754],[35.9691,32.99049,666.441],[35.97349,32.98509,655.5643],[35.97753,32.98137,645.0112],[35.97939,32.97788,642.391],[35.9859,32.96018,616.4164],[35.98714,32.95453,607.4764],[35.98729,32.95065,602.5326],[35.98636,32.9491,599.929],[35.98512,32.94817,597.3624],[35.98326,32.94812,601.4856],[35.98156,32.94856,601.8948],[35.97985,32.94931,608.3005],[35.97815,32.95019,609.0278],[35.9766,32.95132,611.6145],[35.97551,32.95259,614.6964],[35.97427,32.95404,618.2965],[35.97349,32.95556,621.1767],[35.97241,32.95907,631.4067],[35.97179,32.96073,634.0532],[35.97065,32.96212,637.5236],[35.9691,32.96316,642.5776],[35.96714,32.9638,646.1483],[35.96228,32.96442,648.4918],[35.94461,32.96362,637.4768],[35.94151,32.96292,638.5095],[35.93841,32.96158,633.168],[35.93422,32.95848,626.3242],[35.93283,32.956,621.2172],[35.93252,32.95373,614.3779],[35.93329,32.95212,614.3779],[35.93438,32.95073,609.3093],[35.93686,32.94817,602.9723],[35.93841,32.94437,602.0],[35.93996,32.93848,597.2067],[35.9429,32.91887,567.994],[35.94244,32.91443,565.3574],[35.94182,32.9128,565.076],[35.9367,32.90675,556.2373],[35.90673,32.88618,526.117],[35.85397,32.8451,352.1884],[35.8468,32.83578,316.755],[35.84818,32.83027,216.8133],[35.8427,32.82167,303.2034],[35.82172,32.79591,129.4431],[35.81542,32.78653,224.5017],[35.80766,32.78263,72.8202],[35.79113,32.7741,126.5108],[35.76973,32.74805,-45.4124],[35.7749,32.74728,-52.3857],[35.77914,32.74451,37.2763],[35.77914,32.74446,37.2763],[35.77904,32.74436,37.2763],[35.77904,32.74428,37.2763],[35.78823,32.73441,311.4144],[35.89572,32.71328,397.7307],[35.90523,32.70857,366.6065],[35.92249,32.69377,418.2836],[35.92745,32.69237,412.8235],[35.94037,32.6925,327.5192],[35.94419,32.69077,410.7126],[35.94574,32.6841,412.6142],[35.9444,32.67762,400.4405],[35.9412,32.67354,422.2636],[35.93748,32.674,420.387],[35.94657,32.66444,436.9059],[35.95536,32.65744,432.4708],[35.96579,32.65436,436.9859],[35.98026,32.65661,448.1581],[36.00362,32.65509,439.7049],[36.00827,32.64372,454.9591],[36.00527,32.62669,475.3036],[36.006,32.60791,505.2197],[36.0154,32.59116,523.944],[36.06047,32.53326,564.8431],[36.06605,32.52161,572.7069],[36.06625,32.51732,574.7529],[36.06987,32.5166,584.3353],[36.08191,32.51626,657.3654],[36.09623,32.51587,619.4152],[36.13323,32.52011,661.687],[36.13953,32.51954,660.0312],[36.14987,32.51613,641.9088],[36.15586,32.5152,635.3388],[36.16082,32.51722,622.9698],[36.17219,32.52592,592.6195],[36.17736,32.52732,584.3994],[36.18821,32.52228,578.6899],[36.22077,32.49458,587.7426],[36.28526,32.45693,633.9271],[36.37311,32.38642,721.4656],[36.38789,32.37932,734.5336],[36.40763,32.37423,752.0196],[36.46395,32.36939,810.5561],[36.48018,32.36079,821.2422],[36.51668,32.35701,858.3297],[36.51667,32.35728,857.9491],[36.51625,32.36314,848.1985],[36.52028,32.39161,889.9155],[36.52106,32.39425,890.3859],[36.51811,32.44257,912.6074],[36.51873,32.44704,912.3395],[36.52555,32.46644,916.5739],[36.52648,32.47032,921.7897],[36.52731,32.47869,929.9351],[36.52607,32.48226,931.8197],[36.52369,32.48673,921.9553],[36.51377,32.50008,894.2746],[36.49997,32.51336,891.3956],[36.49501,32.51962,870.5635],[36.4947,32.52223,868.2842],[36.49548,32.52556,868.3948],[36.50075,32.53556,879.3577],[36.50726,32.54318,889.6106],[36.50819,32.54468,889.4154],[36.50664,32.55062,880.9655],[36.49501,32.56618,863.9252],[36.47858,32.5645,830.2127],[36.47625,32.56458,827.5236],[36.47419,32.56517,823.5703],[36.47067,32.56675,819.9752],[36.4669,32.5693,805.8943],[36.46458,32.57197,801.0939],[36.46039,32.57576,790.7944],[36.45806,32.57646,788.7296],[36.45558,32.57693,787.3774],[36.45326,32.57687,785.0702],[36.43434,32.57416,768.212],[36.41869,32.57437,754.988],[36.4022,32.57669,744.7219],[36.40065,32.5785,745.2847],[36.40003,32.58142,739.5226],[36.40112,32.58783,742.0479],[36.40205,32.59111,738.3143],[36.4053,32.59873,747.6426],[36.40639,32.60245,763.1381],[36.40561,32.6055,772.9424],[36.39972,32.61679,761.5601],[36.39879,32.62134,760.0015],[36.40019,32.62659,763.0583],[36.40236,32.6286,770.9351],[36.40437,32.63,771.3221],[36.41693,32.63325,750.9567],[36.4207,32.63465,752.8762],[36.42225,32.6355,754.6957],[36.42365,32.63659,757.3081],[36.42876,32.64163,768.0623],[36.43016,32.64276,773.0081],[36.43357,32.64465,777.2623],[36.4407,32.64772,781.9448],[36.44365,32.64982,780.7936],[36.44644,32.65214,776.6079],[36.44737,32.65349,776.6079],[36.4483,32.65501,786.7007],[36.45047,32.66243,786.2421],[36.45062,32.66677,779.5639],[36.44814,32.67018,781.2229],[36.44349,32.67434,775.7814],[36.43047,32.68188,766.3585],[36.42411,32.68478,758.6676],[36.41941,32.6864,750.9468],[36.39941,32.68798,731.2469],[36.39507,32.68899,729.4009],[36.37972,32.69441,694.5961],[36.3774,32.69488,689.3109],[36.37507,32.69516,685.0959],[36.37027,32.69527,674.4867],[36.36577,32.69607,669.0328],[36.36277,32.6971,670.5848],[36.36143,32.69826,670.5848],[36.35967,32.70033,672.7185],[36.35719,32.70467,671.9163],[36.3558,32.70741,675.5173],[36.35518,32.70981,671.4473],[36.35425,32.71599,666.0999],[36.35425,32.72033,663.7702],[36.35502,32.72674,665.5027],[36.3574,32.7317,668.8523],[36.3681,32.74009,677.7764],[36.36029,32.80699,677.6165],[36.36029,32.82288,668.9576],[36.36215,32.82528,671.3681],[36.36267,32.82616,671.1717],[36.3636,32.82939,666.9628],[36.35998,32.83986,663.1874],[36.34215,32.87577,645.1597],[36.33967,32.88611,643.68],[36.33704,32.89316,638.5878],[36.33626,32.89921,631.3796],[36.33642,32.90135,628.7926],[36.33688,32.90329,630.3792],[36.33812,32.90675,629.0034],[36.34634,32.92047,641.0482],[36.34681,32.92238,644.2931],[36.34712,32.92427,652.4661],[36.34696,32.92634,651.975],[36.34665,32.92815,648.9767],[36.34603,32.93001,646.8027],[36.34525,32.93163,644.0361],[36.34262,32.93631,633.7128],[36.34138,32.93975,637.371],[36.34107,32.94184,632.6599],[36.34122,32.94391,634.6256],[36.34324,32.94677,636.7284],[36.34681,32.94995,641.4363],[36.36277,32.96003,648.3554],[36.37476,32.96602,655.5624],[36.38856,32.97724,666.0632],[36.41931,32.997,691.1084],[36.42675,33.00008,697.9247],[36.43745,33.00248,695.8595],[36.4778,33.00463,726.6735],[36.53677,33.00127,764.9071],[36.54157,33.00171,765.8491],[36.54374,33.0022,763.3732],[36.54483,33.00383,758.2905],[36.54514,33.00636,759.1609],[36.54312,33.01163,756.0273],[36.53847,33.01959,742.442],[36.53677,33.02297,734.1707],[36.5363,33.02478,731.776],[36.53584,33.02664,729.0812],[36.53444,33.05046,721.1266],[36.53336,33.05395,711.0673],[36.53238,33.0555,712.1826],[36.53134,33.05687,710.7221],[36.52989,33.05798,707.7958],[36.52824,33.05876,707.0933],[36.52586,33.05927,704.3667],[36.52354,33.05938,706.0326],[36.51873,33.05907,712.6466],[36.51656,33.05865,711.762],[36.50106,33.05395,698.1069],[36.49966,33.0538,698.1069],[36.49796,33.05385,697.0553],[36.49594,33.05418,690.806],[36.49424,33.05486,690.9608],[36.49253,33.05573,695.9369],[36.49129,33.05687,695.9369],[36.48897,33.05943,690.0603],[36.48804,33.06111,688.7432],[36.48757,33.063,687.033],[36.48711,33.07852,684.4153],[36.48664,33.08258,686.6299],[36.48587,33.08638,685.6016],[36.48447,33.08992,688.0458],[36.47765,33.1024,678.2578],[36.47481,33.10912,671.6686],[36.47264,33.1164,668.4539],[36.47253,33.11891,666.1143],[36.47284,33.12204,664.0337],[36.47408,33.12744,661.7207],[36.47501,33.13371,657.2361],[36.47481,33.13596,650.29],[36.47388,33.13973,645.952],[36.47191,33.14485,639.5222],[36.47129,33.14671,636.9901],[36.47098,33.14911,635.707],[36.47109,33.15198,631.0417],[36.47233,33.15648,621.976],[36.47419,33.16118,619.1096],[36.47718,33.16575,615.619],[36.48199,33.17084,624.4565],[36.48773,33.17531,623.6279],[36.50478,33.1864,617.5014],[36.50897,33.18694,621.2948],[36.51532,33.18707,622.499],[36.54343,33.18423,635.6099],[36.5515,33.1857,650.0124],[36.57087,33.19397,658.2278]]]}}