{"type":"Feature","properties":{"GID_2":"SYR.14.5_1","GID_0":"SYR","country":"Syria","GID_1":"SYR.14_1","province":"Tartus","NL_NAME_1":"NA","county":"Tartus","VARNAME_2":"NA","NL_NAME_2":"NA","TYPE_2":"Mantika","ENGTYPE_2":"District","CC_2":"NA","HASC_2":"NA","name":"Tartus.county"},
"geometry":{"type": "MultiPolygon","coordinates": [[[[36.118,34.6391,26.4851],[36.1213,34.6419,25.2786],[36.1258,34.6419,28.2499],[36.1283,34.6393,30.0872],[36.1318,34.6395,32.0016],[36.1364,34.6357,39.6305],[36.1331,34.6467,35.303],[36.1331,34.6636,36.7296],[36.1239,34.6749,37.8858],[36.1095,34.6831,39.9331],[36.088,34.7005,57.8757],[36.0746,34.7159,151.3899],[36.0675,34.7292,201.543],[36.0654,34.7395,192.2441],[36.0541,34.7477,208.2507],[36.0408,34.7487,81.4849],[36.0326,34.7528,95.484],[36.0275,34.7795,108.9636],[36.0254,34.8769,237.1269],[36.0235,34.8892,346.65],[35.9998,34.8913,177.9729],[35.9916,34.9025,247.9353],[35.9936,34.9138,348.0647],[36.0172,34.9333,249.7637],[36.0223,34.9477,231.0493],[36.0275,34.9538,333.1082],[36.0264,34.9712,361.2079],[36.0286,34.9825,380.4683],[36.0203,34.9928,468.2507],[36.0008,35.0297,506.2093],[35.9926,35.0358,462.5923],[35.9854,35.0451,384.4503],[35.9731,35.0717,181.8187],[35.9691,35.0754,223.3517],[35.9485,35.0676,122.6026],[35.9188,35.0533,131.2551],[35.8901,35.0452,0.0],[35.8946,35.0337,1.8776],[35.8982,35.0079,0.0],[35.8932,34.9996,3.8354],[35.8904,34.9993,0.0],[35.8776,34.9893,0.0],[35.8779,34.981,4.3329],[35.8754,34.9657,0.5636],[35.871,34.9685,0.0],[35.8715,34.966,0.0],[35.8749,34.964,2.234],[35.8781,34.954,1.9967],[35.8776,34.9404,0.0],[35.8801,34.9377,2.9178],[35.8796,34.9205,0.0],[35.8782,34.9182,2.8913],[35.8724,34.916,0.0],[35.8729,34.9151,1.1391],[35.8627,34.9135,0.0],[35.859,34.9099,0.0],[35.8599,34.9093,0.0],[35.866,34.9129,0.0],[35.8713,34.9137,0.0],[35.8626,34.9104,0.0],[35.8632,34.9087,0.0],[35.8671,34.9087,1.3179],[35.8626,34.9065,0.0],[35.8674,34.9057,1.6078],[35.8643,34.9024,0.0],[35.8699,34.9032,0.0],[35.8671,34.9015,0.0],[35.8713,34.9007,0.0],[35.871,34.8993,0.3899],[35.8593,34.901,0.0],[35.8563,34.9046,0.0],[35.8551,34.9104,0.0],[35.8543,34.9076,0.0],[35.8582,34.9001,0.0],[35.8732,34.8968,3.3447],[35.8749,34.8927,4.0501],[35.8743,34.8896,-0.1211],[35.8773,34.8879,1.4794],[35.8813,34.8818,2.6856],[35.8843,34.8665,1.1102],[35.8909,34.8571,1.2098],[35.8982,34.8396,0.0],[35.8999,34.8385,0.0],[35.8996,34.8357,0.0],[35.9093,34.8187,1.4527],[35.9121,34.8099,0.0],[35.9169,34.8041,1.2447],[35.9162,34.8024,0.0],[35.9265,34.7843,0.0],[35.9307,34.7663,0.426],[35.931,34.7596,0.0],[35.9287,34.756,0.0],[35.9313,34.7496,1.3911],[35.9321,34.7365,0.2341],[35.9405,34.7176,0.3548],[35.9401,34.7157,0.0],[35.9435,34.711,0.0],[35.9465,34.6999,0.0],[35.9499,34.6968,0.8351],[35.9687,34.6521,1.2657],[35.9704,34.6443,3.4177],[35.9726,34.6449,4.4856],[35.9753,34.6398,3.042],[35.9749,34.6437,1.0208],[35.98,34.6452,0.7909],[35.9794,34.6498,1.4582],[35.9848,34.6483,2.7723],[35.9894,34.6503,3.4302],[35.9893,34.6432,3.8748],[35.9911,34.6428,4.0423],[35.992,34.6448,4.0857],[35.9953,34.6427,4.5592],[36.0062,34.6456,4.8726],[36.0047,34.6422,5.8748],[36.0179,34.636,6.9778],[36.0225,34.6354,6.6042],[36.0236,34.6321,7.0215],[36.0269,34.6297,7.3643],[36.033,34.6312,7.4142],[36.0318,34.6287,8.6652],[36.0336,34.6276,7.1005],[36.0415,34.63,8.0861],[36.0511,34.628,8.7462],[36.0532,34.6324,13.9325],[36.058,34.633,8.8957],[36.0619,34.636,10.6427],[36.0636,34.6354,11.0233],[36.0637,34.6318,12.0456],[36.0665,34.6341,10.7491],[36.0724,34.6318,11.9562],[36.0726,34.6283,15.2313],[36.075,34.6289,11.4099],[36.0771,34.6339,13.5775],[36.0786,34.6344,12.9063],[36.0801,34.6336,12.3316],[36.0799,34.6307,15.3185],[36.0844,34.6322,15.7265],[36.0883,34.6292,13.7905],[36.0894,34.6307,14.3415],[36.0912,34.6291,12.321],[36.0935,34.631,14.7524],[36.0929,34.6319,14.7524],[36.0963,34.6332,14.7288],[36.096,34.6362,15.8353],[36.0984,34.6364,15.9134],[36.1001,34.6346,19.7508],[36.1038,34.6355,17.0844],[36.1093,34.6328,18.9711],[36.1145,34.6336,27.2503],[36.1153,34.6374,25.54],[36.118,34.6391,26.4851]]],
[[[35.8599,34.8593,0.0],[35.8557,34.8587,0.0],[35.8563,34.854,0.0],[35.8579,34.8532,0.0],[35.8626,34.8546,0.2518],[35.8615,34.8587,0.0],[35.8599,34.8593,0.0]]]]}}