{"type":"Feature","properties":{"ISO3166-1-Alpha-3":"SYR","country":"Syria","fill":"#0F0","id":"5261","name":"UNDOF"},
"geometry":{"type": "Polygon","coordinates": [[[35.84298,33.3228,1610.1179],[35.83495,33.33903,1871.948],[35.83019,33.35148,2158.1245],[35.83019,33.36476,1882.3191],[35.83495,33.37807,1878.0092],[35.84497,33.389,1974.4608],[35.86151,33.39907,2040.1926],[35.86999,33.40693,2181.5229],[35.87309,33.41628,2470.6992],[35.87009,33.43124,2360.511],[35.84512,33.41874,2636.1929],[35.8211,33.40672,2117.0286],[35.82244,33.40137,2387.926],[35.81697,33.3952,2247.947],[35.81542,33.37887,2146.5022],[35.81231,33.37336,2180.4873],[35.80994,33.36003,2175.7302],[35.7935,33.34993,2103.6753],[35.78575,33.34288,2030.8673],[35.76384,33.3344,1864.6616],[35.80208,33.31249,2013.837],[35.7686,33.2727,1290.0137],[35.77562,33.2649,1092.0609],[35.80363,33.24846,1153.168],[35.80766,33.20172,1045.9441],[35.83019,33.18999,959.5621],[35.8334,33.16113,969.9398],[35.82244,33.14157,988.9867],[35.81149,33.12676,940.1086],[35.81149,33.11191,957.2576],[35.8489,33.09868,931.8218],[35.8458,33.08542,970.3271],[35.85903,32.99021,842.021],[35.86461,32.97773,835.623],[35.88807,32.94494,683.2157],[35.87402,32.92233,646.3308],[35.86689,32.92078,642.4351],[35.84973,32.89582,539.7496],[35.83805,32.86603,481.2046],[35.84187,32.85358,449.6689],[35.83423,32.82795,443.0782],[35.7842,32.77795,79.2504],[35.75759,32.74435,-31.7223],[35.76384,32.74697,-54.1572],[35.76973,32.74805,-45.4124],[35.79113,32.7741,126.5108],[35.80766,32.78263,72.8202],[35.81542,32.78653,224.5017],[35.82172,32.79591,129.4431],[35.8427,32.82167,303.2034],[35.84818,32.83027,216.8133],[35.8468,32.83578,316.755],[35.84663,32.83647,316.755],[35.86068,32.88016,512.4954],[35.89035,32.92864,644.0156],[35.91215,32.94729,656.1856],[35.92383,32.96768,655.4605],[35.8981,32.98553,765.3922],[35.87712,32.99264,828.2854],[35.86461,33.08155,922.2344],[35.86844,33.10728,878.8776],[35.89035,33.10961,873.4327],[35.90275,33.10961,865.2209],[35.90275,33.11664,876.8409],[35.89727,33.11664,878.79],[35.89345,33.12051,885.3466],[35.8919,33.12441,890.0142],[35.89489,33.12829,897.814],[35.90037,33.13074,910.365],[35.90595,33.13307,919.7338],[35.9106,33.13539,927.8736],[35.91133,33.13927,930.6945],[35.91133,33.14942,940.5273],[35.91133,33.16581,963.5699],[35.9075,33.17131,963.0779],[35.90595,33.17676,954.5889],[35.90037,33.17981,950.4579],[35.89655,33.18061,948.967],[35.89035,33.17676,944.3162],[35.88807,33.17676,944.0549],[35.88487,33.17906,940.1725],[35.88249,33.18459,937.868],[35.88249,33.18924,935.0468],[35.8888,33.19462,945.9543],[35.8888,33.19859,973.6389],[35.88559,33.20405,1004.2568],[35.87474,33.21575,977.8008],[35.86616,33.22596,996.8851],[35.86151,33.23756,1022.588],[35.85438,33.26882,1202.853],[35.85366,33.2727,1226.6895],[35.85128,33.27583,1238.8726],[35.8458,33.27903,1256.1802],[35.83578,33.27903,1242.1016],[35.82637,33.2798,1243.3284],[35.82017,33.28055,1304.0337],[35.81934,33.28443,1294.6707],[35.82172,33.28598,1295.905],[35.82637,33.28831,1300.3052],[35.8334,33.29063,1328.0671],[35.84043,33.29536,1402.8317],[35.84497,33.30389,1391.4094],[35.8458,33.31326,1503.5552],[35.84342,33.32189,1672.6483],[35.84298,33.3228,1610.1179]]]}}