{"type":"Feature","properties":{"GID_2":"SYR.7.1_1","GID_0":"SYR","country":"Syria","GID_1":"SYR.7_1","province":"DayrAzZawr","NL_NAME_1":"NA","county":"AbuKamal","VARNAME_2":"NA","NL_NAME_2":"NA","TYPE_2":"Mantika","ENGTYPE_2":"District","CC_2":"NA","HASC_2":"NA","name":"Abu_Kamal.county"},
"geometry":{"type": "MultiPolygon","coordinates": [[[[41.2289,34.9507,183.092],[41.1342,34.936,155.3547],[41.0576,34.9069,183.2036],[40.5598,34.7721,229.3572],[40.5276,34.7491,230.6902],[40.5,34.7246,230.5585],[40.4954,34.7047,238.7916],[40.4847,34.6817,242.5798],[40.4755,34.6664,245.5286],[40.451,34.6633,248.27],[40.425,34.6694,249.9203],[40.4158,34.6801,246.0633],[40.405,34.7016,234.6449],[40.405,34.7154,236.3413],[40.3989,34.7292,244.2757],[40.3882,34.7338,244.2716],[40.379,34.7353,241.6],[40.3346,34.7077,234.1508],[40.3147,34.7001,247.8711],[40.2672,34.6863,246.2342],[40.1998,34.674,266.1366],[40.1201,34.648,279.771],[39.9853,34.5944,331.7924],[39.9547,34.5974,335.638],[39.9087,34.6143,338.8946],[39.8965,34.6495,325.6295],[39.8811,34.6602,323.917],[39.8628,34.6602,328.4226],[39.826,34.6556,335.8623],[39.8045,34.648,340.3294],[39.7846,34.6311,354.4153],[39.7678,34.6081,365.2422],[39.7417,34.5989,371.8159],[39.731,34.5852,384.2723],[39.7034,34.5607,371.7044],[39.6039,34.5239,379.019],[39.5212,34.4856,406.4858],[39.5193,34.4873,400.5284],[39.5444,34.4465,435.8084],[39.6343,34.3219,470.08],[39.7568,34.183,510.481],[39.8385,34.0932,518.7582],[39.9609,33.9342,535.4909],[40.6037,34.2368,347.0611],[41.0124,34.4199,167.4556],[41.0172,34.4395,226.1229],[41.0192,34.4427,221.2535],[41.0271,34.4467,219.0787],[41.033,34.4521,218.3192],[41.1395,34.6641,169.8783],[41.2345,34.7772,156.7882],[41.2378,34.785,156.9425],[41.2296,34.8601,180.9276],[41.2289,34.9507,183.092]]]]}}