{"type":"Feature","properties":{"GID_2":"SYR.1.3_1","GID_0":"SYR","country":"Syria","GID_1":"SYR.1_1","province":"AlḤasakah","NL_NAME_1":"NA","county":"AlQamishli","VARNAME_2":"NA","NL_NAME_2":"NA","TYPE_2":"Mantika","ENGTYPE_2":"District","CC_2":"NA","HASC_2":"NA","name":"Al_Qamishli.county"},
"geometry":{"type": "MultiPolygon","coordinates": [[[[41.7542,36.5775,387.727],[41.7423,36.5939,381.1893],[41.7206,36.6374,359.6132],[41.7128,36.6591,354.5531],[41.7035,36.6793,352.2387],[41.6973,36.7073,352.3197],[41.6973,36.7212,351.3519],[41.7066,36.7507,353.8763],[41.7051,36.7787,355.3337],[41.6911,36.7926,357.0569],[41.6802,36.8082,359.816],[41.6678,36.8206,365.2991],[41.6585,36.8377,362.9513],[41.6569,36.8687,380.4733],[41.6616,36.8904,397.1179],[41.6709,36.9013,398.76],[41.674,36.9308,405.0544],[41.6694,36.9494,408.9702],[41.6554,36.9696,417.1253],[41.6507,36.9945,424.8273],[41.6507,37.0209,433.5752],[41.6461,37.0442,444.9099],[41.6383,37.0566,466.689],[41.6383,37.0814,471.0381],[41.6445,37.1016,512.3221],[41.6507,37.1108,530.9564],[41.6265,37.1051,503.0327],[41.5897,37.0924,480.233],[41.5581,37.0852,461.0148],[41.5009,37.0795,436.1231],[41.2711,37.0792,463.688],[41.2575,37.075,455.7238],[41.2488,37.0691,455.3019],[41.2368,37.0649,458.819],[41.2184,37.0636,457.4099],[41.2119,37.067,469.3504],[41.2077,37.0765,481.6481],[41.2044,37.0793,479.1792],[41.1697,37.0922,482.3933],[41.1324,37.0931,500.226],[41.1145,37.0951,495.8967],[41.0595,37.1054,500.1487],[41.0324,37.1074,484.274],[41.0005,37.112,477.8549],[40.9724,37.1174,483.7137],[40.95,37.1244,487.3498],[40.9211,37.1271,483.394],[40.8859,37.1243,487.046],[40.8705,37.118,483.4733],[40.8581,37.1084,473.3958],[40.8543,37.1075,472.1392],[40.8465,37.069,440.4205],[40.8419,37.0566,445.8869],[40.8419,37.0209,426.4678],[40.8527,36.9914,422.0086],[40.8527,36.9789,419.9036],[40.8543,36.965,416.7359],[40.8574,36.9541,410.3177],[40.8574,36.9448,407.4121],[40.8527,36.9277,402.1767],[40.8357,36.9199,392.6885],[40.8201,36.9013,390.1072],[40.8108,36.8734,398.9913],[40.8062,36.8454,391.3005],[40.7875,36.774,375.1122],[40.7844,36.7274,354.7146],[40.7953,36.7135,341.4966],[40.8372,36.715,349.5902],[40.8651,36.7274,353.3174],[40.8791,36.729,347.6851],[40.921,36.729,346.8142],[40.9397,36.7274,352.6646],[40.9661,36.7212,355.9803],[40.9816,36.7119,356.1016],[40.9956,36.7073,352.1779],[41.0282,36.7073,340.9957],[41.0406,36.7088,341.7811],[41.0546,36.7197,342.5393],[41.0623,36.7352,345.315],[41.067,36.7507,348.0223],[41.0794,36.7647,352.0601],[41.1011,36.7647,351.481],[41.1322,36.7709,344.282],[41.1601,36.7647,347.371],[41.1819,36.7554,344.4264],[41.1958,36.743,347.5845],[41.2036,36.7321,336.0179],[41.2129,36.7104,333.9733],[41.2315,36.6964,332.6886],[41.2595,36.6886,337.8766],[41.2999,36.6607,335.7872],[41.303,36.6389,340.1711],[41.303,36.6157,345.9302],[41.3076,36.5893,356.0526],[41.3107,36.5536,372.1431],[41.3309,36.5442,376.0813],[41.3526,36.5427,372.0854],[41.4008,36.5256,384.5374],[41.4127,36.5196,385.9521],[41.423,36.5247,382.4725],[41.7068,36.5675,402.4136],[41.7542,36.5775,387.727]]]]}}