{"type":"Feature","properties":{"GID_2":"SYR.1.1_1","GID_0":"SYR","country":"Syria","GID_1":"SYR.1_1","province":"AlḤasakah","NL_NAME_1":"NA","county":"Al-Hasakah","VARNAME_2":"NA","NL_NAME_2":"NA","TYPE_2":"Mantika","ENGTYPE_2":"District","CC_2":"NA","HASC_2":"NA","name":"Al-Hasakah.county"},
"geometry":{"type": "MultiPolygon","coordinates": [[[[41.2897,36.2492,443.5555],[41.2918,36.2636,454.6717],[41.2945,36.3562,589.8615],[41.4039,36.5125,395.1095],[41.4127,36.5196,385.9521],[41.4008,36.5256,384.5374],[41.3526,36.5427,372.0854],[41.3309,36.5442,376.0813],[41.3107,36.5536,372.1431],[41.3076,36.5893,356.0526],[41.303,36.6157,345.9302],[41.303,36.6389,340.1711],[41.2999,36.6607,335.7872],[41.2595,36.6886,337.8766],[41.2315,36.6964,332.6886],[41.2129,36.7104,333.9733],[41.2036,36.7321,336.0179],[41.1958,36.743,347.5845],[41.1819,36.7554,344.4264],[41.1601,36.7647,347.371],[41.1322,36.7709,344.282],[41.1011,36.7647,351.481],[41.0794,36.7647,352.0601],[41.067,36.7507,348.0223],[41.0623,36.7352,345.315],[41.0546,36.7197,342.5393],[41.0406,36.7088,341.7811],[41.0282,36.7073,340.9957],[40.9956,36.7073,352.1779],[40.9816,36.7119,356.1016],[40.9661,36.7212,355.9803],[40.9397,36.7274,352.6646],[40.921,36.729,346.8142],[40.8791,36.729,347.6851],[40.8651,36.7274,353.3174],[40.8372,36.715,349.5902],[40.7953,36.7135,341.4966],[40.7923,36.7173,345.0392],[40.7399,36.7057,350.9823],[40.6933,36.7026,358.1876],[40.6514,36.6964,358.7481],[40.6126,36.6979,357.2657],[40.5971,36.701,351.2147],[40.566,36.701,367.5483],[40.5427,36.7057,416.1333],[40.4822,36.7057,402.8159],[40.4542,36.7088,390.6238],[40.4201,36.7088,342.6367],[40.3968,36.7057,354.2394],[40.3626,36.6778,330.7227],[40.3378,36.6514,333.8475],[40.3192,36.6483,337.0802],[40.2912,36.6467,339.1662],[40.2757,36.6514,334.6126],[40.226,36.6514,339.0977],[40.2152,36.6451,352.0902],[40.212,36.6358,355.8046],[40.2074,36.6157,359.4713],[40.2043,36.5799,385.2794],[40.2012,36.5629,392.9923],[40.1872,36.5396,406.215],[40.1577,36.5054,427.6819],[40.1453,36.4992,426.5613],[40.1142,36.4992,434.9811],[40.0816,36.5194,441.3234],[40.0646,36.5178,445.7166],[40.0475,36.493,468.504],[40.0428,36.479,479.3683],[40.0428,36.4526,510.1032],[40.0397,36.4418,525.4349],[40.0335,36.4309,561.4077],[40.0087,36.4123,564.0777],[39.9869,36.4045,554.4368],[39.9745,36.3936,578.5506],[39.9714,36.3843,595.2398],[39.9652,36.3735,587.7916],[39.9636,36.3595,576.0762],[39.9574,36.3471,563.1549],[39.9435,36.3362,560.5579],[39.931,36.33,551.2985],[39.9124,36.3284,535.5012],[39.9054,36.3298,532.4458],[39.9016,36.2854,520.9407],[39.9165,36.251,538.7998],[39.9405,36.2166,541.3514],[40.0152,36.1598,414.3027],[40.09,36.0999,374.1082],[40.1752,36.0282,334.1227],[40.1962,36.0147,327.1086],[40.1992,35.9997,322.36],[40.3173,35.9055,308.7982],[40.3727,35.8711,315.8316],[40.4175,35.8382,309.3872],[40.4654,35.7993,300.1553],[40.4998,35.7814,296.8952],[40.5297,35.7605,272.1934],[40.6389,35.6752,263.9128],[40.6867,35.6348,239.951],[40.7376,35.596,233.7959],[40.7585,35.578,241.5124],[40.8348,35.572,248.5171],[40.8991,35.5735,257.6478],[40.9245,35.566,257.6413],[40.9604,35.5526,266.5891],[41.0247,35.5331,263.6064],[41.0815,35.5287,238.3299],[41.1249,35.5197,208.7897],[41.1488,35.5302,224.5584],[41.1832,35.5421,203.075],[41.237,35.5436,202.3047],[41.3214,35.5363,228.8177],[41.3943,35.6303,229.8557],[41.3811,35.8353,309.3078],[41.258,36.0546,321.4246],[41.2669,36.092,334.518],[41.2897,36.2492,443.5555]]]]}}