{"type":"Feature","properties":{"GID_2":"SYR.9.3_1","GID_0":"SYR","country":"Syria","GID_1":"SYR.9_1","province":"Hims","NL_NAME_1":"NA","county":"Ar-Rastan","VARNAME_2":"NA","NL_NAME_2":"NA","TYPE_2":"Mantika","ENGTYPE_2":"District","CC_2":"NA","HASC_2":"NA","name":"Ar-Rastan.county"},
"geometry":{"type": "MultiPolygon","coordinates": [[[[36.58,34.9148,390.7347],[36.5986,34.8872,407.8977],[36.6315,34.8246,443.4502],[36.6561,34.7846,480.6868],[36.6755,34.7723,468.5831],[36.7689,34.7579,522.6301],[36.8027,34.7579,539.6801],[36.8181,34.7621,546.6614],[36.8376,34.7795,544.0198],[36.8529,34.799,523.9445],[36.8765,34.8195,510.4829],[36.9216,34.8533,483.1081],[36.9432,34.8595,475.0667],[36.9657,34.8687,531.2881],[36.975,34.8841,520.0272],[36.9873,34.8943,512.0662],[36.9904,34.9138,497.6199],[36.9904,34.9312,490.8636],[36.9811,34.9518,479.5066],[36.9452,34.9876,484.4364],[36.9297,34.9969,419.6996],[36.9288,34.9866,432.6755],[36.9155,34.9764,408.4033],[36.8981,34.9702,375.7517],[36.8365,34.961,360.7662],[36.8099,34.961,328.8882],[36.7976,34.9518,428.7606],[36.7945,34.9446,498.2881],[36.7945,34.9343,481.1583],[36.7863,34.9261,462.3307],[36.7791,34.9251,448.2954],[36.7514,34.9436,408.6132],[36.736,34.9487,419.4914],[36.7104,34.9518,406.7185],[36.6909,34.9518,402.4686],[36.6755,34.9425,396.5454],[36.6663,34.9271,397.3372],[36.6571,34.9241,397.6655],[36.6212,34.9292,362.85],[36.6089,34.9292,365.0993],[36.5925,34.9251,372.4318],[36.58,34.9148,390.7347]]]]}}