{"type":"Feature","properties":{"GID_2":"SYR.10.3_1","GID_0":"SYR","country":"Syria","GID_1":"SYR.10_1","province":"Idlib","NL_NAME_1":"NA","county":"Idlib","VARNAME_2":"NA","NL_NAME_2":"NA","TYPE_2":"Mantika","ENGTYPE_2":"District","CC_2":"NA","HASC_2":"NA","name":"Idlib.county"},
"geometry":{"type": "MultiPolygon","coordinates": [[[[36.7359,36.1287,318.7541],[36.723,36.1284,342.9472],[36.7125,36.132,340.0304],[36.7019,36.1381,367.6983],[36.6896,36.139,410.3898],[36.6773,36.1355,441.6861],[36.6711,36.1214,419.6525],[36.6746,36.1091,353.5921],[36.6746,36.1011,332.1339],[36.665,36.0976,334.0419],[36.6491,36.0853,364.4204],[36.635,36.0774,316.3533],[36.5761,36.0651,390.1825],[36.5655,36.0554,409.6797],[36.562,36.0413,319.4512],[36.5637,36.0114,254.0741],[36.5655,35.9999,290.7391],[36.5787,35.9788,356.1775],[36.5778,35.9674,370.8466],[36.5717,35.9586,405.5083],[36.5629,35.9577,349.4093],[36.5488,35.9603,265.4174],[36.5356,35.9559,229.7679],[36.4786,35.9521,217.3522],[36.4707,35.929,217.1463],[36.4707,35.8885,216.8218],[36.4611,35.8569,218.7086],[36.4616,35.8496,220.2272],[36.4795,35.8489,227.7945],[36.5086,35.8613,385.3079],[36.5139,35.8727,450.0585],[36.5341,35.8947,548.7664],[36.5403,35.8965,587.5063],[36.5535,35.8947,548.735],[36.5605,35.8894,579.1172],[36.5711,35.8877,586.5369],[36.579,35.8991,559.0504],[36.5904,35.9017,506.2564],[36.6001,35.8956,526.4304],[36.6045,35.8859,503.6092],[36.6028,35.8762,526.0046],[36.6212,35.8577,492.2238],[36.6353,35.8533,469.5214],[36.6476,35.8533,437.2073],[36.6573,35.8595,420.0584],[36.667,35.863,453.0279],[36.6793,35.8621,444.5697],[36.6829,35.8463,465.2596],[36.6969,35.8375,467.1888],[36.7172,35.8296,433.3793],[36.726,35.8243,410.8651],[36.7242,35.8164,412.0195],[36.7137,35.8067,426.5614],[36.7119,35.7953,458.4718],[36.7154,35.7865,460.1223],[36.7225,35.7759,485.5201],[36.7225,35.7636,488.7305],[36.7313,35.7521,469.6526],[36.7321,35.7416,450.7035],[36.7357,35.7292,454.9797],[36.7717,35.7231,418.5858],[36.7973,35.724,431.2422],[36.814,35.7275,428.3911],[36.8369,35.7275,396.8736],[36.8554,35.7301,415.6299],[36.8765,35.7257,395.5015],[36.8888,35.716,393.1213],[36.9029,35.7125,376.3416],[36.9108,35.7213,370.362],[36.9222,35.724,355.1253],[36.9442,35.724,309.0454],[36.9706,35.7152,313.0758],[36.9803,35.7152,330.8995],[37.0076,35.6949,326.0168],[37.0604,35.694,288.9606],[37.0807,35.6888,278.7122],[37.0928,35.681399999999996,292.6815],[37.1097,35.6975,258.1974],[37.1176,35.7098,250.931],[37.1176,35.76,248.6585],[37.1123,35.782,249.9829],[37.1044,35.8013,245.3148],[37.0719,35.8189,244.4944],[37.0472,35.8269,250.1816],[37.0314,35.8269,246.6452],[37.0287,35.8189,247.3284],[37.027,35.8013,244.92],[37.0217,35.7987,245.3495],[36.9918,35.8004,253.9873],[36.9794,35.8084,246.1527],[36.9662,35.8216,248.4635],[36.9618,35.8365,251.3458],[36.9539,35.8524,268.5851],[36.9469,35.877,280.7047],[36.9398,35.8876,279.0915],[36.9134,35.8999,297.7584],[36.8853,35.9228,312.6423],[36.8782,35.9307,321.0925],[36.8747,35.943,325.6631],[36.8756,35.9536,312.727],[36.8818,35.9597,300.3834],[36.8888,35.9791,302.3874],[36.8906,35.9905,304.4842],[36.8941,35.9958,304.668],[36.8913,36.0115,312.2999],[36.8831,36.028,319.4899],[36.8702,36.035,355.8187],[36.8549,36.0397,356.9716],[36.8408,36.0514,339.6768],[36.8338,36.0655,316.9427],[36.7716,36.0667,298.8194],[36.7599,36.0702,305.6493],[36.7587,36.1136,304.8682],[36.754,36.1207,304.4689],[36.7481,36.1218,306.6913],[36.7359,36.1287,318.7541]]]]}}