{"type":"Feature","properties":{"GID_2":"SYR.9.5_1","GID_0":"SYR","country":"Syria","GID_1":"SYR.9_1","province":"Hims","NL_NAME_1":"NA","county":"Palmyra","VARNAME_2":"NA","NL_NAME_2":"NA","TYPE_2":"Mantika","ENGTYPE_2":"District","CC_2":"NA","HASC_2":"NA","name":"Palmyra.county"},
"geometry":{"type": "MultiPolygon","coordinates": [[[[39.9609,33.9342,535.4909],[39.8385,34.0932,518.7582],[39.7568,34.183,510.481],[39.6343,34.3219,470.08],[39.5444,34.4465,435.8084],[39.5193,34.4873,400.5284],[39.4874,34.5162,388.8953],[39.4507,34.5576,364.5587],[39.4159,34.6069,350.1619],[39.3579,34.6706,338.7524],[39.3257,34.6994,332.1453],[39.3154,34.7189,344.4573],[39.3154,34.7396,329.9942],[39.3223,34.7614,310.782],[39.328,34.7901,321.5773],[39.3292,34.8096,316.3569],[39.328,34.8303,308.975],[39.3234,34.8579,309.7123],[39.3039,34.8889,308.7659],[39.289,34.9188,313.7663],[39.2464,34.9728,318.8871],[39.2177,34.9958,323.8868],[39.1902,35.0107,333.5782],[39.1557,35.0337,350.747],[39.1568,35.0934,416.2153],[39.1729,35.1141,458.7517],[39.2085,35.1463,527.5442],[39.2499,35.1888,648.8771],[39.293,35.2383,686.5901],[39.2299,35.2477,718.0453],[39.1181,35.2763,589.0046],[38.9504,35.3079,521.2952],[38.873,35.3265,519.4969],[38.7211,35.3594,431.6498],[38.6681,35.3666,375.8656],[38.605,35.3652,363.9947],[38.5663,35.3752,365.678],[38.5534,35.3803,364.3375],[38.498,35.3753,375.3541],[38.3994,35.3753,375.108],[38.3509,35.3737,382.2318],[38.3227,35.3597,394.0014],[38.3205,35.3611,392.8041],[38.3114,35.3313,420.1601],[38.3069,35.2509,507.2441],[38.263,35.154,556.4841],[38.243,35.1255,581.6952],[38.1846,35.0694,691.4996],[38.1508,35.0532,726.6468],[38.0962,35.0317,787.9602],[38.0785,35.0163,821.6962],[38.0569,34.9925,888.006],[38.0477,34.9725,941.9354],[38.0385,34.9486,1005.2828],[38.0339,34.931,1038.9681],[38.0269,34.9163,1080.9548],[38.0139,34.9033,1115.401],[37.993899999999996,34.9002,1117.1687],[37.9785,34.9056,1153.46],[37.9654,34.914,1206.3893],[37.9454,34.9386,1184.3374],[37.93,34.9517,1131.5886],[37.8729,35.0133,863.7797],[37.8134,34.973,941.4921],[37.7814,34.9655,855.3333],[37.7419,34.9626,844.9407],[37.7277,34.9476,957.107],[37.7108,34.925,1014.37],[37.708,34.909,958.2456],[37.6995,34.8977,917.3677],[37.6995,34.8666,804.7985],[37.6901,34.8543,814.1113],[37.6722,34.8534,840.1957],[37.6543,34.844,892.4811],[37.6194,34.8101,827.7728],[37.6015,34.7894,850.4581],[37.5827,34.7592,807.7409],[37.5742,34.7432,792.0968],[37.5667,34.7216,760.7805],[37.5582,34.7056,741.6183],[37.5413,34.6933,738.8705],[37.5177,34.6905,762.8045],[37.4998,34.6726,779.7959],[37.4763,34.6688,825.9416],[37.4659,34.6613,805.006],[37.4546,34.6481,787.496],[37.4455,34.6322,742.9264],[37.4579,34.6192,718.3656],[37.484,34.6086,690.9455],[37.4861,34.5966,672.6832],[37.4826,34.591,670.1302],[37.4741,34.5882,668.9149],[37.4289,34.5882,685.0631],[37.4233,34.5832,677.0211],[37.4226,34.5557,658.6047],[37.4268,34.5486,645.6678],[37.484,34.5486,626.4478],[37.4911,34.5451,620.5636],[37.4932,34.5394,616.8407],[37.4918,34.5232,601.293],[37.4748,34.5013,590.6122],[37.4706,34.4646,586.0226],[37.4671,34.4483,588.8371],[37.4579,34.4335,581.6394],[37.4529,34.4215,578.8542],[37.4459,34.3968,581.6597],[37.4353,34.3862,589.667],[37.4212,34.3833,594.4243],[37.4077,34.3749,602.0516],[37.4,34.3643,610.1058],[37.3866,34.3346,629.9904],[37.3858,34.3191,638.333],[37.3795,34.2965,653.514],[37.3795,34.283,666.6598],[37.3731,34.2717,679.7879],[37.3505,34.2534,704.1812],[37.3357,34.2491,710.7919],[37.2333,34.2456,745.3417],[37.1902,34.235,770.973],[37.1478,34.2308,816.2145],[37.1295,34.2237,834.4473],[37.1111,34.2131,855.0029],[37.0885,34.2089,879.5897],[37.0793,34.2032,891.6941],[37.0532,34.2032,993.2461],[37.0362,34.211,1047.0029],[37.0158,34.2103,1152.9788],[36.9896,34.2047,1132.6512],[36.9741,34.1969,1155.4503],[36.955,34.1905,1172.9752],[36.9375,34.1813,1210.3446],[36.9542,34.1666,1348.7557],[36.9691,34.147,1619.0135],[36.9933,34.12,1282.3793],[37.0045,34.1097,1049.47],[37.005,34.1015,1014.7903],[37.0362,34.0827,915.5792],[37.0614,34.0584,866.1058],[37.0782,34.0379,1142.1472],[37.1108,34.0044,922.637],[37.1313,33.9876,918.756],[37.1453,33.9783,924.2499],[37.1538,33.9656,919.86],[37.183,33.9656,933.0087],[37.2162,33.9523,994.061],[37.267,33.9391,915.7323],[37.2913,33.9236,886.1721],[37.3024,33.9147,937.8963],[37.3267,33.8882,874.9548],[37.3532,33.844,875.8737],[37.4151,33.7799,794.4805],[37.5189,33.7026,767.3881],[37.5896,33.6474,736.9316],[37.6095,33.6385,744.6169],[37.6117,33.6208,739.2245],[37.6184,33.5965,702.5394],[37.636,33.57,700.052],[37.6626,33.5391,695.4495],[37.6869,33.528,688.4296],[37.7156,33.5015,686.111],[37.7399,33.4728,684.7249],[37.762,33.4595,699.5621],[37.7974,33.4507,693.0251],[37.8615,33.4264,677.693],[37.9277,33.391,679.7714],[38.0161,33.3358,685.4815],[38.0913,33.2849,691.6758],[38.2835,33.1612,744.7031],[38.3283,33.1239,752.5559],[38.8041,33.3719,713.5413],[39.472,33.7003,678.9487],[39.9609,33.9342,535.4909]]]]}}