{"type":"Feature","properties":{"GID_2":"SYR.3.2_1","GID_0":"SYR","country":"Syria","GID_1":"SYR.3_1","province":"ArRaqqah","NL_NAME_1":"NA","county":"Ath-Thawrah","VARNAME_2":"NA","NL_NAME_2":"NA","TYPE_2":"Mantika","ENGTYPE_2":"District","CC_2":"NA","HASC_2":"NA","name":"Ath-Thawrah.county"},
"geometry":{"type": "MultiPolygon","coordinates": [[[[38.1386,36.2358,299.5],[38.1146,36.2093,299.5],[38.038,36.081,299.5],[38.0473,36.0669,299.5],[38.063,36.0575,299.5],[38.0927,36.0356,299.5],[38.1224,36.0059,299.5],[38.1428,35.9886,299.5],[38.1647,35.973,299.5],[38.1788,35.9667,299.5],[38.1882,35.9542,299.5],[38.1913,35.9323,348.8218],[38.1882,35.9167,348.3405],[38.171,35.9073,358.0786],[38.149,35.9026,359.921],[38.124,35.8901,356.1695],[38.099,35.8713,354.0607],[38.0786,35.8478,346.9512],[38.0239,35.7571,358.1342],[38.0145,35.7305,360.6904],[38.0098,35.7023,369.2822],[38.0067,35.6335,386.1569],[38.0098,35.6006,398.7222],[38.0129,35.585,398.7085],[38.0317,35.5771,402.0629],[38.0411,35.5756,413.2097],[38.0661,35.5615,399.5165],[38.0708,35.5521,397.3961],[38.0708,35.538,391.5159],[38.088,35.5302,390.1432],[38.1084,35.5255,390.1887],[38.1428,35.5083,399.5522],[38.1756,35.4989,395.7559],[38.2038,35.4801,406.4232],[38.2257,35.4442,414.2674],[38.2461,35.4269,398.8211],[38.2617,35.4176,381.9398],[38.2977,35.3894,378.1716],[38.3008,35.3737,388.7733],[38.3227,35.3597,394.0014],[38.3509,35.3737,382.2318],[38.3994,35.3753,375.108],[38.498,35.3753,375.3541],[38.5534,35.3803,364.3375],[38.5534,35.4282,346.3872],[38.5692,35.477,329.5036],[38.6036,35.5142,319.9075],[38.6093,35.5271,315.9296],[38.6093,35.5429,313.6393],[38.5993,35.5572,318.4794],[38.5979,35.573,313.5656],[38.5936,35.5931,312.6715],[38.6237,35.6046,303.2753],[38.6595,35.6103,303.438],[38.6781,35.616,299.2184],[38.6968,35.6175,298.8863],[38.6982,35.639,297.0511],[38.7039,35.6562,296.7833],[38.7068,35.6748,288.3003],[38.7182,35.6948,283.714],[38.7426,35.7034,285.0857],[38.7641,35.7292,276.7397],[38.7856,35.7364,277.067],[38.8171,35.7665,310.8163],[38.8286,35.8023,310.6361],[38.8286,35.821,309.0938],[38.853,35.8453,330.9315],[38.8702,35.8539,340.953],[38.8788,35.8554,347.0162],[38.8773,35.8697,336.0317],[38.8587,35.8711,322.5565],[38.7942,35.8683,306.1282],[38.7885,35.8568,277.7854],[38.7756,35.8468,264.8875],[38.7641,35.8482,264.7427],[38.7569,35.8539,268.9289],[38.7483,35.8568,258.7088],[38.7354,35.8511,269.7471],[38.7268,35.8425,269.5275],[38.7268,35.8367,270.716],[38.7354,35.821,261.991],[38.7354,35.8167,264.3576],[38.7197,35.8066,270.3962],[38.7096,35.798,275.6358],[38.6796,35.7851,294.8668],[38.6652,35.7837,304.2645],[38.5907,35.7866,321.1937],[38.5663,35.7608,329.6244],[38.5506,35.7493,336.1005],[38.5362,35.7479,346.4461],[38.5233,35.7507,352.0643],[38.519,35.7579,364.1831],[38.519,35.7765,354.7731],[38.5291,35.7909,354.8258],[38.5276,35.8353,352.155],[38.5377,35.8439,332.9431],[38.5405,35.8554,299.5],[38.5334,35.8654,299.5],[38.499,35.864,299.5],[38.499,35.8754,299.5],[38.5119,35.8912,299.5],[38.5205,35.9055,309.1021],[38.5176,35.9113,341.045],[38.5047,35.9156,310.5024],[38.4846,35.9184,337.7907],[38.4474,35.9184,299.5],[38.4359,35.9242,299.5],[38.4288,35.9385,299.5],[38.4288,35.9628,303.8748],[38.4345,36.0073,350.8026],[38.4388,36.013,348.6486],[38.4445,36.0316,378.1467],[38.4646,36.0804,389.1065],[38.466,36.1133,390.7633],[38.4918,36.1391,385.7538],[38.5061,36.1449,381.4202],[38.5133,36.1563,369.1434],[38.5133,36.1664,372.1434],[38.4875,36.1664,379.0682],[38.4732,36.1778,386.9282],[38.4732,36.1921,373.4217],[38.4775,36.2165,386.014],[38.4875,36.2251,373.3878],[38.4932,36.2323,377.268],[38.4932,36.2753,414.5376],[38.4803,36.2882,425.2881],[38.4698,36.2934,424.299],[38.4631,36.2907,428.7357],[38.3815,36.2735,480.6775],[38.3428,36.2563,415.0919],[38.1937,36.2477,299.5],[38.1808,36.2463,299.5],[38.1651,36.2334,348.0067],[38.1507,36.2334,376.3343],[38.1386,36.2358,299.5]]]]}}