{"type":"Feature","properties":{"GID_2":"SYR.9.6_1","GID_0":"SYR","country":"Syria","GID_1":"SYR.9_1","province":"Hims","NL_NAME_1":"NA","county":"Talkalakh","VARNAME_2":"NA","NL_NAME_2":"NA","TYPE_2":"Mantika","ENGTYPE_2":"District","CC_2":"NA","HASC_2":"NA","name":"Talkalakh.county"},
"geometry":{"type": "MultiPolygon","coordinates": [[[[36.3026,34.6408,249.988],[36.2999,34.6406,260.935],[36.3038,34.6483,250.9856],[36.3041,34.6525,251.3799],[36.3076,34.6557,253.0015],[36.3019,34.668,258.7331],[36.3048,34.6714,255.6056],[36.3098,34.6829,257.7848],[36.3154,34.6836,258.4595],[36.3155,34.6857,259.2272],[36.3201,34.6897,260.0147],[36.3279,34.6893,260.6719],[36.3315,34.6914,261.2164],[36.3404,34.6909,261.8985],[36.3458,34.6892,263.3596],[36.3542,34.6818,267.1302],[36.3527,34.6798,268.4068],[36.3536,34.6744,271.797],[36.3491,34.6711,274.5208],[36.3502,34.6663,277.5942],[36.3485,34.6634,281.9941],[36.3503,34.6597,287.7903],[36.354,34.6573,287.6973],[36.3539,34.655,296.1344],[36.3586,34.6475,304.5023],[36.3605,34.6475,302.0939],[36.3647,34.6425,312.4747],[36.3698,34.642,317.7631],[36.3796,34.6338,330.4037],[36.3899,34.6304,351.5306],[36.3996,34.6376,399.1357],[36.4185,34.6264,522.932],[36.4212,34.6264,519.761],[36.4439,34.6351,511.7617],[36.4438,34.6585,517.1807],[36.451,34.6728,512.2167],[36.4817,34.6985,526.8655],[36.4776,34.7108,555.6675],[36.4623,34.7118,559.3687],[36.4192,34.7077,503.3055],[36.4038,34.7026,414.7296],[36.3812,34.7005,360.9629],[36.3454,34.6995,266.6077],[36.3413,34.7036,264.9161],[36.3423,34.7262,272.0135],[36.3505,34.7333,276.571],[36.3628,34.7385,277.2543],[36.3936,34.7436,473.1752],[36.41,34.7538,587.8625],[36.4223,34.7579,656.5625],[36.4264,34.7651,734.7986],[36.4233,34.8072,689.3599],[36.4182,34.8246,823.2927],[36.41,34.8297,773.0215],[36.372,34.8308,1036.7583],[36.3607,34.8338,854.6616],[36.3525,34.8431,874.1909],[36.3484,34.8554,902.6649],[36.3484,34.8697,980.7949],[36.3536,34.8861,917.4249],[36.359,34.8943,840.4927],[36.3577,34.9138,584.2555],[36.3049,34.9147,911.6838],[36.3033,34.9077,930.4401],[36.3033,34.8882,830.8657],[36.2972,34.8779,802.6039],[36.2955,34.8779,806.2747],[36.2951,34.8749,755.6067],[36.2777,34.8533,749.6064],[36.2705,34.841,608.4138],[36.1977,34.7621,244.9686],[36.1721,34.7487,218.4405],[36.1608,34.7405,148.1845],[36.1587,34.7149,100.3917],[36.1464,34.6933,81.338],[36.1372,34.6841,67.4076],[36.1273,34.6707,29.8711],[36.1331,34.6636,36.7296],[36.1331,34.6467,35.303],[36.1364,34.6357,39.6305],[36.1409,34.6344,41.0095],[36.1436,34.6356,41.943],[36.1509,34.6332,47.7421],[36.1609,34.6337,56.0106],[36.1701,34.6286,103.427],[36.1747,34.6294,73.4726],[36.1766,34.6335,83.1525],[36.1882,34.6372,162.6839],[36.1959,34.636,96.9972],[36.1999,34.6376,107.7031],[36.2082,34.6321,113.7088],[36.2184,34.6305,157.0842],[36.2248,34.626,162.4555],[36.2267,34.6299,173.5827],[36.2363,34.6275,163.8409],[36.2358,34.6326,264.5351],[36.241,34.6334,196.8295],[36.2428,34.6363,216.1407],[36.2465,34.6334,209.4333],[36.261,34.6304,203.8042],[36.2651,34.6271,211.6668],[36.2709,34.6299,219.1149],[36.2769,34.6283,272.6491],[36.2824,34.6325,279.9438],[36.2878,34.6305,253.2249],[36.2912,34.6338,301.5707],[36.2962,34.6349,245.5571],[36.3026,34.6408,249.988]]]]}}