{"type":"Feature","properties":{"GID_2":"SYR.6.2_1","GID_0":"SYR","country":"Syria","GID_1":"SYR.6_1","province":"Dar`a","NL_NAME_1":"NA","county":"Daraa","VARNAME_2":"NA","NL_NAME_2":"NA","TYPE_2":"Mantika","ENGTYPE_2":"District","CC_2":"NA","HASC_2":"NA","name":"Daraa.county"},
"geometry":{"type": "MultiPolygon","coordinates": [[[[35.7796,32.7519,60.8367],[35.8014,32.7596,164.4232],[35.8077,32.7565,250.1035],[35.8093,32.7511,198.9092],[35.8045,32.7427,94.7118],[35.8076,32.7384,-14.4326],[35.817,32.7396,118.0737],[35.8202,32.7346,-20.724],[35.8263,32.7311,53.0976],[35.8351,32.729,20.3458],[35.8413,32.7294,1.8767],[35.8619,32.7357,122.0242],[35.8784,32.7357,261.2971],[35.8864,32.7331,297.6025],[35.9013,32.7248,142.1609],[35.9091,32.7259,261.2307],[35.9204,32.7221,175.103],[35.9308,32.7246,301.8335],[35.9368,32.7241,333.6595],[35.9452,32.7177,405.5861],[35.948,32.707,410.5359],[35.9517,32.7034,414.4201],[35.9627,32.697,390.4483],[35.9746,32.6969,418.9087],[35.9827,32.6906,418.2696],[35.9829,32.682,433.6537],[35.9726,32.6735,426.4215],[35.9734,32.6711,428.59],[35.983,32.6651,432.9559],[35.9936,32.6614,433.5516],[36.0108,32.6628,451.3203],[36.0197,32.6619,469.0787],[36.0329,32.6579,474.7668],[36.0363,32.6543,470.9127],[36.0392,32.6425,497.8335],[36.0388,32.6308,513.9527],[36.0349,32.6071,519.6877],[36.0363,32.6039,515.2649],[36.0589,32.5878,583.6693],[36.0704,32.5758,583.1636],[36.0844,32.5491,617.6371],[36.0887,32.5367,616.0716],[36.0908,32.5179,645.8509],[36.1106,32.5231,663.0333],[36.1338,32.5239,659.367],[36.1647,32.5222,618.0822],[36.1784,32.5183,602.709],[36.2007,32.5285,576.0063],[36.2056,32.5284,574.7238],[36.2178,32.5218,579.5272],[36.2577,32.4929,618.491],[36.2961,32.4705,631.4237],[36.3365,32.4427,675.7753],[36.4006,32.3872,749.7374],[36.4097,32.3822,759.1365],[36.4636,32.3773,812.5013],[36.4802,32.3734,831.0593],[36.4928,32.3675,840.7064],[36.5033,32.3591,833.491],[36.5207,32.3549,861.6204],[36.5546,32.3521,913.8404],[36.5527,32.3971,933.5964],[36.5552,32.4493,968.8586],[36.5527,32.4592,984.2257],[36.5304,32.4878,939.7723],[36.5304,32.4965,928.8384],[36.5328,32.5089,938.6805],[36.5465,32.5238,956.5924],[36.5567,32.5301,969.1442],[36.544,32.5599,953.5406],[36.5291,32.5674,948.5342],[36.5067,32.5711,897.1393],[36.4732,32.581,815.1835],[36.4483,32.5922,788.062],[36.4235,32.6084,772.166],[36.421,32.6146,773.0643],[36.4284,32.6245,764.908],[36.462,32.6357,803.2468],[36.4732,32.6444,799.5299],[36.4744,32.6556,805.9677],[36.4694,32.6743,808.4547],[36.4496,32.6854,772.3419],[36.4334,32.6904,760.0414],[36.3961,32.6966,721.3034],[36.3911,32.7009,705.9067],[36.37,32.6979,672.5902],[36.2967,32.6991,628.3708],[36.288,32.7103,627.1994],[36.283,32.724,621.3293],[36.2805,32.7439,615.9855],[36.2755,32.7563,608.186],[36.2619,32.7675,598.5239],[36.2295,32.7799,588.0732],[36.1985,32.7973,565.2976],[36.1338,32.8234,524.988],[36.0891,32.8234,510.3637],[36.0493,32.8048,486.1312],[36.0331,32.8023,475.6993],[36.0132,32.8023,470.5015],[35.9996,32.7973,465.2533],[35.9809,32.7973,467.2984],[35.971,32.801,468.4102],[35.961,32.816,481.2522],[35.9188,32.8607,507.0437],[35.869,32.9009,573.4866],[35.8641,32.8951,554.1507],[35.8567,32.8708,494.7366],[35.8595,32.8559,470.6413],[35.8529,32.84,442.4403],[35.8249,32.8037,208.3155],[35.797,32.7748,260.8374],[35.7796,32.7519,60.8367]]]]}}