{"type":"Feature","properties":{"GID_2":"SYR.8.2_1","GID_0":"SYR","country":"Syria","GID_1":"SYR.8_1","province":"Hamah","NL_NAME_1":"NA","county":"Hama","VARNAME_2":"NA","NL_NAME_2":"NA","TYPE_2":"Mantika","ENGTYPE_2":"District","CC_2":"NA","HASC_2":"NA","name":"Hama.county"},
"geometry":{"type": "MultiPolygon","coordinates": [[[[37.0048,35.272,482.2366],[37.0091,35.2766,478.3615],[37.0062,35.2793,470.0873],[36.9926,35.3039,477.5616],[36.9894,35.327,453.6875],[36.9886,35.3685,430.8381],[36.9831,35.3716,441.6699],[36.9759,35.3669,445.1158],[36.9663,35.3462,425.0159],[36.9568,35.339,429.3792],[36.9193,35.3342,402.9922],[36.905,35.3366,421.3239],[36.8931,35.347,417.7141],[36.8891,35.3613,401.4646],[36.8899,35.3756,384.9693],[36.8835,35.3788,408.9092],[36.8819,35.3876,382.6475],[36.8763,35.3916,410.9543],[36.8628,35.3916,376.9886],[36.8548,35.3876,378.2752],[36.8429,35.3876,368.3325],[36.823,35.3931,354.6543],[36.7935,35.3947,336.0509],[36.7784,35.4011,333.2867],[36.764,35.4035,336.9276],[36.7202,35.4035,362.5045],[36.7107,35.4003,375.2083],[36.6923,35.3844,379.6078],[36.6812,35.378,382.2103],[36.674,35.3756,349.9056],[36.6649,35.3756,335.9588],[36.6708,35.3629,343.4116],[36.6955,35.3358,322.6979],[36.6979,35.3215,329.7393],[36.69,35.3119,328.6809],[36.6629,35.2896,315.0487],[36.6541,35.2793,304.4631],[36.6589,35.2657,297.6078],[36.6685,35.2554,292.4197],[36.6732,35.2458,309.0907],[36.6732,35.2362,304.3733],[36.6693,35.2243,267.1112],[36.6573,35.2108,293.082],[36.6565,35.1916,280.8737],[36.6517,35.1805,279.1263],[36.643,35.1749,279.5539],[36.5976,35.1773,280.8723],[36.5625,35.1869,283.6183],[36.5339,35.1916,259.4373],[36.5267,35.1965,260.6198],[36.5217,35.1907,254.0306],[36.4899,35.1681,274.8571],[36.4838,35.1538,332.2017],[36.4838,35.1415,318.4156],[36.4858,35.1292,383.2382],[36.494,35.1169,406.0616],[36.5053,35.1045,321.2843],[36.5063,35.0963,359.4253],[36.5053,35.0892,407.9899],[36.493,35.0799,373.605],[36.4551,35.0758,466.3068],[36.4479,35.0728,385.7476],[36.4387,35.0635,355.6051],[36.4346,35.0543,359.2399],[36.4335,35.0451,362.0782],[36.4294,35.0328,372.1856],[36.4018,35.0194,456.8191],[36.4028,34.9641,395.7194],[36.4007,34.9487,437.0429],[36.3946,34.9364,428.0035],[36.3812,34.923,621.2083],[36.3577,34.9138,584.2555],[36.3587,34.8943,840.4927],[36.37,34.8933,707.8948],[36.4028,34.8984,633.3297],[36.4438,34.9087,458.8408],[36.453,34.9169,395.1165],[36.4684,34.9487,374.8566],[36.4848,34.963,371.8062],[36.4899,34.9712,381.303],[36.4992,34.9743,385.1207],[36.5166,34.9682,370.5032],[36.5238,34.96,370.0919],[36.5238,34.9425,389.6842],[36.5269,34.9333,377.7469],[36.531,34.9292,381.28],[36.5484,34.9138,375.6124],[36.5627,34.9118,377.7248],[36.5771,34.9128,375.9185],[36.5925,34.9251,372.4318],[36.6089,34.9292,365.0993],[36.6212,34.9292,362.85],[36.6571,34.9241,397.6655],[36.6663,34.9271,397.3372],[36.6755,34.9425,396.5454],[36.6909,34.9518,402.4686],[36.7104,34.9518,406.7185],[36.736,34.9487,419.4914],[36.7514,34.9436,408.6132],[36.7791,34.9251,448.2954],[36.7863,34.9261,462.3307],[36.7945,34.9343,481.1583],[36.7945,34.9446,498.2881],[36.7976,34.9518,428.7606],[36.8099,34.961,328.8882],[36.8365,34.961,360.7662],[36.8981,34.9702,375.7517],[36.9155,34.9764,408.4033],[36.9288,34.9866,432.6755],[36.9299,35.0143,372.7873],[36.9288,35.0297,386.6584],[36.9227,35.0471,362.6789],[36.9042,35.0799,363.7906],[36.9022,35.0943,364.0966],[36.9268,35.121,424.1664],[36.9309,35.1384,478.6367],[36.9309,35.1548,566.1022],[36.9278,35.1702,558.5433],[36.9216,35.1876,529.2183],[36.9196,35.202,524.4513],[36.9196,35.2194,504.876],[36.9288,35.2286,508.722],[36.9452,35.2389,526.5729],[36.9575,35.2491,527.5759],[36.9924,35.2573,506.0847],[37.0048,35.272,482.2366]]],
[[[37.4029,35.5069,299.1453],[37.3995,35.5084,298.5188],[37.3552,35.4995,307.8456],[37.3192,35.4987,310.9547],[37.284,35.5048,316.4754],[37.2222,35.5228,287.3298],[37.2078,35.5088,293.1345],[37.2016,35.4948,300.9833],[37.1961,35.4917,293.2563],[37.1852,35.4894,304.0858],[37.1549,35.4894,317.6382],[37.151,35.4855,324.5258],[37.1502,35.4551,331.2489],[37.1455,35.4364,339.8551],[37.1455,35.4271,352.9694],[37.1416,35.4193,363.6626],[37.1331,35.4131,357.7253],[37.0801,35.4115,436.7867],[37.0716,35.403,429.7805],[37.0708,35.3773,433.3398],[37.0747,35.371,409.5073],[37.0833,35.3671,407.2639],[37.1113,35.3664,365.4163],[37.1183,35.3617,372.8911],[37.1237,35.3555,389.1489],[37.1268,35.3469,376.118],[37.1253,35.3259,389.3376],[37.1198,35.3134,399.0151],[37.1121,35.3033,398.5143],[37.1019,35.294,402.6152],[37.0926,35.2745,433.5035],[37.1012,35.2652,429.8298],[37.1152,35.2535,420.4018],[37.1323,35.2434,429.551],[37.1486,35.2379,422.2941],[37.1899,35.2371,464.3169],[37.2031,35.2418,477.2366],[37.2125,35.2488,493.0616],[37.2366,35.2784,445.4888],[37.2475,35.2877,437.742],[37.2685,35.2916,434.2698],[37.3947,35.2909,428.3871],[37.4242,35.2955,418.5492],[37.4421,35.3064,413.0505],[37.4569,35.3197,393.2556],[37.4663,35.3298,385.7706],[37.4717,35.3391,380.0708],[37.4741,35.3718,362.469],[37.4709,35.3959,357.5941],[37.4709,35.4139,343.3305],[37.4748,35.424,342.0349],[37.4842,35.4333,340.0855],[37.4951,35.4411,344.9256],[37.5052,35.445,344.6399],[37.5441,35.4442,344.8959],[37.5683,35.4341,352.4711],[37.5877,35.4294,356.9058],[37.6087,35.4271,363.5964],[37.6251,35.4271,367.5402],[37.6407,35.431,374.4791],[37.6585,35.4439,370.8791],[37.6224,35.4776,352.8591],[37.5836,35.5069,343.0009],[37.5672,35.5081,341.0801],[37.5437,35.5058,330.076],[37.4722,35.5034,313.8551],[37.424,35.5046,302.6435],[37.4029,35.5069,299.1453]]]]}}