{"type":"Feature","properties":{"GID_2":"SYR.2.2_1","GID_0":"SYR","country":"Syria","GID_1":"SYR.2_1","province":"Aleppo","NL_NAME_1":"NA","county":"A'zaz","VARNAME_2":"NA","NL_NAME_2":"NA","TYPE_2":"Mantika","ENGTYPE_2":"District","CC_2":"NA","HASC_2":"NA","name":"A'zaz.county"},
"geometry":{"type": "MultiPolygon","coordinates": [[[[37.0108,36.3409,437.3869],[37.0243,36.3409,401.3924],[37.04,36.348,405.6467],[37.0572,36.3509,458.2708],[37.0759,36.3423,472.4756],[37.0945,36.3366,479.9081],[37.1045,36.3409,479.7489],[37.1146,36.3423,485.3839],[37.1303,36.3409,502.6998],[37.1461,36.3265,503.4571],[37.1533,36.3337,493.7095],[37.1576,36.3495,493.1168],[37.1576,36.3624,498.5057],[37.1662,36.3724,495.6424],[37.1805,36.3738,495.2574],[37.1977,36.3695,463.233],[37.2063,36.3595,448.181],[37.1948,36.3366,443.6617],[37.1948,36.3179,418.1288],[37.1991,36.3079,406.7603],[37.2077,36.2993,407.2145],[37.2263,36.2964,425.9403],[37.2392,36.2993,430.5956],[37.2421,36.3079,425.6216],[37.2378,36.3222,421.6567],[37.2478,36.3366,427.1404],[37.2665,36.3452,435.8608],[37.288,36.3523,437.1464],[37.3066,36.3552,484.1899],[37.3123,36.3738,520.5929],[37.3123,36.3896,496.1975],[37.3252,36.4025,488.9034],[37.3467,36.4082,507.7087],[37.3625,36.4254,527.7855],[37.3639,36.4541,512.9384],[37.3725,36.4699,527.4922],[37.3869,36.4727,524.1116],[37.4055,36.467,528.2824],[37.4213,36.467,540.3101],[37.4356,36.477,521.2465],[37.4356,36.5,541.5659],[37.4227,36.5157,503.5603],[37.4181,36.5294,498.1249],[37.4127,36.5301,494.6553],[37.4041,36.5429,477.9358],[37.3969,36.5601,485.3528],[37.3783,36.5874,478.8476],[37.374,36.6046,481.0501],[37.3854,36.6146,480.8183],[37.3998,36.618899999999996,487.8499],[37.4184,36.6218,486.6179],[37.4356,36.6304,495.0342],[37.4466,36.6414,512.9756],[37.4272,36.6458,494.2836],[37.3727,36.6535,500.8113],[37.3348,36.6551,495.0224],[37.3031,36.6616,505.611],[37.2664,36.6649,490.9843],[37.2256,36.6633,511.461],[37.1962,36.6543,508.7976],[37.185,36.6536,508.9913],[37.1744,36.6546,513.169],[37.1511,36.6635,548.5027],[37.1447,36.6632,562.2333],[37.1268,36.6617,558.2288],[37.1219,36.6594,569.1252],[37.1126,36.6463,560.6403],[37.1036,36.627,552.951],[37.0963,36.6235,548.9158],[37.091,36.6236,558.9235],[37.0799,36.6294,575.4739],[37.0542,36.6493,655.9335],[37.04,36.6232,643.11],[37.0343,36.6074,596.0022],[37.0214,36.5874,573.7664],[37.0056,36.573,540.9225],[36.9827,36.5601,600.1912],[36.9641,36.5558,595.7946],[36.9626,36.5372,561.5215],[36.9641,36.5229,553.049],[36.9727,36.4871,490.7343],[36.9813,36.4713,495.2111],[37.0099,36.4455,483.6297],[37.0142,36.4312,446.0374],[37.0128,36.4154,428.6277],[37.0042,36.4125,445.6965],[36.9598,36.4125,528.1587],[36.9526,36.3996,478.2973],[36.9555,36.3853,504.1592],[36.9741,36.3652,441.2236],[36.9841,36.3466,452.6666],[37.0056,36.3409,417.7095],[37.0108,36.3409,437.3869]]]]}}