{"type":"Feature","properties":{"GID_2":"SYR.13.6_1","GID_0":"SYR","country":"Syria","GID_1":"SYR.13_1","province":"RifDimashq","NL_NAME_1":"NA","county":"MarkazRifDimashq","VARNAME_2":"NA","NL_NAME_2":"NA","TYPE_2":"Mantika","ENGTYPE_2":"District","CC_2":"NA","HASC_2":"NA","name":"Markaz_Rif_Dimashq.county"},
"geometry":{"type": "MultiPolygon","coordinates": [[[[36.2891,33.5647,965.7411],[36.262,33.5647,974.5569],[36.2527,33.5657,847.8151],[36.2471,33.5685,840.9447],[36.2434,33.575,889.8078],[36.2452,33.5825,913.6642],[36.2574,33.5909,954.052],[36.2574,33.6235,1112.5063],[36.2466,33.6308,1164.6931],[36.2266,33.6235,1181.3345],[36.1616,33.5661,876.5576],[36.1753,33.5331,908.7968],[36.1762,33.5144,1108.0015],[36.1707,33.5041,1122.979],[36.1595,33.4902,957.8826],[36.1632,33.4836,945.2809],[36.1716,33.4762,881.3452],[36.18,33.4725,831.9714],[36.2117,33.4706,733.3978],[36.2173,33.4678,721.6726],[36.2266,33.4594,709.8736],[36.2368,33.4547,701.2968],[36.2508,33.4501,688.7808],[36.2657,33.4501,681.7985],[36.2769,33.4445,678.1714],[36.2807,33.4408,682.2366],[36.2807,33.4212,677.5641],[36.2601,33.4072,765.9908],[36.2527,33.3923,733.5463],[36.2527,33.3792,706.5227],[36.2424,33.3699,740.5497],[36.2238,33.368,741.0768],[36.2033,33.3709,761.5788],[36.1856,33.3662,744.1754],[36.1669,33.3652,751.9984],[36.1557,33.3615,754.5767],[36.139,33.3373,772.0931],[36.1287,33.3326,789.9152],[36.1035,33.3326,788.368],[36.0989,33.327,808.6216],[36.1007,33.3196,819.4084],[36.1194,33.3,796.272],[36.1222,33.2916,793.5723],[36.1203,33.2841,801.9042],[36.1091,33.272,812.275],[36.097,33.2673,829.4883],[36.0914,33.2627,832.0365],[36.0895,33.2543,827.8002],[36.0979,33.2403,797.4402],[36.0989,33.204,799.019],[36.1147,33.2086,770.4995],[36.1893,33.2086,744.6552],[36.1949,33.2151,715.8008],[36.2079,33.2179,709.6577],[36.2154,33.2226,743.4082],[36.2182,33.2338,733.5237],[36.2191,33.2683,728.3864],[36.2285,33.2804,738.0341],[36.2434,33.2916,736.9658],[36.2667,33.2934,716.6205],[36.2881,33.299,693.3989],[36.3012,33.299,722.2891],[36.3347,33.2776,654.9639],[36.3618,33.2487,641.8965],[36.3655,33.2412,628.182],[36.3674,33.2142,617.0254],[36.3711,33.203,610.2991],[36.3776,33.1965,608.682],[36.3925,33.1965,605.8685],[36.4121,33.1993,609.0851],[36.4298,33.2179,611.7961],[36.4475,33.2403,637.4192],[36.4671,33.2543,623.3651],[36.4914,33.2636,619.4713],[36.5111,33.2777,625.4987],[36.4988,33.313,620.963],[36.4858,33.3326,618.4399],[36.4848,33.3457,614.2352],[36.4671,33.3867,617.8625],[36.469,33.4007,615.9205],[36.4625,33.431399999999996,620.9943],[36.4643,33.4976,621.3599],[36.4746,33.5107,622.1405],[36.4858,33.5172,619.2136],[36.4914,33.5284,617.462],[36.4914,33.5377,614.3818],[36.4858,33.548,614.3913],[36.4662,33.5582,618.2245],[36.4447,33.5638,626.0157],[36.428,33.5657,636.2019],[36.4121,33.5647,649.244],[36.4015,33.562,658.4215],[36.4009,33.5102,645.3241],[36.3305,33.5084,666.5761],[36.3162,33.5147,679.2665],[36.306399999999996,33.5343,705.4203],[36.2895,33.5494,1019.097],[36.2891,33.5647,965.7411]]]]}}