{"type":"Feature","properties":{"GID_2":"SYR.4.2_1","GID_0":"SYR","country":"Syria","GID_1":"SYR.4_1","province":"AsSuwayda'","NL_NAME_1":"NA","county":"Salkhad","VARNAME_2":"NA","NL_NAME_2":"NA","TYPE_2":"Mantika","ENGTYPE_2":"District","CC_2":"NA","HASC_2":"NA","name":"Salkhad.county"},
"geometry":{"type": "MultiPolygon","coordinates": [[[[37.4924,32.6792,806.2777],[37.4564,32.6792,814.6983],[37.3371,32.668,803.9431],[37.1407,32.6693,729.8674],[37.0761,32.6593,785.3466],[37.0114,32.6357,869.7422],[36.9716,32.6171,987.4607],[36.9269,32.6133,1249.5972],[36.8759,32.6022,1485.4365],[36.8424,32.6059,1498.4727],[36.8262,32.6121,1517.7577],[36.8001,32.6121,1524.215],[36.779,32.5872,1487.7511],[36.7765,32.5723,1559.36],[36.7703,32.5512,1435.9479],[36.7516,32.5437,1392.2812],[36.7379,32.5288,1368.4602],[36.6609,32.5288,1321.8049],[36.6484,32.5363,1250.3455],[36.6422,32.5537,1230.5858],[36.6422,32.5823,1254.8932],[36.636,32.5885,1248.3713],[36.6149,32.5823,1155.896],[36.6099,32.5636,1098.9202],[36.5962,32.5475,1064.6912],[36.5863,32.5326,1010.8677],[36.5751,32.5301,984.8202],[36.5552,32.5301,969.1442],[36.5465,32.5238,956.5924],[36.5328,32.5089,938.6805],[36.5304,32.4965,928.8384],[36.5304,32.4878,939.7723],[36.5527,32.4592,984.2257],[36.5552,32.4493,968.8586],[36.5527,32.3971,933.5964],[36.5546,32.3521,913.8404],[36.6704,32.3423,1065.4742],[36.6921,32.3391,1111.6815],[36.7133,32.3252,1067.5044],[36.72,32.3251,1069.1648],[36.7384,32.3324,1119.79],[36.8254,32.3107,1057.6561],[36.8458,32.3125,1091.1351],[36.8893,32.3482,1152.6396],[36.9562,32.3908,1168.3003],[37.4924,32.6792,806.2777]]]]}}