{"type":"Feature","properties":{"GID_2":"SYR.8.4_1","GID_0":"SYR","country":"Syria","GID_1":"SYR.8_1","province":"Hamah","NL_NAME_1":"NA","county":"Muhardeh","VARNAME_2":"NA","NL_NAME_2":"NA","TYPE_2":"Mantika","ENGTYPE_2":"District","CC_2":"NA","HASC_2":"NA","name":"Muhardeh.county"},
"geometry":{"type": "MultiPolygon","coordinates": [[[[36.447,35.2589,177.2548],[36.447,35.2562,177.2678],[36.4534,35.2474,182.2181],[36.4709,35.2315,191.7619],[36.4869,35.2227,196.5969],[36.5004,35.2187,203.6723],[36.5116,35.2116,216.6266],[36.5211,35.2004,248.508],[36.5339,35.1916,259.4373],[36.5625,35.1869,283.6183],[36.5976,35.1773,280.8723],[36.643,35.1749,279.5539],[36.6517,35.1805,279.1263],[36.6565,35.1916,280.8737],[36.6573,35.2108,293.082],[36.6693,35.2243,267.1112],[36.6732,35.2362,304.3733],[36.6732,35.2458,309.0907],[36.6685,35.2554,292.4197],[36.6589,35.2657,297.6078],[36.6541,35.2793,304.4631],[36.6629,35.2896,315.0487],[36.69,35.3119,328.6809],[36.6979,35.3215,329.7393],[36.6955,35.3358,322.6979],[36.6708,35.3629,343.4116],[36.6649,35.3756,335.9588],[36.6501,35.3764,328.8087],[36.6103,35.3923,339.4771],[36.553,35.3923,292.7757],[36.541,35.3947,263.4496],[36.5389,35.3978,274.545],[36.5219,35.39,256.84],[36.4893,35.3876,240.5005],[36.4781,35.3828,226.5887],[36.4693,35.3724,203.4026],[36.4654,35.3621,189.2453],[36.4693,35.3223,178.5395],[36.4638,35.3087,176.7522],[36.463,35.2984,177.196],[36.447,35.2665,178.2089],[36.447,35.2589,177.2548]]]]}}