{"type":"Feature","properties":{"GID_2":"SYR.2.4_1","GID_0":"SYR","country":"Syria","GID_1":"SYR.2_1","province":"Aleppo","NL_NAME_1":"NA","county":"AlBab","VARNAME_2":"NA","NL_NAME_2":"NA","TYPE_2":"Mantika","ENGTYPE_2":"District","CC_2":"NA","HASC_2":"NA","name":"Al_Bab.county"},
"geometry":{"type": "MultiPolygon","coordinates": [[[[37.3123,36.3771,502.8271],[37.3338,36.3738,541.3447],[37.3367,36.3667,548.9843],[37.3381,36.3437,529.2494],[37.3353,36.3208,541.6262],[37.3209,36.2807,545.6856],[37.3238,36.2305,456.7054],[37.3367,36.2133,408.3981],[37.3783,36.2119,387.2322],[37.4127,36.1861,365.1221],[37.4241,36.1675,354.8535],[37.4256,36.1488,347.0457],[37.4313,36.1402,342.4085],[37.4428,36.1288,336.7154],[37.4485,36.1187,330.0809],[37.4456,36.1058,324.8113],[37.4342,36.0901,319.6832],[37.4384,36.0657,317.2953],[37.4843,36.0227,322.1659],[37.5044,36.0098,319.1935],[37.5173,35.9912,339.7611],[37.556,35.9683,344.3044],[37.566,35.9482,435.728],[37.5674,35.8851,360.1006],[37.5789,35.8808,335.8255],[37.5818,35.8923,329.1468],[37.5904,35.9066,311.9888],[37.6033,35.9152,311.0],[37.6104,35.9095,311.0],[37.6133,35.9023,311.0],[37.6147,35.8823,311.0],[37.6262,35.8794,324.4824],[37.6448,35.878,312.0],[37.6663,35.8866,312.0],[37.6807,35.8995,312.0],[37.6893,35.9124,312.0],[37.6893,35.9582,322.093],[37.6921,35.9984,312.138],[37.6921,36.0227,311.6697],[37.685,36.0457,312.47],[37.6821,36.1144,325.667],[37.6835,36.1302,331.6903],[37.695,36.146,335.7633],[37.705,36.1646,343.3934],[37.7079,36.1832,352.9904],[37.7365,36.209,368.6255],[37.7595,36.2119,374.0007],[37.7623,36.2248,380.3297],[37.7494,36.2506,401.4103],[37.7322,36.2549,404.8317],[37.7122,36.2563,389.824],[37.695,36.2678,398.8679],[37.6907,36.2807,412.3585],[37.7036,36.2993,439.567],[37.7222,36.3194,453.1862],[37.7351,36.3366,474.9963],[37.7408,36.3523,476.0591],[37.7437,36.3695,495.3701],[37.7322,36.3896,470.191],[37.7208,36.3996,476.2036],[37.7179,36.4197,486.1359],[37.7208,36.4369,497.5491],[37.7222,36.477,521.1069],[37.715,36.4985,544.7777],[37.7021,36.5071,531.1078],[37.6878,36.5243,517.982],[37.6813,36.5365,518.3297],[37.6706,36.5329,514.8606],[37.619,36.5329,499.3875],[37.6018,36.5387,510.1007],[37.5746,36.5587,530.1465],[37.5517,36.5544,546.7426],[37.5402,36.5401,516.114],[37.5302,36.5329,529.3683],[37.4599,36.5286,549.6561],[37.4181,36.5294,498.1249],[37.4227,36.5157,503.5603],[37.4356,36.5,541.5659],[37.4356,36.477,521.2465],[37.4213,36.467,540.3101],[37.4055,36.467,528.2824],[37.3869,36.4727,524.1116],[37.3725,36.4699,527.4922],[37.3639,36.4541,512.9384],[37.3625,36.4254,527.7855],[37.3467,36.4082,507.7087],[37.3252,36.4025,488.9034],[37.3123,36.3896,496.1975],[37.3123,36.3771,502.8271]]]]}}