{"type":"Feature","properties":{"GID_2":"SYR.11.2_1","GID_0":"SYR","country":"Syria","GID_1":"SYR.11_1","province":"Lattakia","NL_NAME_1":"NA","county":"Jableh","VARNAME_2":"NA","NL_NAME_2":"NA","TYPE_2":"Mantika","ENGTYPE_2":"District","CC_2":"NA","HASC_2":"NA","name":"Jableh.county"},
"geometry":{"type": "MultiPolygon","coordinates": [[[[36.1949,35.2783,1159.2739],[36.1874,35.2758,1232.3698],[36.1105,35.3271,458.1552],[36.0839,35.3424,337.3801],[36.0203,35.3589,138.5351],[36.0018,35.366,122.9429],[35.9608,35.4019,52.2246],[35.9413,35.4132,42.5907],[35.9208,35.4142,7.9684],[35.9151,35.4161,11.5256],[35.9137,35.4137,6.1319],[35.911,35.4135,5.5608],[35.9154,35.4021,3.3904],[35.9165,35.3901,0.0],[35.9199,35.386,5.5628],[35.9182,35.3838,0.0],[35.921,35.381,12.3253],[35.9171,35.3779,0.0],[35.9171,35.3699,0.0],[35.919,35.3662,14.1095],[35.9188,35.3613,0.0],[35.9176,35.361,0.0],[35.919,35.3587,7.4941],[35.9185,35.3513,0.0],[35.9205,35.3465,0.0],[35.9188,35.3438,0.0],[35.9193,35.3307,1.5577],[35.9224,35.3293,0.0],[35.9218,35.3274,0.0],[35.9193,35.3274,0.2599],[35.9204,35.3175,0.2012],[35.919,35.3101,0.8111],[35.9232,35.3079,2.8882],[35.9207,35.3068,0.0],[35.9229,35.3035,2.8031],[35.9207,35.3041,0.0],[35.9199,35.3021,0.0563],[35.9229,35.294,0.0221],[35.9224,35.2907,0.0],[35.921,35.2904,1.1309],[35.9204,35.2768,0.0691],[35.924,35.2668,0.0646],[35.924,35.2624,0.0],[35.9251,35.2612,0.0],[35.9276,35.2629,0.5208],[35.9307,35.2618,0.2486],[35.9329,35.2582,0.0],[35.9321,35.2549,0.0],[35.9382,35.2482,2.5914],[35.9437,35.2355,5.2921],[35.9885,35.2348,108.9379],[35.9998,35.2327,192.5018],[36.0275,35.2102,199.5782],[36.0429,35.2071,384.8988],[36.1044,35.2071,781.6831],[36.13,35.2122,658.1146],[36.171,35.2368,909.9513],[36.1936,35.2686,1173.6389],[36.1949,35.2783,1159.2739]]]]}}