{"type":"Feature","properties":{"GID_1":"SYR.11_1","GID_0":"SYR","country":"Syria","province":"Lattakia","VARNAME_1":"Latakia|AlLadhiqiyah|ElLadhiqi","NL_NAME_1":"NA","TYPE_1":"Muḥāfaẓah","ENGTYPE_1":"Governorate","CC_1":"NA","HASC_1":"SY.LA","ISO_1":"NA","name":"Lattakia.province"},
"geometry":{"type": "MultiPolygon","coordinates": [[[[36.1833,35.2532,1009.8014],[36.1936,35.2686,1173.6389],[36.1949,35.2783,1159.2739],[36.1967,35.2789,1097.8748],[36.2028,35.2922,1151.9012],[36.2049,35.3086,1337.0532],[36.2049,35.3291,1330.7712],[36.1997,35.3732,1227.989],[36.1915,35.3845,1175.2815],[36.1864,35.4081,1119.4304],[36.1803,35.4204,1102.9996],[36.1803,35.4358,1062.2345],[36.1765,35.444,947.4082],[36.1813,35.444,1071.0426],[36.1874,35.4491,1044.2097],[36.2059,35.4901,1258.1713],[36.2059,35.5373,1222.0011],[36.2336,35.6091,1002.2869],[36.2336,35.6224,809.3296],[36.2274,35.6316,1242.1357],[36.2203,35.648,1306.6261],[36.212,35.6552,1315.3972],[36.2069,35.6675,1213.7502],[36.2069,35.6931,1115.9174],[36.2182,35.7208,890.5872],[36.2203,35.7321,923.3403],[36.2274,35.7434,1032.2142],[36.2394,35.7524,1033.6272],[36.2305,35.7539,917.8407],[36.2226,35.7601,755.6832],[36.2182,35.7706,619.3372],[36.2182,35.7812,638.5851],[36.2164,35.7847,559.2955],[36.2076,35.7873,517.0825],[36.197,35.7873,443.7765],[36.1865,35.7935,532.4745],[36.1786,35.8014,563.1826],[36.1701,35.8169,456.2967],[36.1691,35.8154,435.4628],[36.1634,35.8163,410.0395],[36.1548,35.8202,548.8625],[36.1417,35.8465,489.5526],[36.1341,35.8553,566.4886],[36.1164,35.8655,419.5571],[36.0499,35.8791,346.3019],[36.0187,35.8811,623.735],[36.0163,35.8837,597.4088],[36.0149,35.8899,466.4027],[36.0217,35.9087,463.6972],[36.0229,35.9245,552.9534],[36.0163,35.9341,645.9278],[36.0085,35.9403,729.7434],[36.0015,35.9409,862.4837],[35.9937,35.9393,1053.8921],[35.9509,35.9218,801.9933],[35.9358,35.9187,502.0439],[35.9185,35.9323,0.0],[35.9176,35.9287,14.0536],[35.9124,35.9285,5.0355],[35.9101,35.924,1.6997],[35.8996,35.9212,0.0],[35.8946,35.9151,60.6064],[35.8924,35.906,92.3866],[35.8876,35.9035,0.0],[35.8854,35.8885,2.4103],[35.8801,35.874,1.1644],[35.8771,35.869,1.5999],[35.8732,35.8662,0.3841],[35.8649,35.866,0.0],[35.861,35.861,0.0],[35.846,35.8504,18.4151],[35.8288,35.8496,2.234],[35.8251,35.854,0.0],[35.8232,35.8518,4.9891],[35.8179,35.8526,1.8859],[35.814,35.8576,0.0],[35.8087,35.8554,1.0601],[35.8085,35.8537,7.3206],[35.8065,35.8551,1.1041],[35.801,35.8551,0.3576],[35.7999,35.8535,1.1154],[35.8029,35.8504,0.0],[35.8118,35.8485,0.0],[35.8096,35.846,0.0],[35.8065,35.8354,0.0],[35.8112,35.8343,2.4555],[35.8124,35.8301,0.0685],[35.8199,35.8282,0.0],[35.8229,35.8171,32.7745],[35.8204,35.8124,1.0289],[35.8277,35.8077,3.0018],[35.8277,35.8051,0.0],[35.8296,35.8049,0.4906],[35.8288,35.8021,0.9404],[35.8315,35.8007,20.8243],[35.8315,35.7971,7.5968],[35.8296,35.794,0.0],[35.8335,35.7921,7.6143],[35.8385,35.7846,0.0259],[35.8382,35.7813,0.0],[35.8399,35.7804,4.2806],[35.841,35.7762,10.7312],[35.839,35.7724,7.0637],[35.8401,35.7646,0.2708],[35.8435,35.7615,2.5791],[35.8457,35.7507,3.1713],[35.8449,35.7429,9.98],[35.8435,35.7407,0.0],[35.8387,35.7404,38.4628],[35.834,35.7379,2.9566],[35.8326,35.7212,1.8068],[35.8301,35.7151,0.9422],[35.8262,35.7129,21.8804],[35.8179,35.7115,0.0],[35.8157,35.7099,0.0],[35.8168,35.7068,9.7424],[35.8151,35.7046,4.349],[35.8112,35.7046,0.0],[35.8051,35.7004,1.4015],[35.8065,35.6957,8.2958],[35.7999,35.6918,6.474],[35.8004,35.6877,3.3231],[35.7985,35.6851,9.8081],[35.7946,35.6851,0.0],[35.7932,35.6824,0.0],[35.7891,35.6838,0.0],[35.7813,35.6818,5.7683],[35.7724,35.6763,0.0],[35.7685,35.671,0.0],[35.7676,35.6646,0.0],[35.7699,35.6637,11.697],[35.7679,35.6565,0.0],[35.7735,35.6554,0.3577],[35.7777,35.6513,8.0959],[35.7801,35.6371,1.5187],[35.7846,35.6335,0.0],[35.7837,35.6307,3.7035],[35.7815,35.6301,1.8804],[35.7826,35.6279,0.0],[35.779,35.6251,0.0],[35.7799,35.6235,11.463],[35.7771,35.6179,11.6065],[35.7721,35.6174,0.7297],[35.7726,35.614,0.0],[35.7756,35.6121,4.5023],[35.7751,35.6082,2.2137],[35.7707,35.6076,2.129],[35.7687,35.6101,1.4661],[35.7696,35.6121,0.0],[35.7641,35.6101,0.4767],[35.7621,35.6037,1.5029],[35.7576,35.5974,0.0],[35.7582,35.5932,0.0],[35.756,35.5921,0.3681],[35.7518,35.5938,0.0],[35.7516,35.5904,1.0473],[35.7496,35.5887,4.7222],[35.7426,35.5896,0.8062],[35.7426,35.5924,0.0],[35.7412,35.5929,0.0],[35.7343,35.5885,5.3079],[35.7318,35.5885,1.6993],[35.7282,35.5851,5.1124],[35.7205,35.5865,0.2813],[35.7163,35.5854,0.1756],[35.7176,35.584,0.1467],[35.7196,35.5846,3.4216],[35.7176,35.5824,0.4295],[35.7204,35.5824,2.851],[35.7204,35.5788,0.3125],[35.7351,35.584,3.5124],[35.7419,35.5821,0.4428],[35.7454,35.5779,1.7989],[35.7454,35.5735,2.4249],[35.7421,35.5729,1.0846],[35.7413,35.569,0.0],[35.7329,35.5638,0.0],[35.7326,35.561,0.0],[35.7382,35.561,2.0488],[35.7385,35.5571,0.513],[35.7424,35.5571,3.243],[35.7526,35.5499,0.0],[35.7557,35.5515,0.0],[35.7568,35.5488,1.4189],[35.754,35.5485,0.0],[35.7562,35.5438,0.0283],[35.7599,35.5432,0.0],[35.7587,35.546,0.8828],[35.7612,35.546,2.6389],[35.7637,35.544,1.143],[35.7626,35.5396,0.7132],[35.7676,35.5396,0.2901],[35.7721,35.5365,2.528],[35.7715,35.5324,1.5256],[35.7657,35.5279,0.0],[35.7663,35.5251,0.0],[35.7696,35.5257,0.6996],[35.7671,35.5151,0.0],[35.7651,35.5146,0.0],[35.761,35.5088,1.0192],[35.7599,35.5112,0.0],[35.7634,35.5176,0.0],[35.7551,35.5324,0.0],[35.7624,35.5185,0.8621],[35.759,35.5093,0.0],[35.7624,35.5057,0.0],[35.7701,35.5037,0.0],[35.7785,35.4957,1.7259],[35.7818,35.4982,0.0],[35.7835,35.5057,6.9219],[35.7882,35.5065,0.2627],[35.7993,35.5049,0.0],[35.8254,35.4924,2.2024],[35.8777,35.4568,1.1377],[35.9013,35.4357,5.1603],[35.9068,35.4271,1.7816],[35.9124,35.4218,0.7859],[35.9151,35.4161,11.5256],[35.9137,35.4137,6.1319],[35.9113,35.414,0.0],[35.9113,35.4107,3.6165],[35.9154,35.4021,3.3904],[35.9165,35.3901,0.0],[35.9199,35.386,5.5628],[35.9182,35.3838,0.0],[35.921,35.381,12.3253],[35.9171,35.3779,0.0],[35.9171,35.3699,0.0],[35.919,35.3662,14.1095],[35.9188,35.3613,0.0],[35.9176,35.361,0.0],[35.919,35.3587,7.4941],[35.9185,35.3513,0.0],[35.9205,35.3465,0.0],[35.9188,35.3438,0.0],[35.9193,35.3307,1.5577],[35.9224,35.3293,0.0],[35.9218,35.3274,0.0],[35.9193,35.3274,0.2599],[35.9204,35.3175,0.2012],[35.919,35.3101,0.8111],[35.9232,35.3079,2.8882],[35.9207,35.3068,0.0],[35.9229,35.3035,2.8031],[35.9207,35.3041,0.0],[35.9199,35.3021,0.0563],[35.9229,35.294,0.0221],[35.9224,35.2907,0.0],[35.921,35.2904,1.1309],[35.9204,35.2768,0.0691],[35.924,35.2668,0.0646],[35.924,35.2624,0.0],[35.9251,35.2612,0.0],[35.9276,35.2629,0.5208],[35.9307,35.2618,0.2486],[35.9329,35.2582,0.0],[35.9321,35.2549,0.0],[35.9382,35.2482,2.5914],[35.9437,35.2355,5.2921],[35.9885,35.2348,108.9379],[35.9998,35.2327,192.5018],[36.0275,35.2102,199.5782],[36.0429,35.2071,384.8988],[36.1044,35.2071,781.6831],[36.13,35.2122,658.1146],[36.1546,35.2266,558.5901],[36.171,35.2368,909.9513],[36.1833,35.2532,1009.8014]]]]}}