{"type":"Feature","properties":{"ISO3166-1-Alpha-3":"SYR","country":"Syria","fill":"#F00","id":"134","name":"Lattakia"},
"geometry":{"type": "Polygon","coordinates": [[[36.1385,35.81978,441.8491],[36.08031,35.8542,512.1965],[36.05075,35.86541,354.5793],[36.01943,35.86618,572.0619],[36.00393,35.86918,636.7743],[35.99236,35.87735,561.588],[35.99008,35.88928,519.8048],[35.99308,35.90236,488.4925],[35.99277,35.91528,554.9073],[35.98026,35.92685,874.9687],[35.96073,35.92437,871.7328],[35.94058,35.91838,548.5124],[35.92084,35.91512,604.5626],[35.91131,35.91775,376.8297],[35.88526,35.88597,5.286],[35.88103,35.86669,31.2195],[35.87086,35.85179,85.9073],[35.84685,35.84724,27.3667],[35.79859,35.84968,0.0],[35.81186,35.83539,2.4555],[35.82537,35.81346,85.4981],[35.83595,35.78998,1.2039],[35.8401,35.77082,8.8536],[35.84034,35.74746,0.0],[35.83855,35.74209,0.0],[35.80006,35.68146,22.7563],[35.77662,35.67512,22.1565],[35.77117,35.66779,36.8168],[35.7732,35.65546,3.7048],[35.78207,35.64175,8.0647],[35.78435,35.63056,3.7035],[35.77849,35.61274,8.1677],[35.76336,35.59829,2.4769],[35.74342,35.58796,5.6256],[35.7234,35.5821,4.0692],[35.7234,35.57591,0.0],[35.73707,35.5821,0.0],[35.74334,35.5821,3.0667],[35.7409,35.57648,0.0],[35.73878,35.5666,2.2073],[35.73707,35.56167,0.8236],[35.77198,35.54633,4.7772],[35.77809,35.54116,9.633],[35.77711,35.52912,23.4367],[35.77198,35.51545,17.3785],[35.77052,35.50422,11.3167],[35.78126,35.49958,3.9688],[35.78679,35.50218,0.0],[35.80226,35.5069,5.196],[35.81837,35.50894,6.7545],[35.82586,35.50332,3.0845],[35.83009,35.49348,6.101],[35.8401,35.48737,9.5046],[35.86061,35.47907,7.6846],[35.90886,35.42573,7.9651],[35.91896,35.41767,21.1409],[35.91668,35.40331,3.3904],[35.92408,35.33853,11.8148],[35.92897,35.32148,8.3422],[35.91529,35.28791,0.0],[35.9312,35.26149,0.2486],[35.93148,35.26141,1.9165],[35.97427,35.24958,60.1172],[35.98977,35.24147,172.0735],[36.01861,35.2209,185.0818],[36.02564,35.2195,327.4688],[36.17596,35.22922,746.7158],[36.17999,35.23036,632.5464],[36.18728,35.2332,749.6741],[36.20113,35.24007,888.7361],[36.21446,35.23904,1006.4159],[36.25296,35.22343,1167.7927],[36.25043,35.2624,1165.5369],[36.22469,35.3635,1418.8584],[36.20811,35.40228,1049.308],[36.2019,35.42146,1192.0886],[36.20128,35.42518,1273.6111],[36.22051,35.53535,993.769],[36.22438,35.60201,1408.535],[36.22159,35.63333,1314.9668],[36.21896,35.64452,1422.7756],[36.21648,35.65105,1394.4587],[36.21291,35.65684,1298.8879],[36.20113,35.67005,1178.9275],[36.19942,35.67307,1144.9402],[36.19989,35.67725,1187.7091],[36.20283,35.68247,1101.86],[36.21291,35.69095,902.845],[36.2281,35.6996,1041.2662],[36.23074,35.70402,1069.9839],[36.23276,35.71028,1143.2361],[36.23446,35.73557,1103.3782],[36.23865,35.74438,981.8555],[36.25482,35.75593,1005.7467],[36.27994,35.76981,606.9714],[36.28753,35.77789,302.9568],[36.28846,35.78177,351.2463],[36.28846,35.78588,413.8659],[36.28707,35.78973,475.1562],[36.2835,35.79358,485.8333],[36.27947,35.79575,533.6069],[36.27466,35.79689,620.4374],[36.20656,35.79404,449.5996],[36.19834,35.79254,464.0381],[36.18976,35.78986,471.9025],[36.18418,35.78898,517.1064],[36.17643,35.78867,503.9131],[36.16201,35.78981,600.8425],[36.15519,35.79187,426.0951],[36.15085,35.79471,329.4868],[36.14976,35.79802,277.209],[36.14945,35.80164,346.7847],[36.15023,35.80536,427.5388],[36.15178,35.809,371.2606],[36.15317,35.81172,397.1195],[36.15534,35.8173,546.8763],[36.15596,35.81843,505.4372],[36.15531,35.82223,585.289],[36.1385,35.81978,441.8491]]]}}