{"type":"Feature","properties":{"GID_2":"SYR.9.4_1","GID_0":"SYR","country":"Syria","GID_1":"SYR.9_1","province":"Hims","NL_NAME_1":"NA","county":"Hims","VARNAME_2":"NA","NL_NAME_2":"NA","TYPE_2":"Mantika","ENGTYPE_2":"District","CC_2":"NA","HASC_2":"NA","name":"Hims.county"},
"geometry":{"type": "MultiPolygon","coordinates": [[[[36.4596,34.6313,513.6274],[36.4713,34.6302,512.9316],[36.4731,34.6268,516.5264],[36.4723,34.6242,513.9645],[36.5699,34.6227,498.5132],[36.5795,34.6188,505.9418],[36.5834,34.6188,508.2333],[36.5907,34.6221,509.0958],[36.6007,34.6249,511.2229],[36.608,34.6249,514.6304],[36.6159,34.6283,514.4669],[36.626,34.6288,519.1536],[36.6366,34.6249,529.3858],[36.6473,34.6238,537.2407],[36.6607,34.6406,531.1633],[36.6685,34.644,535.085],[36.682,34.6434,549.1887],[36.6971,34.6395,565.1798],[36.6982,34.6283,577.1831],[36.6966,34.6227,580.0905],[36.6797,34.6064,580.4963],[36.6758,34.5997,581.8805],[36.6764,34.5907,587.6775],[36.6792,34.5829,594.2433],[36.6988,34.57,617.8533],[36.7094,34.5655,630.09],[36.738,34.561,665.7932],[36.7688,34.5622,693.71],[36.7784,34.5667,695.9591],[36.798,34.5667,704.3245],[36.8125,34.5599,732.3098],[36.8125,34.542,733.6329],[36.8052,34.5314,750.259],[36.7918,34.5196,745.355],[36.7565,34.4994,715.8329],[36.7246,34.4983,686.2313],[36.7066,34.491,671.9531],[36.6915,34.4871,702.5532],[36.668,34.4742,703.3632],[36.5974,34.4098,613.6601],[36.5598,34.384,641.1219],[36.5453,34.3821,618.9556],[36.5473,34.3845,614.6357],[36.528,34.3702,641.3022],[36.5417,34.3492,777.1812],[36.545,34.3398,847.6973],[36.5505,34.3333,900.9338],[36.5621,34.3259,1000.885],[36.555,34.3095,1129.597],[36.5655,34.3033,1214.4],[36.5694,34.3027,1229.644],[36.5738,34.2966,1290.8218],[36.5979,34.2895,1437.0754],[36.5924,34.2838,1556.3854],[36.5735,34.2746,1612.3464],[36.5756,34.2743,1607.1626],[36.5773,34.2718,1584.7272],[36.5778,34.2654,1522.9976],[36.5837,34.2499,1565.2781],[36.5815,34.232,1640.2821],[36.587,34.224,1719.1829],[36.602,34.2197,1917.231],[36.6171,34.2078,2402.0408],[36.6218,34.1986,2190.3157],[36.6392,34.2057,2003.2975],[36.6531,34.2076,1889.5522],[36.6997,34.2123,1451.0748],[36.7267,34.2123,1333.1918],[36.7342,34.2085,1308.2024],[36.7435,34.1983,1289.5847],[36.7463,34.1862,1273.2422],[36.7463,34.1722,1283.483],[36.7547,34.1619,1251.2867],[36.7677,34.1573,1220.9412],[36.7826,34.1582,1189.168],[36.8013,34.1666,1152.5398],[36.8404,34.188,1102.568],[36.8656,34.1992,1041.9135],[36.8871,34.2029,1046.3069],[36.901,34.2039,1054.7932],[36.9141,34.202,1085.3036],[36.9375,34.1813,1210.3446],[36.955,34.1905,1172.9752],[36.9741,34.1969,1155.4503],[36.9896,34.2047,1132.6512],[37.0158,34.2103,1152.9788],[37.0362,34.211,1047.0029],[37.0532,34.2032,993.2461],[37.0793,34.2032,891.6941],[37.0885,34.2089,879.5897],[37.1111,34.2131,855.0029],[37.1295,34.2237,834.4473],[37.1478,34.2308,816.2145],[37.1902,34.235,770.973],[37.2333,34.2456,745.3417],[37.3357,34.2491,710.7919],[37.3505,34.2534,704.1812],[37.3731,34.2717,679.7879],[37.3795,34.283,666.6598],[37.3795,34.2965,653.514],[37.3858,34.3191,638.333],[37.3866,34.3346,629.9904],[37.4,34.3643,610.1058],[37.4077,34.3749,602.0516],[37.4212,34.3833,594.4243],[37.4353,34.3862,589.667],[37.4459,34.3968,581.6597],[37.4529,34.4215,578.8542],[37.4579,34.4335,581.6394],[37.4671,34.4483,588.8371],[37.4706,34.4646,586.0226],[37.4748,34.5013,590.6122],[37.4918,34.5232,601.293],[37.4932,34.5345,609.573],[37.4911,34.5451,620.5636],[37.484,34.5486,626.4478],[37.4268,34.5486,645.6678],[37.4226,34.5557,658.6047],[37.4233,34.5832,677.0211],[37.4289,34.5882,685.0631],[37.4741,34.5882,668.9149],[37.4826,34.591,670.1302],[37.4861,34.5966,672.6832],[37.484,34.6086,690.9455],[37.4579,34.6192,718.3656],[37.4455,34.6322,742.9264],[37.417,34.6349,741.6666],[37.3313,34.6519,768.0759],[37.3134,34.6556,782.4556],[37.2776,34.6669,810.2111],[37.2371,34.6679,850.5793],[37.223,34.666,862.8854],[37.2136,34.6604,888.4175],[37.1778,34.6594,941.2535],[37.1533,34.6679,854.5274],[37.142,34.6754,822.1081],[37.0572,34.6792,665.5383],[37.0243,34.6792,624.8715],[37.0054,34.6895,602.1592],[36.9922,34.7037,615.9237],[36.9894,34.7169,595.1451],[36.9951,34.7225,572.9258],[37.0054,34.7244,584.3879],[37.013,34.7291,588.8895],[37.013,34.7508,623.2648],[36.9988,34.7762,617.7883],[36.9988,34.7837,625.0912],[37.0139,34.8101,605.9852],[37.0158,34.8204,597.3225],[37.0205,34.8308,579.2952],[37.0233,34.8543,548.147],[37.0277,34.8653,530.3544],[37.0241,34.8663,529.7733],[37.0018,34.8833,516.5194],[36.9881,34.8996,505.3369],[36.9873,34.8943,512.0662],[36.975,34.8841,520.0272],[36.9657,34.8687,531.2881],[36.9432,34.8595,475.0667],[36.9216,34.8533,483.1081],[36.8765,34.8195,510.4829],[36.8529,34.799,523.9445],[36.8376,34.7795,544.0198],[36.8181,34.7621,546.6614],[36.8027,34.7579,539.6801],[36.7689,34.7579,522.6301],[36.7053,34.7672,481.5408],[36.6755,34.7723,468.5831],[36.6561,34.7846,480.6868],[36.6315,34.8246,443.4502],[36.5986,34.8872,407.8977],[36.58,34.9148,390.7347],[36.5771,34.9128,375.9185],[36.5627,34.9118,377.7248],[36.5484,34.9138,375.6124],[36.5269,34.9333,377.7469],[36.5238,34.9425,389.6842],[36.5238,34.96,370.0919],[36.5166,34.9682,370.5032],[36.4992,34.9743,385.1207],[36.4899,34.9712,381.303],[36.4848,34.963,371.8062],[36.4684,34.9487,374.8566],[36.453,34.9169,395.1165],[36.4438,34.9087,458.8408],[36.4028,34.8984,633.3297],[36.37,34.8933,707.8948],[36.359,34.8943,840.4927],[36.3536,34.8861,917.4249],[36.3484,34.8697,980.7949],[36.3484,34.8554,902.6649],[36.3525,34.8431,874.1909],[36.3607,34.8338,854.6616],[36.372,34.8308,1036.7583],[36.41,34.8297,773.0215],[36.4182,34.8246,823.2927],[36.4233,34.8072,689.3599],[36.4264,34.7651,734.7986],[36.4223,34.7579,656.5625],[36.41,34.7538,587.8625],[36.3936,34.7436,473.1752],[36.3628,34.7385,277.2543],[36.3505,34.7333,276.571],[36.3423,34.7262,272.0135],[36.3413,34.7036,264.9161],[36.3454,34.6995,266.6077],[36.3659,34.6995,270.3136],[36.4038,34.7026,414.7296],[36.4192,34.7077,503.3055],[36.4623,34.7118,559.3687],[36.4776,34.7108,555.6675],[36.4817,34.6985,526.8655],[36.451,34.6728,512.2167],[36.4438,34.6585,517.1807],[36.4439,34.6351,511.7617],[36.4521,34.6377,508.8295],[36.4638,34.6362,505.9212],[36.4604,34.6339,508.6659],[36.4596,34.6313,513.6274]]]]}}