{"type":"Feature","properties":{"GID_2":"SYR.13.2_1","GID_0":"SYR","country":"Syria","GID_1":"SYR.13_1","province":"RifDimashq","NL_NAME_1":"NA","county":"An-Nabk","VARNAME_2":"NA","NL_NAME_2":"NA","TYPE_2":"Mantika","ENGTYPE_2":"District","CC_2":"NA","HASC_2":"NA","name":"An-Nabk.county"},
"geometry":{"type": "MultiPolygon","coordinates": [[[[36.4951,34.0488,2595.9277],[36.4897,34.0459,2492.7749],[36.5067,34.037,2223.3704],[36.5225,34.0258,2169.2231],[36.5719,34.0146,1789.7704],[36.598,34.0137,1642.4158],[36.6186,34.01,1560.5354],[36.6307,33.9969,1473.5515],[36.6363,33.9839,1439.3892],[36.6363,33.9745,1399.9257],[36.6316,33.9606,1413.8914],[36.6204,33.9419,1412.0428],[36.6064,33.9251,1441.7695],[36.5984,33.9242,1485.2817],[36.6008,33.9121,1481.8452],[36.6018,33.8953,1621.6431],[36.6074,33.8869,1513.5425],[36.6223,33.8757,1457.6819],[36.6372,33.8794,1424.3538],[36.6512,33.8804,1394.3689],[36.667,33.8869,1410.8885],[36.6959,33.9009,1447.3857],[36.7109,33.9111,1406.9594],[36.736,33.9214,1452.0583],[36.7593,33.9382,1439.2275],[36.8134,33.995,1368.1486],[36.8227,34.0137,1395.0537],[36.8283,34.0351,1520.6549],[36.8376,34.0528,1655.3745],[36.847,34.064,1673.2352],[36.8628,34.0734,1574.1069],[36.9001,34.0799,1737.3925],[36.9318,34.0817,1462.9338],[36.9505,34.0892,1261.6881],[36.9691,34.0911,1134.146],[36.9794,34.0985,1108.7992],[36.9905,34.1023,1096.9431],[37.005,34.1015,1014.7903],[37.0045,34.1097,1049.47],[36.9933,34.12,1282.3793],[36.9691,34.147,1619.0135],[36.9542,34.1666,1348.7557],[36.9141,34.202,1085.3036],[36.901,34.2039,1054.7932],[36.8656,34.1992,1041.9135],[36.8404,34.188,1102.568],[36.8013,34.1666,1152.5398],[36.7826,34.1582,1189.168],[36.7677,34.1573,1220.9412],[36.7547,34.1619,1251.2867],[36.7463,34.1722,1283.483],[36.7463,34.1862,1273.2422],[36.7435,34.1983,1289.5847],[36.7342,34.2085,1308.2024],[36.7267,34.2123,1333.1918],[36.6997,34.2123,1451.0748],[36.6531,34.2076,1889.5522],[36.6392,34.2057,2003.2975],[36.6218,34.1986,2190.3157],[36.6218,34.1955,2276.0029],[36.6204,34.1947,2258.7717],[36.6033,34.192,2240.2202],[36.5997,34.186,2329.3518],[36.5863,34.1773,2286.6172],[36.5849,34.1747,2202.6853],[36.5874,34.1693,2126.0967],[36.5829,34.1653,2224.1548],[36.5817,34.1597,2368.0554],[36.5707,34.1568,2288.3],[36.568,34.1523,2308.373],[36.5725,34.145,2242.2117],[36.568,34.1422,2168.9404],[36.5657,34.1338,2276.0571],[36.5528,34.1297,2368.8267],[36.5512,34.1312,2367.1428],[36.5409,34.1267,2294.9751],[36.5399,34.1217,2292.8669],[36.534,34.1201,2326.1951],[36.5244,34.1144,2285.3247],[36.5139,34.1003,2342.1228],[36.5093,34.0997,2268.3931],[36.506,34.0903,2337.9717],[36.5082,34.0885,2367.321],[36.514,34.0748,2413.0754],[36.5074,34.0631,2555.1147],[36.4983,34.0561,2496.7019],[36.5004,34.0515,2460.4675],[36.4951,34.0488,2595.9277]]]]}}