{"type":"Feature","properties":{"GID_2":"SYR.10.1_1","GID_0":"SYR","country":"Syria","GID_1":"SYR.10_1","province":"Idlib","NL_NAME_1":"NA","county":"Arihah","VARNAME_2":"NA","NL_NAME_2":"NA","TYPE_2":"Mantika","ENGTYPE_2":"District","CC_2":"NA","HASC_2":"NA","name":"Arihah.county"},
"geometry":{"type": "MultiPolygon","coordinates": [[[[36.4305,35.6386,772.8123],[36.432,35.6368,775.349],[36.4417,35.6351,777.2717],[36.476,35.6351,718.0027],[36.4972,35.628,718.5274],[36.5253,35.6289,650.8066],[36.5332,35.6333,620.048],[36.5614,35.6324,648.2716],[36.5948,35.6342,584.0447],[36.6072,35.6377,542.8438],[36.6124,35.6412,540.3263],[36.616,35.6509,591.6514],[36.616,35.6562,575.7809],[36.6204,35.665,561.1793],[36.6318,35.6668,574.8518],[36.6652,35.6668,538.9397],[36.6705,35.6729,527.8911],[36.6732,35.6817,509.3491],[36.6811,35.694,514.9594],[36.7013,35.7178,503.8713],[36.7216,35.7213,483.6482],[36.7361,35.7292,447.6833],[36.7321,35.7416,450.7035],[36.7313,35.7521,469.6526],[36.7225,35.7636,488.7305],[36.7225,35.7759,485.5201],[36.7154,35.7865,460.1223],[36.7119,35.7953,458.4718],[36.7137,35.8067,426.5614],[36.7242,35.8164,412.0195],[36.726,35.8243,410.8651],[36.7172,35.8296,433.3793],[36.6969,35.8375,467.1888],[36.6829,35.8463,465.2596],[36.6793,35.8621,444.5697],[36.667,35.863,453.0279],[36.6573,35.8595,420.0584],[36.6476,35.8533,437.2073],[36.6353,35.8533,469.5214],[36.6212,35.8577,492.2238],[36.6028,35.8762,526.0046],[36.6045,35.8859,503.6092],[36.6001,35.8956,526.4304],[36.5904,35.9017,506.2564],[36.579,35.8991,559.0504],[36.5711,35.8877,586.5369],[36.5605,35.8894,579.1172],[36.5535,35.8947,548.735],[36.5403,35.8965,587.5063],[36.5341,35.8947,548.7664],[36.5139,35.8727,450.0585],[36.5086,35.8613,385.3079],[36.4795,35.8489,227.7945],[36.4616,35.8496,220.2272],[36.4611,35.8234,224.9874],[36.454,35.8111,225.222],[36.4452,35.8023,226.9946],[36.4391,35.7935,228.9752],[36.4373,35.7873,231.8659],[36.4373,35.7838,236.3613],[36.4611,35.7521,319.4858],[36.4584,35.7424,384.3125],[36.4338,35.7407,296.8451],[36.4241,35.7363,292.8657],[36.4232,35.7169,247.8858],[36.4205,35.7151,247.4393],[36.4364,35.7028,405.8432],[36.4408,35.6976,651.9017],[36.4408,35.6896,845.2041],[36.4382,35.6808,858.247],[36.4267,35.6641,754.9862],[36.4259,35.6544,802.9391],[36.4276,35.6421,777.9801],[36.4305,35.6386,772.8123]]]]}}