{"type":"Feature","properties":{"GID_2":"SYR.6.1_1","GID_0":"SYR","country":"Syria","GID_1":"SYR.6_1","province":"Dar`a","NL_NAME_1":"NA","county":"As-Sanamayn","VARNAME_2":"NA","NL_NAME_2":"NA","TYPE_2":"Mantika","ENGTYPE_2":"District","CC_2":"NA","HASC_2":"NA","name":"As-Sanamayn.county"},
"geometry":{"type": "MultiPolygon","coordinates": [[[[36.6093,33.1848,677.7429],[36.6088,33.2207,628.1613],[36.5986,33.2347,615.4562],[36.5864,33.2459,612.8378],[36.5725,33.2673,603.7429],[36.565,33.2841,603.8618],[36.5473,33.2869,602.8229],[36.5193,33.286,613.5544],[36.5091,33.2757,623.4095],[36.4914,33.2636,619.4713],[36.4671,33.2543,623.3651],[36.4475,33.2403,637.4192],[36.4298,33.2179,611.7961],[36.4121,33.1993,609.0851],[36.3925,33.1965,605.8685],[36.3776,33.1965,608.682],[36.3711,33.203,610.2991],[36.3674,33.2142,617.0254],[36.3655,33.2412,628.182],[36.3618,33.2487,641.8965],[36.3347,33.2776,654.9639],[36.3012,33.299,722.2891],[36.2881,33.299,693.3989],[36.2667,33.2934,716.6205],[36.2434,33.2916,736.9658],[36.2285,33.2804,738.0341],[36.2191,33.2683,728.3864],[36.2182,33.2338,733.5237],[36.2154,33.2226,743.4082],[36.2079,33.2179,709.6577],[36.1949,33.2151,715.8008],[36.1893,33.2086,744.6552],[36.1147,33.2086,770.4995],[36.1026,33.2058,791.0502],[36.0728,33.1881,801.071],[36.0541,33.1816,822.9816],[36.0327,33.1816,861.3844],[36.0215,33.1834,870.2186],[36.001,33.19,900.7529],[35.9775,33.1888,929.6581],[35.9797,33.169,932.8173],[35.9884,33.1615,896.6732],[35.9971,33.1578,885.5592],[36.0095,33.1479,855.9237],[36.0157,33.1404,843.4128],[36.0182,33.128,829.2308],[36.0132,33.1131,810.4823],[35.9871,33.1006,829.6692],[35.9697,33.0758,830.0879],[35.9673,33.0596,819.2352],[35.9789,33.0444,801.6919],[35.9809,33.0484,812.4935],[36.0058,33.0633,829.6418],[36.0356,33.0745,756.5049],[36.0679,33.0745,728.7039],[36.0816,33.0695,712.1166],[36.1003,33.041,671.9967],[36.1052,33.0285,651.8337],[36.1139,33.0161,630.075],[36.1289,33.0124,617.9492],[36.1413,33.0149,619.6942],[36.1512,33.026,621.0318],[36.2084,33.0273,604.1942],[36.2333,33.0223,603.1403],[36.2668,33.0124,605.6608],[36.2855,32.9999,608.8196],[36.3116,32.99,611.345],[36.3402,32.985,628.5509],[36.3625,32.9888,638.3784],[36.3911,32.9788,664.7515],[36.4073,32.9639,679.9701],[36.4094,32.9594,693.944],[36.4259,32.9676,703.0374],[36.4409,32.9825,714.7462],[36.4545,32.985,720.8429],[36.5154,32.9863,764.9276],[36.5428,32.9912,769.2134],[36.5689,32.9912,775.1241],[36.5888,33.0037,772.9415],[36.5962,33.0198,787.4473],[36.595,33.0323,761.4583],[36.5801,33.0434,753.0604],[36.5391,33.0546,713.756],[36.5217,33.0621,707.551],[36.5105,33.0758,699.2383],[36.5105,33.1342,650.8351],[36.5229,33.1516,642.1065],[36.5428,33.169,645.6296],[36.5776,33.1802,675.7578],[36.6093,33.1848,677.7429]]]]}}